restaurantID,name,address,location,longitude,latitude,location2,location3
730060,Invictus,"R. José Fontana 10,Albufeira, Portugal","Albufeira, Portugal",-8.2224638,37.0889512,Albufeira,Albufeira
805058,Galinha da Vizinha - Albufeira,"R. Almeida Garrett 71,Albufeira, Portugal","Albufeira, Portugal",-8.2286674,37.0907532,Albufeira,Albufeira
712669,Odessa Sushi Restaurant,"R. da Torre Velha,Albufeira, Portugal","Albufeira, Portugal",-8.29760918,37.07553675,Albufeira,Albufeira
576521,Chutneys,"Tv. Antero de Quental 4B r/c,Albufeira, Portugal","Albufeira, Portugal",-9.2767612,38.7270049,Albufeira,Albufeira
802974,Audaces,"R. Alexandre Herculano 11,Albufeira, Portugal","Albufeira, Portugal",-8.2239481,37.0930286,Albufeira,Albufeira
754579,Al'Italiu,"Rua Alexandre O'Neill,Albufeira, Portugal","Albufeira, Portugal",-8.22870118,37.09928356,Albufeira,Albufeira
690641,Più Bella,"R. José Pinto Simões 10,Albufeira, Portugal","Albufeira, Portugal",-8.2556011,37.0993165,Albufeira,Albufeira
754580,Montechoro,"Rua Alexandre O'Neill,Albufeira, Portugal","Albufeira, Portugal",-8.22870118,37.09928356,Albufeira,Albufeira
65146,O Lusitano,"Urbanização Qta da Correeira - lote 54, bloco 4,Albufeira, Portugal","Albufeira, Portugal",-8.1902122,37.093135,Albufeira,Albufeira
214369,Al Quimia ,"Aldeia da Falésia,Albufeira, Portugal","Albufeira, Portugal",-8.16981125,37.08659744,Albufeira,Albufeira
800947,Lutje,"Estr. de Santa Eulália 6,Albufeira, Portugal","Albufeira, Portugal",-8.22528292,37.09411118,Albufeira,Albufeira
754484,Garden Terrace Bistro,"Av. Dr. Francisco sá Carneiro,Albufeira, Portugal","Albufeira, Portugal",-8.2282351,37.09782075,Albufeira,Albufeira
729328,Olive Bistro & Gastro Bar,"R. da Torre Velha 325H,Albufeira, Portugal","Albufeira, Portugal",-8.29785013,37.07907228,Albufeira,Albufeira
753999,Do Avesso,"R. do Sol loja D, R/C,Albufeira, Portugal","Albufeira, Portugal",-8.4501964,40.7665065,Albufeira,Albufeira
806437,Requinte Frutado,"R. Camilo Castelo Branco 20,Albufeira, Portugal","Albufeira, Portugal",-8.2324053,37.0913026,Albufeira,Albufeira
740769,Prime Sushi & Cocktail Bar,"R. do Movimento das Forças Armadas 8,Albufeira, Portugal","Albufeira, Portugal",-8.2506486,37.089116,Albufeira,Albufeira
690899,Farm Village Lounge Bar & Restaurant,"R. Q.ta dos Caliços,Albufeira, Portugal","Albufeira, Portugal",-8.25084019,37.10449982,Albufeira,Albufeira
312853,Mato à Vista,"Cabanita CP221P, Estr. do Foral,,Albufeira, Portugal","Albufeira, Portugal",-8.31106187,37.07950594,Albufeira,Albufeira
750891,MnM Kitchen,"R. das Telecomunicações 14,Albufeira, Portugal","Albufeira, Portugal",-8.25228214,37.08898926,Albufeira,Albufeira
650787,Appetito Pizza Bar,"R. Gen. Humberto Delgado n62,Albufeira, Portugal","Albufeira, Portugal",-8.25228214,37.08898926,Albufeira,Albufeira
665525,Restaurante Bom Apetite,"Estr. de Santa Eulália, urb telhas verdes, lote 2, loja AB,Albufeira, Portugal","Albufeira, Portugal",-8.52547205,41.15766957,Albufeira,Albufeira
593541,Pizzeria Ristorante Capri,"Estrada do Alfamar- Varzea de Quarteira 953-A,Albufeira, Portugal","Albufeira, Portugal",-8.191091,37.0933073,Albufeira,Albufeira
384377,Donaldo's,"Av. Infante Dom Henrique 4,Albufeira, Portugal","Albufeira, Portugal",-8.2277966,37.0890544,Albufeira,Albufeira
657093,Café Oceano Restaurante,"Largo Cais Herculano nº 12,Albufeira, Portugal","Albufeira, Portugal",-8.24975752,37.08708071,Albufeira,Albufeira
307151,The Market Restaurant,"AV SÁ CARNEIRO Nº1,Albufeira, Portugal","Albufeira, Portugal",-8.22768345,37.0961446,Albufeira,Albufeira
801494,Hamburgueria da Baixa Albufeira,"Av. dos Descobrimentos 5,Albufeira, Portugal","Albufeira, Portugal",-8.22801911,37.09437842,Albufeira,Albufeira
635873,Yakuza by Olivier - Algarve,"Estr. das Açoteias - Pine Cliffs,Albufeira, Portugal","Albufeira, Portugal",-8.17783446,37.09429818,Albufeira,Albufeira
342831,spice Lounge,"8200-090,Albufeira, Portugal","Albufeira, Portugal",-8.2503233,37.08885193,Albufeira,Albufeira
636389,Restaurante Paraiso do Algarve,"Estr. do Foral,Albufeira, Portugal","Albufeira, Portugal",-8.26979244,37.08089009,Albufeira,Albufeira
730521,Paper Moon,"Estrada da Galé,Albufeira, Portugal","Albufeira, Portugal",-8.31563265,37.08094875,Albufeira,Albufeira
325917,Paulus Pizzeria,"Estr. de Santa Eulália,  Edifício Oura Casa Branca - Loja 1,Albufeira, Portugal","Albufeira, Portugal",-8.2238352,37.0934448,Albufeira,Albufeira
639581,Terrazza Del Mare,"R. Alm. Gago Coutinho n.º 31,Albufeira, Portugal","Albufeira, Portugal",-8.55194817,41.32996805,Albufeira,Albufeira
326461,Johnny Hoopers Saxophone Bistro,"R. Almeida Garrett 30,Albufeira, Portugal","Albufeira, Portugal",-8.22926416,37.09080324,Albufeira,Albufeira
731397,Castelo Beach Club,"R. da Torre Velha 2,Albufeira, Portugal","Albufeira, Portugal",-8.2970508,37.0773549,Albufeira,Albufeira
343935,Jaipur,"R. Primeiro de Dezembro 28,Albufeira, Portugal","Albufeira, Portugal",-8.25674496,37.08824163,Albufeira,Albufeira
804109,Jardim Rustico,"Av. Sá Carneiro 185,Albufeira, Portugal","Albufeira, Portugal",-8.2286822,37.0975749,Albufeira,Albufeira
206495,Louro e Salsa,"R. de Dunfermline, Lote11F,Albufeira, Portugal","Albufeira, Portugal",-8.24896925,37.09284544,Albufeira,Albufeira
732202,Infinity - Sushi & Steakhouse,"R. São Gonçalo de Lagos,Albufeira, Portugal","Albufeira, Portugal",-8.24974243,37.08729741,Albufeira,Albufeira
732206,Italian Planet Restaurant,"Av. da Liberdade 54-56,Albufeira, Portugal","Albufeira, Portugal",-8.2536769,37.0898802,Albufeira,Albufeira
730516,Market Kitchen,"Estrada da Galé,Albufeira, Portugal","Albufeira, Portugal",-8.31563265,37.08094875,Albufeira,Albufeira
405433,Mother India,"Av. dos Descobrimentos,Albufeira, Portugal","Albufeira, Portugal",-8.23126882,37.09412843,Albufeira,Albufeira
393031,Memórias,"R. Miguel Torga,Albufeira, Portugal","Albufeira, Portugal",-8.23319642,37.09087567,Albufeira,Albufeira
285899,Wild&Co Steakhouse,"Avenida Sá Carneiro,Albufeira, Portugal","Albufeira, Portugal",-8.2255332,37.0933345,Albufeira,Albufeira
652333,Steakhouse by Real,"Grande Real Santa Eulália Resort & Hotel SPA,Albufeira, Portugal","Albufeira, Portugal",-8.25228214,37.08898926,Albufeira,Albufeira
730107,Restaurante Ribeiros,"Estr. de Santa Eulália,Albufeira, Portugal","Albufeira, Portugal",-8.22528292,37.09411118,Albufeira,Albufeira
695905,Hope Tapas Lounge Bar,"Casa Do Lobo 13, Sítio de Santa Eulalia 8200-037 Albufeira,Albufeira, Portugal","Albufeira, Portugal",-8.22528292,37.09411118,Albufeira,Albufeira
755354,Texas Grill & Bar,"Av. 25 de Abril B,Albufeira, Portugal","Albufeira, Portugal",-8.25064945,37.0881734,Albufeira,Albufeira
735118,Xerém Restaurante,"8200,Albufeira, Portugal","Albufeira, Portugal",-8.24396133,37.09772491,Albufeira,Albufeira
583727,Os Gregos,"Av. da Liberdade 158,Albufeira, Portugal","Albufeira, Portugal",-8.2546099,37.0920772,Albufeira,Albufeira
732209,Central Planet Restaurant Grill,"Av. da Liberdade 44,Albufeira, Portugal","Albufeira, Portugal",-8.2536139,37.0897363,Albufeira,Albufeira
434481,Italian Republic - Albufeira,"R. Ramalho Ortigão 11,Albufeira, Portugal","Albufeira, Portugal",-8.22608943,37.08792177,Albufeira,Albufeira
689089,SolGamba,"R. do Ténis 3,Albufeira, Portugal","Albufeira, Portugal",-8.2565138,37.0871175,Albufeira,Albufeira
689837,O Barril,"Urb. os quintalões, lote 1, vale sta. maria,Albufeira, Portugal","Albufeira, Portugal",-8.013428,37.1360449,Albufeira,Albufeira
755356,Casa Nostra,"Av. 25 de Abril,Albufeira, Portugal","Albufeira, Portugal",-8.2498549,37.08806145,Albufeira,Albufeira
572301,Grill en Oven,"Av. Sá Carneiro 35,Albufeira, Portugal","Albufeira, Portugal",-8.22787111,37.0921359,Albufeira,Albufeira
804171,Vino by Paper Moon,"Estrada da Galé,Albufeira, Portugal","Albufeira, Portugal",-8.31563265,37.08094875,Albufeira,Albufeira
731195,Atlântico,"R. Gen. Humberto Delgado 30,Albufeira, Portugal","Albufeira, Portugal",-8.30063995,37.12671174,Albufeira,Albufeira
737426,Il Basilico Algarve,"PortoBay Falésia - Quinta do Milharó - Olhos de Água,Albufeira, Portugal","Albufeira, Portugal",-8.19172096,37.09207153,Albufeira,Albufeira
389931,Ramos,"Av. Sá Carneiro, 31,Albufeira, Portugal","Albufeira, Portugal",-8.2278196,37.0918013,Albufeira,Albufeira
681997,Alecrim,"R. Alexandre O'Neil, Jupiter Albufeira Hotel,Albufeira, Portugal","Albufeira, Portugal",-8.22870118,37.09928356,Albufeira,Albufeira
65222,Uzonj,"8200-278,Albufeira, Portugal","Albufeira, Portugal",-8.23372746,37.09145737,Albufeira,Albufeira
706709,A Taberna ,"Rua Alexandre O'Neill,Albufeira, Portugal","Albufeira, Portugal",-8.22870118,37.09928356,Albufeira,Albufeira
705933,UDDO,"EPIC SANA Algarve Hotel - Pinhal do Concelho, Praia da Falésia,Albufeira, Portugal","Albufeira, Portugal",-8.16896057,37.08798218,Albufeira,Albufeira
498585,Open Deck ,"EPIC SANA Algarve Hotel Pinhal do Concelho, Praia da Falésia, Olhos de Água,Albufeira, Portugal","Albufeira, Portugal",-8.93866315,38.60354285,Albufeira,Albufeira
342331,Adega do David,"R. Fernão de Magalhães 16,Albufeira, Portugal","Albufeira, Portugal",-8.3585799,37.1028199,Albufeira,Albufeira
498601,Lima,"EPIC SANA Algarve Hotel Pinhal do Concelho, Praia da Falésia, Olhos de Água,Albufeira, Portugal","Albufeira, Portugal",-8.93866315,38.60354285,Albufeira,Albufeira
657123,Curry Leaves,"Estr. de Santa Eulália, Edificio Oura Branca, lote 6, loja 11,Albufeira, Portugal","Albufeira, Portugal",-8.2187721,37.090628,Albufeira,Albufeira
756109,Taverna Olhos D'Água,"R. Torre da Medronheira 1,Olhos de Água, Portugal","Albufeira, Portugal",-8.1916193,37.0922689,Olhos de Água,Albufeira
714221,Tasca da Cascata,"R. de Dunfermline, Lote 12,Albufeira, Portugal","Albufeira, Portugal",-8.23300771,37.09241447,Albufeira,Albufeira
735677,Frank's,"Urbanizaçao Vila Praia, Rua Torre da Medronheira 1,Albufeira, Portugal","Albufeira, Portugal",-8.1916193,37.0922689,Albufeira,Albufeira
466777,Alisios Terraço,"Av. Infante Dom Henrique 83,Albufeira, Portugal","Albufeira, Portugal",-7.9380475,37.0198103,Albufeira,Albufeira
752467,Di São Paulo - Esfiharia & Pizzaria,"Beco Vitorino Nemésio,Albufeira, Portugal","Albufeira, Portugal",-8.8835397,38.9227749,Albufeira,Albufeira
732699,Dolce Pizzeria Ristorante,"Av. Dr. Lourenço Peixinho n196,Aveiro, Portugal","Aveiro, Portugal",-8.65361691,40.64118576,Aveiro,Aveiro
389605,Rebaldaria,"R. dos Combatentes da Grande Guerra,Aveiro, Portugal","Aveiro, Portugal",-8.65291767,40.63928983,Aveiro,Aveiro
702001,Rekint,"R. de São Sebastião 119B,Aveiro, Portugal","Aveiro, Portugal",-8.648922,40.6349789,Aveiro,Aveiro
728498,Vaticano Aveiro,"R. do Ten. Rezende 24,Aveiro, Portugal","Aveiro, Portugal",-8.654381,40.6422935,Aveiro,Aveiro
751919,Rosa Sushi,"Av. Claudino Santos Costa, S/N,Aveiro, Portugal","Aveiro, Portugal",-8.76240095,40.5614351,Aveiro,Aveiro
733644,FAMA by Luís Lavrador,"Av. Dom Frei Miguel Bulhões e Sousa, nr 44, Fração A,Aveiro, Portugal","Aveiro, Portugal",-8.6451193,40.62620865,Aveiro,Aveiro
710824,Green Point,"R. Prior Manuel A Fernandes 26,Aveiro, Portugal","Aveiro, Portugal",-8.627776,40.6719779,Aveiro,Aveiro
805731,Prosa,"Tv. dos Ourives 1,Aveiro, Portugal","Aveiro, Portugal",-8.65361691,40.64118576,Aveiro,Aveiro
735017,Courage,"Rua Engenheiro Von Haffe - 34,Aveiro, Portugal","Aveiro, Portugal",-8.6452388,40.643894,Aveiro,Aveiro
752493,Deck & Ria,"R. de José Rabumba 16,Aveiro, Portugal","Aveiro, Portugal",-8.6554275,40.64074094,Aveiro,Aveiro
735891,Il Libertino,"Av. Santa Joana 81,Aveiro, Portugal","Aveiro, Portugal",-8.6526752,40.6372944,Aveiro,Aveiro
802202,The Iron Duke GastroPub,"Tv. da Rua Direita 6,Aveiro, Portugal","Aveiro, Portugal",-8.5908078,40.6705744,Aveiro,Aveiro
754781,Restaurante Clandestino By Salpoente,"Pte. da Dobadoura,Aveiro, Portugal","Aveiro, Portugal",-8.52545678,40.59131671,Aveiro,Aveiro
752503,San Marco,"R. de José Rabumba 5,Aveiro, Portugal","Aveiro, Portugal",-8.65533041,40.64084112,Aveiro,Aveiro
76432,Imperial,"R. Dr. Nascimento Leitão 1 - Hotel Imperial,Aveiro, Portugal","Aveiro, Portugal",-8.65361691,40.64118576,Aveiro,Aveiro
590181,Pizaria do Nosso Bairro by 4 Nós,"Cais dos Botirões 23,Aveiro, Portugal","Aveiro, Portugal",-8.65778649,40.64002566,Aveiro,Aveiro
672451,Porta 36,"Largo da Praça do Peixe - 36,Aveiro, Portugal","Aveiro, Portugal",-8.65542461,40.64217675,Aveiro,Aveiro
724851,Pizzaria Feira dos 5,"Praça Egas Moniz 8,Murtosa, Portugal","Aveiro, Portugal",-8.6379926,40.73408377,Murtosa,Aveiro
726346,Porta 35,"Rua do Tenente Rezende - 35,Aveiro, Portugal","Aveiro, Portugal",-8.654676,40.6422201,Aveiro,Aveiro
413953,Necas' House,"Rua Tenente Resende, 53,Aveiro, Portugal","Aveiro, Portugal",-8.6549953,40.6422367,Aveiro,Aveiro
711314,Lobby Business Restaurant,"Aveiro Business Center Rua da Igreja, nº79 Nª Srª de Fátima,Aveiro, Portugal","Aveiro, Portugal",-8.6293316,40.66174435,Aveiro,Aveiro
806404,Plazza Forneria,"Av. José Estevão 687,Gafanha da Nazaré, Portugal","Aveiro, Portugal",-8.69379055,40.6359586,Gafanha da Nazaré,Aveiro
713320,Manjar de Helena,"R. Dr. Manuel Pinto 8,Águeda, Portugal","Aveiro, Portugal",-8.44813643,40.57037446,Águeda,Aveiro
753431,Restaurante Búzios (Pousada da Ria),"Bico do Muranzel,Torreira, Portugal","Aveiro, Portugal",-8.71103764,40.76462936,Torreira,Aveiro
743557,O Santos,"Av. Marginal Carlos Cardoso de Oliveira 42,Sao Jacinto, Portugal","Aveiro, Portugal",-43.43757576,-21.67654137,Sao Jacinto,Aveiro
743274,PATEIRA,"R. Pateira 84,Fermentelos, Portugal","Aveiro, Portugal",-8.5152018,40.5718586,Fermentelos,Aveiro
630877,Restaurante São Pedro (In Gold Hotel),"Rua Manuel Sousa Carneiro - 25,Águeda, Portugal","Aveiro, Portugal",-8.4384853,40.5742252,Águeda,Aveiro
749207,Costa Do Sal Boat Lounge,"Avenida José Estevão, Cais Costa Do Sal Hotel Costa Nova,Gafanha da Encarnação, Portugal","Aveiro, Portugal",-8.74951522,40.61287056,Gafanha da Encarnação,Aveiro
591923,Bacalhau e Afins,"R. de João Afonso de Aveiro 13,Aveiro, Portugal","Aveiro, Portugal",-8.60844752,40.59437327,Aveiro,Aveiro
64774,Salpoente,"Cais de São Roque - 83,Aveiro, Portugal","Aveiro, Portugal",-8.65361691,40.64118576,Aveiro,Aveiro
801266,Pizza Vinho Águeda,"R. Barrocos 2,Barrô, Portugal","Aveiro, Portugal",-8.3767137,41.5714103,Barrô,Aveiro
755026,MIMO Il Gusto Italiano,"Av. da Bela Vista 186,Gafanha da Encarnação, Portugal","Aveiro, Portugal",-8.7508378,40.6114066,Gafanha da Encarnação,Aveiro
703683,Aurora by Vitor Veloso,"Rua D. Paio Peres Correia 14,Loulé, Portugal","Loulé, Portugal",-8.86444092,38.92999622,Loulé,Loulé
511735,Olivola ristorante,"8100 257,Loulé, Portugal","Loulé, Portugal",-8.01859188,37.1315918,Loulé,Loulé
729152,UMAI - Gastrobar & Sushibar,"R. Eng. Duarte Pacheco,Loulé, Portugal","Loulé, Portugal",-8.10580641,37.07430002,Loulé,Loulé
750478,Oliwander's,"R. Primeiro de Dezembro 38,Loulé, Portugal","Loulé, Portugal",-9.240553,38.7584396,Loulé,Loulé
805663,Pizzaria Luzzo Loulé,"Travessa do Beco 3,Loulé, Portugal","Loulé, Portugal",-8.3419385,39.2538255,Loulé,Loulé
710519,Bica Velha,"R. Martim Moniz 17,Loulé, Portugal","Loulé, Portugal",-8.0239181,37.13877575,Loulé,Loulé
808058,Eat Thai Craft Bar,"R. Eng. Duarte Pacheco 81,Loulé, Portugal","Loulé, Portugal",-8.0227435,37.1365602,Loulé,Loulé
753640,Flor da Praça,"Rua José Fernandes Guerreiro nº44,Loulé, Portugal","Loulé, Portugal",-8.022768,37.1381601,Loulé,Loulé
626757,A Quinta,"Rua Vale Formoso,Loulé, Portugal","Loulé, Portugal",-8.02873452,37.08945766,Loulé,Loulé
389671,11 da Villa,"Largo Dom Pedro I,Loulé, Portugal","Loulé, Portugal",-8.02403195,37.13929064,Loulé,Loulé
727932,Retiro do Camponês,"Vale Judeu, Rua João Ramos,Loulé, Portugal","Loulé, Portugal",-8.09391082,37.11575643,Loulé,Loulé
489485,La Gioconda (Loulé),"R. a Voz de Loulé 2-3,Loulé, Portugal","Loulé, Portugal",-8.0171725,37.1399599,Loulé,Loulé
560545,El Cartel,"R. de São Paulo 27,Loulé, Portugal","Loulé, Portugal",-8.0249596,37.1379977,Loulé,Loulé
800809,Simona's O Bom Paladar,"R. do Comércio 367A,Almancil, Portugal","Loulé, Portugal",-8.03817501,37.08715544,Almancil,Loulé
685275,Wine Bistro,"Urbanização Vila Sol, Lote E loja 4,Quarteira, Portugal","Loulé, Portugal",-8.0863055,37.0849496,Quarteira,Loulé
594635,United Kitchens of India,"Largo da Oliveira Velha D10,Quarteira, Portugal","Loulé, Portugal",-8.12095926,37.10334699,Quarteira,Loulé
741367,Ambrosia Bistro,"Estr. Vale Formoso,Loulé, Portugal","Loulé, Portugal",-8.02514232,37.09791786,Loulé,Loulé
617845,Buddha House Restaurant and Garden,"Caminho das Pereiras 156 H,Almancil, Portugal","Loulé, Portugal",-8.05030381,37.09183367,Almancil,Loulé
408673,Borges,"Estr. Vale Formoso 168,,Loulé, Portugal","Loulé, Portugal",-8.0278194,37.0912539,Loulé,Loulé
594229,Arcadas do Fado,"Av. 5 de Outubro 85,Almancil, Portugal","Loulé, Portugal",-8.03295139,37.08742962,Almancil,Loulé
805029,Cervejaria Ribadouro Loulé,"Av. Algarve 1,Almancil, Portugal","Loulé, Portugal",-8.0600389,37.0764476,Almancil,Loulé
310141,Mr. Freddie`s,"Estr. das Escanchinas,Almancil, Portugal","Loulé, Portugal",-8.05192314,37.0838255,Almancil,Loulé
408647,Barbacoa Steak House Português,"Rua Vale Formoso Nº 645,Loulé, Portugal","Loulé, Portugal",-8.61290126,41.17091326,Loulé,Loulé
806791,Ravinala,"R. da República 24,Almancil, Portugal","Loulé, Portugal",-8.0299832,37.0858593,Almancil,Loulé
756091,Don Juan,"Edf. Irbosol, Estr. das Escanchinas Faro Portugal,Almancil, Portugal","Loulé, Portugal",-8.04447611,37.0932383,Almancil,Loulé
753984,Restaurante Sabores,"N396 491A,Quarteira, Portugal","Loulé, Portugal",-8.0567232,37.09429225,Quarteira,Loulé
201820,Henrique Leis,"Estr. Vale Formoso,Loulé, Portugal","Loulé, Portugal",-8.02514232,37.09791786,Loulé,Loulé
408667,Don Giovanni,"R. do Comércio 16,Almancil, Portugal","Loulé, Portugal",-8.0368119,37.0890715,Almancil,Loulé
563483,Brava,"Estrada de Vale de Éguas 26,Almancil, Portugal","Loulé, Portugal",-8.04267335,37.0997319,Almancil,Loulé
806804,Rio,"R. da Alemanha 80,Quarteira, Portugal","Loulé, Portugal",-8.17330625,41.44527415,Quarteira,Loulé
302389,New Fat Frog,"Estr. Vale Formoso,Almancil, Portugal","Loulé, Portugal",-8.02828366,37.09000915,Almancil,Loulé
807268,austa,"R. Cristóvão Pires Norte - Edificio Dunas Living,Almancil, Portugal","Loulé, Portugal",-8.036991,37.08047045,Almancil,Loulé
743838,O Grego,"R. Primeiro de Dezembro 2,Almancil, Portugal","Loulé, Portugal",-9.2377533,38.7590802,Almancil,Loulé
343941,Coriander Lounge,"Buganvilla Plaza Shop 14 Quinta Do Lago,Almancil, Portugal","Loulé, Portugal",-8.02712822,37.06049728,Almancil,Loulé
290077,Green Valley,"Quinta do Lago, Vale Verde,,Almancil, Portugal","Loulé, Portugal",-8.03078175,37.08752823,Almancil,Loulé
437123,Tapas & Vinho,"Estrada Vale do Lobo, n.º 862 Escanxinas,Almancil, Portugal","Loulé, Portugal",-8.0632667,37.05501945,Almancil,Loulé
801020,Sushi Ya Fusion - Almancil,"R. do Comércio 56,Almancil, Portugal","Loulé, Portugal",-8.0372368,37.088407,Almancil,Loulé
752563,L'Alma,"Av. 5 de Outubro 255,Almancil, Portugal","Loulé, Portugal",-8.03860704,37.09215779,Almancil,Loulé
739763,Italian Republic - Almancil,"Rua do Comércio 540 Escanchinas,Almancil, Portugal","Loulé, Portugal",-8.47128954,40.48885111,Almancil,Loulé
800644,Restaurante Casa da Quinta,"R. Cristóvão Pires Norte,Almancil, Portugal","Loulé, Portugal",-8.036991,37.08047045,Almancil,Loulé
408661,Piri Piri D'Almancil,"Rua Vale Formoso, 1 R/C,Almancil, Portugal","Loulé, Portugal",-8.0243905,37.0947162,Almancil,Loulé
65152,Le Marquis,"8005-488,Faro, Portugal","Loulé, Portugal",-7.95434475,37.12797165,Faro,Loulé
737288,Donkey's Bar & Restaurant,"São Faustino,Boliqueime, Portugal","Loulé, Portugal",-8.15907764,37.13320541,Boliqueime,Loulé
800374,Dona Steakhouse,"Av. Duarte Pacheco 210,Almancil, Portugal","Loulé, Portugal",-8.0284985,37.085965,Almancil,Loulé
756927,Vivant,"R. do Comércio,Almancil, Portugal","Loulé, Portugal",-8.0357067,37.0894501,Almancil,Loulé
64951,Thai Bistro,"Rua Dina Maria 51,Almancil, Portugal","Loulé, Portugal",-8.03341221,37.08996945,Almancil,Loulé
800637,Taberna Poço d'Almancil by Lucia Ribeiro,"Estr. Vale Formoso 221,Almancil, Portugal","Loulé, Portugal",-8.0277484,37.0907278,Almancil,Loulé
65225,Figueiral,"Rua Cristovão Pires Norte,Almancil, Portugal","Loulé, Portugal",-8.036991,37.08047045,Almancil,Loulé
344911,BellaRosa,"Estrada de Vale do Lobo, Encanxinas, Almancil, 8135-016 Almancil, Portugal,Almancil, Portugal","Loulé, Portugal",-8.04517544,37.07408026,Almancil,Loulé
742942,Oscars Bar & Kitchen,"Zona Comercial Vila Sol Vila Sol,Quarteira, Portugal","Loulé, Portugal",-8.10415173,37.06801224,Quarteira,Loulé
450867,The Magnolia Hotel Restaurant,"Estr. Q.ta do Lago,Almancil, Portugal","Loulé, Portugal",-8.03078175,37.08752823,Almancil,Loulé
540491,Restaurante Gamboa,"R. Manuel dos Santos Vaquinhas 21 loja a,Almancil, Portugal","Loulé, Portugal",-8.03153829,37.08555033,Almancil,Loulé
804891,Domar Restro & Bar,"Av. 5 de Outubro 178,Alamansil, Portugal","Loulé, Portugal",-8.49861063,41.19177775,Alamansil,Loulé
64741,Willie's,"Rua do Brasil - 2,Quarteira, Portugal","Loulé, Portugal",-8.1095747,37.0947027,Quarteira,Loulé
72176,Bovino SteakHouse,"Rua Formosa, Quinta do Lago 8135,Almancil, Portugal","Loulé, Portugal",-8.02316876,37.03258697,Almancil,Loulé
334845,Raízes,"Quinta das Raposeiras, Fração C,Faro, Portugal","Loulé, Portugal",-7.93511295,37.01535797,Faro,Loulé
428575,Restaurante Bar O Pinhal,"Sítio da Cascalheira,Quarteira, Portugal","Loulé, Portugal",-8.06315469,37.0987674,Quarteira,Loulé
752576,Amara Restaurant,"Four Seasons Fairways, Av. André Jordan nr 37, 8135-024 Almancil, Portugal,Almancil, Portugal","Loulé, Portugal",-8.0194429,37.05038486,Almancil,Loulé
737071,Monky,"R. Moto Clube de Faro Loja A/B nº3,Faro, Portugal","Faro, Portugal",-7.91963906,37.02468203,Faro,Faro
805603,Esboço,"Tv. do Pé da Cruz n13,Faro, Portugal","Faro, Portugal",-7.93511295,37.01535797,Faro,Faro
806148,Wow sushi bar Faro,"R. Reitor Teixeira Guedes 11,Faro, Portugal","Faro, Portugal",-7.9292457,37.0172373,Faro,Faro
508743,My oMeu,"R. Conselheiro Sebastiao Teles 8A,Faro, Portugal","Faro, Portugal",-7.9381311,37.0191402,Faro,Faro
801019,Sushi Ya Fusion - Faro,"R. Jose Estevao 1,Faro, Portugal","Faro, Portugal",-7.9339567,37.0175697,Faro,Faro
804429,Marisqueira Gimbras,"R. Gen. Teofilo da Trindade 3,Faro, Portugal","Faro, Portugal",-7.9288611,37.0159906,Faro,Faro
805527,Petiscaria Decanter,"Lgo do Pé da Cruz 1,Faro, Portugal","Faro, Portugal",-7.93511295,37.01535797,Faro,Faro
806640,Natsu Ramen & Bubble Tea,"R. de São Luís 94,Faro, Portugal","Faro, Portugal",-7.9286779,37.02135,Faro,Faro
734457,Kaira Sushi,"R. Ferreira Neto 23,Faro, Portugal","Faro, Portugal",-7.9338147,37.0176149,Faro,Faro
539199,Travessa -Tapas & Wines,"R. de Santo Antonio 58/60,Faro, Portugal","Faro, Portugal",-7.9319832,37.0163258,Faro,Faro
755836,Santa Maria - Petisca Ria,"Passeio Abu Sào Ibn Harune,Faro, Portugal","Faro, Portugal",-7.93753637,37.01562118,Faro,Faro
553715,Restaurante Tia Ana,"Estr. da Sra. da Saude 320,Faro, Portugal","Faro, Portugal",-7.94029652,37.03660714,Faro,Faro
653901,Alameda,"Rua da Policia da Seguranca Publica, 10,Faro, Portugal","Faro, Portugal",-7.9286042,37.015893,Faro,Faro
803110,Zebra Cantina Italiana,"R. Conselheiro Bivar 24,Faro, Portugal","Faro, Portugal",-7.9356315,37.0170308,Faro,Faro
718828,Restaurante O Rui,"Praia de Faro (junto ao Estacionamento Central),Faro, Portugal","Faro, Portugal",-7.93511295,37.01535797,Faro,Faro
708439,Bottle Wine & Food,"R. de Portugal 19,Faro, Portugal","Faro, Portugal",-7.93204005,37.01851925,Faro,Faro
364169,Taberna Zé-Zé,"Tv. do Alportel 15,Faro, Portugal","Faro, Portugal",-7.9337663,37.0184044,Faro,Faro
806279,Karpa ,"R. Moto Clube de Faro 5,Faro, Portugal","Faro, Portugal",-7.9196508,37.02456,Faro,Faro
735829,ATO,"R. do Albergue 16,Faro, Portugal","Faro, Portugal",-7.9337655,37.0145028,Faro,Faro
802818,Restaurante Hábito,"R. Vasco da Gama 33,Faro, Portugal","Faro, Portugal",-7.9324089,37.016826,Faro,Faro
557337,Pizzeria Italiana-Bell`Antonio,"R. Conselheiro Bivar 52,Faro, Portugal","Faro, Portugal",-7.9359042,37.0173168,Faro,Faro
687531,Seven Cuts,"R. Conselheiro Bivar 12,Faro, Portugal","Faro, Portugal",-7.9354153,37.0168339,Faro,Faro
729368,Eva Steakhouse,"Av. da República,Faro, Portugal","Faro, Portugal",-7.93595003,37.01651713,Faro,Faro
803152,The Flower Bar & Coffee Shop,"R. Ataide de Oliveira 136,Faro, Portugal","Faro, Portugal",-7.9270333,37.0209142,Faro,Faro
701295,SAL'MARE Praia de Faro,"Av. Nascente 6,Faro, Portugal","Faro, Portugal",-7.9918912,37.00607407,Faro,Faro
733662,Cidade Velha Rooftop,"R. Domingos Guieiro,Faro, Portugal","Faro, Portugal",-7.93441255,37.01336075,Faro,Faro
801021,Ramen Ya,"R. Ferreira Neto 7,Faro, Portugal","Faro, Portugal",-7.9336691,37.01793875,Faro,Faro
335163,Spikes,"Vale do Lobo, Algarve, 8135-864, Portugal,Loulé, Portugal","Faro, Portugal",-8.06386662,37.05543518,Loulé,Faro
750145,Cervejaria Boheme - Faro,"R. Conselheiro Bivar 2,Faro, Portugal","Faro, Portugal",-7.93513013,37.01666212,Faro,Faro
660719,Forno Nero ,"Rua de Santo Antonio 25,Faro, Portugal","Faro, Portugal",-7.9329037,37.0161947,Faro,Faro
731865,Conselheiro,"R. Filipe Alistao 43,Faro, Portugal","Faro, Portugal",-7.9347013,37.0180095,Faro,Faro
695625,Restaurante Vanguarda Madeirense,"R. 1º de Dezembro, 28,Faro, Portugal","Faro, Portugal",-8.25674496,37.08824163,Faro,Faro
737271,Bel'mare Gastrobar,"Avenida Nascente, Nº 25 Praia de Faro,Faro, Portugal","Faro, Portugal",-7.9810135,36.9992163,Faro,Faro
805945,Meu Sonho Restaurante,"Rua Brites de Almeida 45,Faro, Portugal","Faro, Portugal",-7.9300202,37.0155181,Faro,Faro
202833,Cidade Velha,"R. Domingos Guieiro 19,Faro, Portugal","Faro, Portugal",-7.9344444,37.0135665,Faro,Faro
748296,Epicur - Wine Boutique & Food,"R. Alexandre Herculano 22A,Faro, Portugal","Faro, Portugal",-7.9322771,37.0148408,Faro,Faro
673509,Adão,"Av. da República 1,Faro, Portugal","Faro, Portugal",-7.9370207,37.0169454,Faro,Faro
439271,Marsol,"Av. Poente,Faro, Portugal","Faro, Portugal",-7.99489418,37.0081947,Faro,Faro
722104,Afecto,"R. 1º de Dezembro 20,Faro, Portugal","Faro, Portugal",-8.2565537,37.0881573,Faro,Faro
70822,Vila Adentro,"Praca Dom Afonso III,Faro, Portugal","Faro, Portugal",-7.9341077,37.01316675,Faro,Faro
803226,La Cucina,"Victoria Gardens, Av. dos Descobrimentos nº 0 - Vilamoura,Faro, Portugal","Faro, Portugal",-8.67671895,37.1098095,Faro,Faro
669165,Restaurante Cinderela,"R. 1º de Dezembro, 19,Faro, Portugal","Faro, Portugal",-7.6466241,37.1285448,Faro,Faro
548419,TERTÚLIA ALGARVIA,"Praça Dom Afonso III,Faro, Portugal","Faro, Portugal",-7.93400936,37.01305613,Faro,Faro
578031,Iguaria Camponesa,"R. Abel Viana 37,Faro, Portugal","Faro, Portugal",-7.962598,37.0367499,Faro,Faro
724764,Céu,"R. Dr. Joao Lucio 5,Faro, Portugal","Faro, Portugal",-7.9308154,37.0168976,Faro,Faro
803402,Restaurante 100 Temperos,"Estr. da Penha 69,Faro, Portugal","Faro, Portugal",-7.9252976,37.0260346,Faro,Faro
727393,Oriental Thai Food,"R. Caçadores Quatro 45,Faro, Portugal","Faro, Portugal",-7.93129955,37.01343035,Faro,Faro
64493,Ria Formosa Restaurante,"Praça D. Francisco Gomes - 2 - 4ºAndar,Faro, Portugal","Faro, Portugal",-7.9345518,37.0159838,Faro,Faro
497057,Aperitivo Bar,"R. Conselheiro Bivar nº51,Faro, Portugal","Faro, Portugal",-7.9359114,37.0170698,Faro,Faro
456013,Lodo,"R. Conselheiro Bivar 53,Faro, Portugal","Faro, Portugal",-7.9359123,37.0171002,Faro,Faro
272825,Visconde - Pousada de Faro,"R. de São Jose,Faro, Portugal","Faro, Portugal",-7.89513186,37.09671465,Faro,Faro
752414,Com - Raw Food Club,"R. Alexandre Herculano 22A, Com Raw Food Club,Faro, Portugal","Faro, Portugal",-7.9322771,37.0148408,Faro,Faro
467179,O Castelo Restaurante Bar Terraza,"R. do Castelo 11,Faro, Portugal","Faro, Portugal",-7.93429732,37.01288556,Faro,Faro
750025,A Oliveira,"Estr. do Aeroporto,Faro, Portugal","Faro, Portugal",-16.8784126,32.65533905,Faro,Faro
337325,Taska Algarvia,"Jardim de S. Pedro, Rua do Alportel, 38,Faro, Portugal","Faro, Portugal",-7.9334871,37.0190944,Faro,Faro
705605,Grandbar & Lounge - Wyndham Grand Algarve,"Av. André Jordan 39,Almancil, Portugal","Faro, Portugal",-8.01903445,37.05176013,Almancil,Faro
801022,Fasian Ya,"8700-304,Olhão, Portugal","Faro, Portugal",-7.8423748,37.0238533,Olhão,Faro
745340,Costa do Sol,"Estrada Nacional 125,Olhão, Portugal","Faro, Portugal",-7.75674205,37.0660885,Olhão,Faro
727691,Limoni,"Av. Ayrton Senna da Silva, Vale dos Pinheiros, Quinta do Lago,Almancil, Portugal","Faro, Portugal",-8.02954805,37.04487185,Almancil,Faro
801460,Nature Coffee & Bistro,"Av. Ayrton Senna da Silva 79,Almancil, Portugal","Faro, Portugal",-43.65867311,-22.65677933,Almancil,Faro
746742,Cestaria - Bistro de Artesão,"Av. 5 de Outubro 102,Olhão, Portugal","Faro, Portugal",-7.8416867,37.0240143,Olhão,Faro
748635,Playa,"Marina Ria Center, Av. 5 de Outubro,Olhão, Portugal","Faro, Portugal",-7.7859003,37.08576128,Olhão,Faro
705595,Caravela - Wyndham Grand Algarve,"Av. André Jordan 39,Almancil, Portugal","Faro, Portugal",-8.01903445,37.05176013,Almancil,Faro
64896,Tucano's,"Avenida Ayrton Senna da Silva - 8135-162,Almancil, Portugal","Faro, Portugal",-8.02543968,37.05719037,Almancil,Faro
520019,Tapas e Lendas,"R. Dr. Manuel Arriaga,Olhão, Portugal","Faro, Portugal",-7.84383035,37.0244619,Olhão,Faro
801123,XXL by Olivier  Quinta do lago ,"Av. André Jordan 39,Almancil, Portugal","Faro, Portugal",-8.01903445,37.05176013,Almancil,Faro
722705,Tacho D'Avó,"R. Manuel Teixeira Gomes,Olhão, Portugal","Faro, Portugal",-7.84944767,37.02465549,Olhão,Faro
546833,"Petiscais- Restaurante , cervejaria e petiscaria","R. dos Combatentes da Grande Guerra, Estação Ferroviaria,Olhão, Portugal","Faro, Portugal",-8.10084124,39.37001649,Olhão,Faro
426209,A Taska,"Praça João de Deus 34,Olhão, Portugal","Faro, Portugal",-7.8448051,37.0262631,Olhão,Faro
660435,Ammar i Mar,"Av. 5 de Outubro 174,Olhão, Portugal","Faro, Portugal",-7.8441379,37.0238581,Olhão,Faro
450863,Dano’s Sports Bar & Restaurant,"The Campus, Av. Ayrton Senna,Quinta do Lago, Portugal","Faro, Portugal",-8.0277953,37.04206925,Quinta do Lago,Faro
745725,La Gamba - Marisqueira,"Urb. Village Marina, L20A,Olhão, Portugal","Faro, Portugal",-99.50084726,27.42466211,Olhão,Faro
742875,Wine Time by Tapas e Lendas,"R. Dr. Manuel Arriaga 18,Olhão, Portugal","Faro, Portugal",-7.8438654,37.0246274,Olhão,Faro
211371,Pizza na Pedra,"Av. 5 de Outubro 50,Olhão, Portugal","Faro, Portugal",-7.84029226,37.02399181,Olhão,Faro
629397,Hola Torito,"Av. 5 de Outubro 160,Olhão, Portugal","Faro, Portugal",-7.843208,37.0238817,Olhão,Faro
613899,Alma Temperada,"R. das Prainhas lote 20,Olhão, Portugal","Faro, Portugal",-7.84490012,37.0244904,Olhão,Faro
65233,Casa do Lago,"Beira lago, Quinta do Lago,Almancil, Portugal","Faro, Portugal",-8.02150485,37.03128785,Almancil,Faro
652283,Mogno,"Av. 5 de Outubro 160,Olhão, Portugal","Faro, Portugal",-7.843208,37.0238817,Olhão,Faro
65218,2 Passos,"Praia do Ancão,Vale do Lobo, Portugal","Faro, Portugal",-8.05822945,37.05165482,Vale do Lobo,Faro
73039,Sushi Moment's,"Av. da República 150,Olhão, Portugal","Faro, Portugal",-7.83879424,37.02941377,Olhão,Faro
751439,Maré Shrimp & Stuff,"R. José Barbosa,Olhão, Portugal","Faro, Portugal",-8.72010485,41.40306654,Olhão,Faro
66797,Casa Velha,"Rua Formosa - Roundabout 6,Almancil, Portugal","Faro, Portugal",-8.02316876,37.03258697,Almancil,Faro
747816,O Palco,"Av. Dom Afonso Henriques 55,Coimbra, Portugal","Coimbra, Portugal",-8.4143535,40.2097576,Coimbra,Coimbra
674091,Refeitro da Baixa,"Terreiro da Erva Nº2 e 4,Coimbra, Portugal","Coimbra, Portugal",-8.43040302,40.21222608,Coimbra,Coimbra
756301,MA Restaurante,"R. do Norte 13,Coimbra, Portugal","Coimbra, Portugal",-8.4264948,40.208732,Coimbra,Coimbra
738144,Allôpizza,"R. Dr. Rosa Falcão 38,Coimbra, Portugal","Coimbra, Portugal",-8.4326287,40.21407755,Coimbra,Coimbra
756294,Notes Bar & Kitchen,"R. Dr. Manuel Rodrigues 17,Coimbra, Portugal","Coimbra, Portugal",-8.43245567,40.21365278,Coimbra,Coimbra
732733,La Divina's Pizzeria,"R. Carlos Seixas 267 A,Coimbra, Portugal","Coimbra, Portugal",-8.4195133,40.193847,Coimbra,Coimbra
736393,Peixe do Mercado,"R. Olímpio Nicolau Rui Fernandes 208,Coimbra, Portugal","Coimbra, Portugal",-8.42685376,40.21169313,Coimbra,Coimbra
805806,Restaurante Bodega Brasileira,"R. Martins de Carvalho 24,Coimbra, Portugal","Coimbra, Portugal",-8.4285944,40.2107282,Coimbra,Coimbra
723757,António dos Leitões - Porta Larga,"R. das Padeiras 35,Coimbra, Portugal","Coimbra, Portugal",-8.43026093,40.20984303,Coimbra,Coimbra
731347,Devaneio Bistro & Wine bar,"Adro de Baixo,Coimbra, Portugal","Coimbra, Portugal",-8.42920113,40.21149063,Coimbra,Coimbra
432009,Shari Sushi Bar,"Av. Mendes Silva,Coimbra, Portugal","Coimbra, Portugal",-8.41583,40.19297965,Coimbra,Coimbra
738343,JustSushi Coimbra,"Av. Sá da Bandeira 17,Coimbra, Portugal","Coimbra, Portugal",-8.4237939,40.2116413,Coimbra,Coimbra
712333,Spaghetti Notte,"R. Vitorino Nemésio 397,Coimbra, Portugal","Coimbra, Portugal",-8.39226514,40.21384913,Coimbra,Coimbra
575123,No Tacho,"R. da Moeda 20,Coimbra, Portugal","Coimbra, Portugal",-8.4296994,40.2109229,Coimbra,Coimbra
731673,Restaurante Cordel Maneirista,"R. Carlos Alberto Pinto de Abreu 4,Coimbra, Portugal","Coimbra, Portugal",-8.43565952,40.20253272,Coimbra,Coimbra
727498,Maria Rio,"Rua Couraça de Lisboa Nº5,Coimbra, Portugal","Coimbra, Portugal",-8.4272969,40.2064086,Coimbra,Coimbra
316753,Honorato – Coimbra,"R. Joao de Deus Ramos 146,Coimbra, Portugal","Coimbra, Portugal",-8.4045613,40.2035531,Coimbra,Coimbra
720182,Terraço da Alta,"Couraça dos Apóstolos 47-49 Coimbra,Coimbra, Portugal","Coimbra, Portugal",-8.42920113,40.21149063,Coimbra,Coimbra
670899,Cervejaria Reduto,"Avenida Fernão de Magalhães - 274,Coimbra, Portugal","Coimbra, Portugal",-8.4329483,40.2124673,Coimbra,Coimbra
64972,Solar do Bacalhau,"Rua da Sota - 10,Coimbra, Portugal","Coimbra, Portugal",-8.43095162,40.20855921,Coimbra,Coimbra
451513,Simone Coffee Shop,"R. João Machado 5, 3000-226 Coimbra,Coimbra, Portugal","Coimbra, Portugal",-8.4329091,40.2142259,Coimbra,Coimbra
540961,Petisqueira Portuguesa,"Largo da Sota, 6,Coimbra, Portugal","Coimbra, Portugal",-8.43095915,40.20857126,Coimbra,Coimbra
752812,Petisqueira Navegadores,"Rua do Brasil 434,Coimbra, Portugal","Coimbra, Portugal",-8.42113175,40.19963611,Coimbra,Coimbra
742803,Piscinas do Mondego,"Rotunda das Lages – Sta. Clara Parque Verde do Mondego 3041-901,Coimbra, Portugal","Coimbra, Portugal",-8.38854085,40.1743482,Coimbra,Coimbra
754487,Fogo e Tradição,"Segunda Travessa Rua Salgueiro Maia nº3,Coimbra, Portugal","Coimbra, Portugal",-8.4413458,40.1992466,Coimbra,Coimbra
756371,Tasca Conceito,"R. Carminé de Miranda 7,Coimbra, Portugal","Coimbra, Portugal",-8.456712,40.1955134,Coimbra,Coimbra
728353,D.Lucia,"R. das Azeiteiras 36,Coimbra, Portugal","Coimbra, Portugal",-8.4301015,40.2088687,Coimbra,Coimbra
204763,República da Saudade,"(Junto à rotunda da Fucoli),Coimbra, Portugal","Coimbra, Portugal",-8.40438947,40.20509454,Coimbra,Coimbra
736274,Terraço Bairrada,"Av. Lousã 98,Coimbra, Portugal","Coimbra, Portugal",-8.4149081,40.2105306,Coimbra,Coimbra
203825,Compostu Tavern,"R. Cap. Luís Gonzaga 27/29,Coimbra, Portugal","Coimbra, Portugal",-8.40659608,40.21673361,Coimbra,Coimbra
741515,Rio Mondego II,"R. do Corvo 8,Coimbra, Portugal","Coimbra, Portugal",-8.429381,40.2106526,Coimbra,Coimbra
727512,Manjar do Lambuças,"Rua do Brasil, nº350-352,  3030-775 Coimbra,Coimbra, Portugal","Coimbra, Portugal",-8.41259918,40.20196759,Coimbra,Coimbra
680119,Palativm Restaurante,"Palácio São Silvestre – Boutique Hotel, Largo do Terreiro, n 5,São Silvestre, Portugal","Coimbra, Portugal",-8.53401225,40.2283234,São Silvestre,Coimbra
468801,Loggia,"Largo Dr. José Rodrigues,Coimbra, Portugal","Coimbra, Portugal",-8.40454299,40.19205421,Coimbra,Coimbra
543029,Gavius Restaurante,"R. Francisco de Lemos,Condeixa-a-Nova, Portugal","Coimbra, Portugal",-8.49792757,40.11567934,Condeixa-a-Nova,Coimbra
739072,Locomotiva BA61 Restaurante,"Rua da República, 10,Pampilhosa do Botão, Portugal","Coimbra, Portugal",-8.4300672,40.337756,Pampilhosa do Botão,Coimbra
66695,Arcadas,"Rua António Augusto Gonçalves,Santa Clara, Portugal","Coimbra, Portugal",-8.43239165,40.19927565,Santa Clara,Coimbra
730263,Museu da Chanfana,"Parque Biológico da Serra da Lousã - Quinta da Paiva,Miranda do Corvo, Portugal","Coimbra, Portugal",-8.33354855,40.09411621,Miranda do Corvo,Coimbra
65220,Manuel Júlio,"R. Feira 7,Casal Comba, Portugal","Coimbra, Portugal",-8.4255809,40.3353219,Casal Comba,Coimbra
64858,Trovador,"Largo da Sé Velha - 15/17,Coimbra, Portugal","Coimbra, Portugal",-8.4274721,40.20883089,Coimbra,Coimbra
743970,Burguezia do Leitão,"R. São Domingos 29 3050, Casal Comba,Casal Comba, Portugal","Coimbra, Portugal",-8.4802573,40.3717337,Casal Comba,Coimbra
737928,Safra Restaurante,"R. Central 35,Rio de Vide, Portugal","Coimbra, Portugal",-8.3847012,40.4879157,Rio de Vide,Coimbra
803015,O Açude (Coimbra),"Av. da Guarda Inglesa 63,Santa Clara, Portugal","Coimbra, Portugal",-8.43954749,40.20963207,Santa Clara,Coimbra
723740,Restaurante O Castiço,"Av. Cidade de Coimbra 95, 3050-374 Mealhada, Aveiro,Mealhada, Portugal","Coimbra, Portugal",-8.4536987,40.36364303,Mealhada,Coimbra
739469,Couceiro dos Leitoes,"Av. Cidade de Coimbra 85,Mealhada, Portugal","Coimbra, Portugal",-8.7946697,40.4556412,Mealhada,Coimbra
66696,Pedro&Inês,"Rua António Augusto Gonçalves 30,Santa Clara, Portugal","Coimbra, Portugal",-8.43239165,40.19927565,Santa Clara,Coimbra
470547,Quinta das Queimadas-Panorama,"R. Estr. do Turismo,Bragança, Portugal","Bragança, Portugal",-6.75637188,41.78801882,Bragança,Bragança
563013,Cavaleiro,"R. do Sabor 3461,Gimonde, Portugal","Bragança, Portugal",-6.69802625,41.80328984,Gimonde,Bragança
743357,Galinha da Vizinha Bragança,"Av. Sá Carneiro 296 Loja 3,Bragança, Portugal","Bragança, Portugal",-6.76846258,41.79974228,Bragança,Bragança
800650,Gorgonzola - Pizzaria e Restaurante,"R. Prof. Dionísio Gonçalves 2,Bragança, Portugal","Bragança, Portugal",-6.7626514,41.8097475,Bragança,Bragança
713366,Cabra Preta,"R. de Santa Maria 13,Castelo Branco, Portugal",Castelo Branco,-7.4948083,39.8230875,Castelo Branco,Castelo Branco
723224,Di Mario Ristorante Pizzeria,"R. António Sérgio 50,Guarda, Portugal","Guarda, Portugal",-7.26231728,40.53840299,Guarda,Guarda
719731,Aquarius,"Av. Cidade de Salamanca 3A / 3B,Guarda, Portugal","Guarda, Portugal",-7.253164,40.5449759,Guarda,Guarda
755010,Pizzaria Central,"Av. de São Miguel 125,Guarda, Portugal","Guarda, Portugal",-7.2416507,40.5558323,Guarda,Guarda
671921,Maharani Leiria,"Rua Gago Coutinho - 17,Leiria, Portugal","Leiria, Portugal",-8.80826475,39.74502157,Leiria,Leiria
64760,Restaurante Saloon - Quinta do Paul,"Estrada Nacional 109,Leiria, Portugal","Leiria, Portugal",-8.83886508,39.87387545,Leiria,Leiria
747241,Pizzaria Luzzo Leiria,"Largo Comendador Armando Lopes - 18 - Loja 2,Leiria, Portugal","Leiria, Portugal",-8.80395999,39.74622182,Leiria,Leiria
807202,A Palhota Carioca,"Rua dos Poços - 28,M.nha Grande, Portugal","Leiria, Portugal",-8.40512339,41.39380428,M.nha Grande,Leiria
752016,Steakhouse Chefe Artur,"Rua Jacinta Marto - 78,Fátima, Portugal","Leiria, Portugal",-8.6804408,39.6333034,Fátima,Leiria
696851,Kabuki Sushi - Leiria,"Av. Combatentes da Grande Guerra,Leiria, Portugal","Leiria, Portugal",-8.80803,39.74311075,Leiria,Leiria
724327,Koború,"Rua Doutor António da Costa Santos - 9,Leiria, Portugal","Leiria, Portugal",-8.80534395,39.74269209,Leiria,Leiria
733710,Gulloso Restaurante,"Avenida dos Pastorinhos - 806,Fátima, Portugal","Leiria, Portugal",-8.66564869,39.62501876,Fátima,Leiria
752608,Restaurante D. Dinis,"Estrada Nacional 109 - KM 161.4,Regueira de Pontes, Portugal","Leiria, Portugal",-8.83549,39.8903798,Regueira de Pontes,Leiria
451467,A Cave,"Av. dos Pastorinhos 895,Fátima, Portugal","Leiria, Portugal",-8.66550882,39.62471482,Fátima,Leiria
77544,Mosteiro do Leitão,"IC2 - Casal da Amieira N.º 33,Batalha, Portugal","Leiria, Portugal",-8.82426262,39.65784454,Batalha,Leiria
65082,Taberna do Bacalhau,"R. Francisco Marto 28,Fátima, Portugal","Leiria, Portugal",-8.66730763,39.62735357,Fátima,Leiria
65078,O Convite by Dom Gonçalo Hotel,"Rua Jacinta Marto - 100,Fátima, Portugal","Leiria, Portugal",-8.6824349,39.6344539,Fátima,Leiria
65229,O Casarão,"Estrada da Maceira nº 10,Azoia, Portugal","Leiria, Portugal",-9.3911788,38.7996606,Azoia,Leiria
576019,A Cabaça,"R. Francisco Marto N0 115 Cave,,Fátima, Portugal","Leiria, Portugal",-8.67025624,39.62913196,Fátima,Leiria
581217,Barrote,"Av. dos Pescadores 2A - Praia da Vieira,Vieira de Leiria, Portugal","Leiria, Portugal",-8.96575748,39.87284596,Vieira de Leiria,Leiria
671289,Frango da Villa,"IC2 - Casal da Amieira, Nº 38,Batalha, Portugal","Leiria, Portugal",-8.84457025,39.64163393,Batalha,Leiria
370301,Vintage,"Largo Mte. Afonso Domingues,Batalha, Portugal","Leiria, Portugal",-8.82645702,39.65711567,Batalha,Leiria
705325,Turpial,"Rua Jacinta Marto - 13 - Cova da Iria,Fátima, Portugal","Leiria, Portugal",-8.67613829,39.6315905,Fátima,Leiria
733531,Joao Paulo II,"Rua Jacinta Marto - 33 - Edifício João Paulo II,Fátima, Portugal","Leiria, Portugal",-8.67652001,39.6316734,Fátima,Leiria
660927,"Restaurante Bar ""O Recinto""","Av. de Dom José Alves Correia da Silva,Fátima, Portugal","Leiria, Portugal",-8.6712869,39.62723105,Fátima,Leiria
571519,Paparica,"R. da Base Aérea 215,Monte Real, Portugal","Leiria, Portugal",-8.87901796,39.82911728,Monte Real,Leiria
752053,Portalegre Palace,"R. Alexandre Herculano 2,Portalegre, Portugal","Portalegre, Portugal",-7.4308014,39.2972262,Portalegre,Portalegre
528361,Copy Tapa,"Rua do Poeta José Régio 12,Portalegre, Portugal","Portalegre, Portugal",-7.43026729,39.28836917,Portalegre,Portalegre
66846,filip.é,"Rua Nova - 24, Portagem. São Salvador De Aramenha. Marvão 7730-328,Marvão, Portugal","Portalegre, Portugal",-7.38034864,39.38456201,Marvão,Portalegre
463349,Dom Manuel,"Largo de Olivença, 0,Marvão, Portugal","Portalegre, Portugal",-7.34801659,39.41543034,Marvão,Portalegre
450399,Varanda do Alentejo,"Praça do Pelourinho 1-A,Marvão, Portugal","Portalegre, Portugal",-7.37630073,39.39415814,Marvão,Portalegre
65242,Sever,"Estr. do Rio Sever 4,Marvão, Portugal","Portalegre, Portugal",-7.38221993,39.37359006,Marvão,Portalegre
273433,Pousada do Marvão,"R. 24 de Janeiro, 7  Pousada do Marvão,Marvão, Portugal","Portalegre, Portugal",-7.3759434,39.3935178,Marvão,Portalegre
273437,Pousada Mosteiro do Crato,"R. do Mosteiro,Crato, Portugal","Portalegre, Portugal",-7.64877447,39.30577042,Crato,Portalegre
392771,Casa dos Torricados,"R. Dr. Jaime Figueiredo, 25,Santarém, Portugal","Santarem, Portugal",-8.6879843,39.23775817,Santarém,Santarem
692199,BlackFrog,"R. Padre João Rodrigues Ribeiro 1A,Santarém, Portugal","Santarem, Portugal",-8.6882318,39.2270896,Santarém,Santarem
714971,Giulietta Pizza & Gelato,"Quinta das Cegonhas,Santarém, Portugal","Santarem, Portugal",-8.68707466,39.23618317,Santarém,Santarem
368255,Bambu Sushi Spot,"Av. Dom Afonso Henriques 85,Santarém, Portugal","Santarem, Portugal",-8.6874172,39.2295254,Santarém,Santarem
729460,Pátio da Graça,"R. Primeiro de Dezembro 7,Santarém, Portugal","Santarem, Portugal",-8.8745051,39.4048111,Santarém,Santarem
735085,Sapori D' Italia,"Tv. da Boleta,Santarém, Portugal","Santarem, Portugal",-54.70517978,-2.44213585,Santarém,Santarem
696907,Ó Balcão,"R. Pedro de Santarém 73,Santarém, Portugal","Santarem, Portugal",-8.6859157,39.231921,Santarém,Santarem
726677,OH!VARGAS,"Estrada Nacional 3 - nr 28 / 30  Portela das Padeiras,Santarém, Portugal","Santarem, Portugal",-8.69640782,39.26678472,Santarém,Santarem
735666,Amassa,"R. Elias Garcia,Santarém, Portugal","Santarem, Portugal",-8.6847536,39.23423424,Santarém,Santarem
683677,Di Gusto,"R. Eng. António José Souto Barreiros Mota 6,Santarém, Portugal","Santarem, Portugal",-8.69060289,39.23038904,Santarém,Santarem
801131,Fun Hot Pot,"R. João Afonso 44,Santarém, Portugal","Santarem, Portugal",-8.68376162,39.23433944,Santarém,Santarem
707363,Galinha da Vizinha Santarém - Complexo Aquático,"Complexo Aquático - Rua Sociedade Jardim de Cima,Santarém, Portugal","Santarem, Portugal",-8.68151095,39.25789349,Santarém,Santarem
666447,Dois Petiscos,"R. Cidade da Covilhã , 4,Santarém, Portugal","Santarem, Portugal",-8.6857003,39.2375172,Santarém,Santarem
368237,Tascá Santarém,"R. Arco de Manços 8,Santarém, Portugal","Santarem, Portugal",-7.5928646,38.8418903,Santarém,Santarem
715901,Hamburgueria BURGUESITA,"R. Arco Manços 114-118,Santarém, Portugal","Santarem, Portugal",-8.6851472,39.2340229,Santarém,Santarem
666545,O pizzas de Santarém,"Praceta Cónego Dr. Manuel Nunes Formigão 7B,Santarém, Portugal","Santarem, Portugal",-8.42182823,39.60982546,Santarém,Santarem
743359,Galinha da Vizinha Santarém - Centro,"R. Soeiro Pereira Gomes 5,Santarém, Portugal","Santarem, Portugal",-8.6866454,39.2283341,Santarém,Santarem
697243,Mercearia d'Almeirim,"Rua Conde da Taipa - 8,Almeirim, Portugal","Santarem, Portugal",-8.62659752,39.21188742,Almeirim,Santarem
748157,Belluno - Restaurante,"Belluno - Restaurante & Bar Lounge, Santarém, Portugal,Santarém, Portugal","Santarem, Portugal",-8.68707466,39.23618317,Santarém,Santarem
806350,Ode Cellar Door,"R. Cel. Lopes Mateus 13,Vila Chã de Ourique, Portugal","Santarem, Portugal",-8.766871,39.1719716,Vila Chã de Ourique,Santarem
752868,News ,"Praça Lourenço de Carvalho - 7,Almeirim, Portugal","Santarem, Portugal",-8.6728263,39.2381822,Almeirim,Santarem
756255,Restaurante 1143,"R. Comendador Francisco Firmino Ribeiro da Costa 11,Vale da Pinta, Portugal","Santarem, Portugal",-8.82621127,39.17165802,Vale da Pinta,Santarem
740495,OH!RIO,"Rua Primeiro de Maio - Parque Aventura Só Rio,Valada, Portugal","Santarem, Portugal",-8.7619135,39.07980605,Valada,Santarem
756903,"Terra Bio, Food & Co","Avenida Dom João I 44,Almeirim, Portugal","Santarem, Portugal",-8.6200201,39.2128331,Almeirim,Santarem
740379,Don Formozzini Mercato,"Avenida Luísa Todi - 163 - Mercado do Livramento,Setúbal, Portugal","Setúbal, Portugal",-8.89394944,38.5229808,Setúbal,Setúbal
733846,Pizzeria Madia,"R. Guilherme Gomes Fernandes 12,Setúbal, Portugal","Setúbal, Portugal",-8.9001843,38.5210478,Setúbal,Setúbal
675033,Taberna Grande,"R. Fontaínhas 32,Setúbal, Portugal","Setúbal, Portugal",-9.0791177,38.547704,Setúbal,Setúbal
803598,Amami - comida caseira Japonesa,"R. Paulino de Oliveira 33,Setúbal, Portugal","Setúbal, Portugal",-8.9003794,38.5238153,Setúbal,Setúbal
751974,Tas’ka Moka,"R. Minas da Borralha nº 2A,Setúbal, Portugal","Setúbal, Portugal",-8.8598525,38.5350167,Setúbal,Setúbal
801238,Pizzaria Forno De Lenha,"Av. 5 de Outubro 194,Setúbal, Portugal","Setúbal, Portugal",-8.8935433,38.5254892,Setúbal,Setúbal
751109,Flavours Spot,"Av. Dr. António Rodrigues Manito 47,Setúbal, Portugal","Setúbal, Portugal",-8.89293518,38.53254663,Setúbal,Setúbal
750883,Tasca do Duca,"Rua da Casa Branca nº15 2900-123 Setúbal,Setúbal, Portugal","Setúbal, Portugal",-8.91003,38.5263031,Setúbal,Setúbal
729755,Tapas na baixa,"Av. Luísa Todi 414,Setúbal, Portugal","Setúbal, Portugal",-8.89735692,38.52329792,Setúbal,Setúbal
711981,Casa Japonesa,"Rua Luís Gonzaga do Nascimento - 5B,Setúbal, Portugal","Setúbal, Portugal",-8.899976,38.5273817,Setúbal,Setúbal
746917,Casa Dan,"Av. Belo Horizonte 76A,Setúbal, Portugal","Setúbal, Portugal",-8.8811274,38.5218593,Setúbal,Setúbal
556947,Ryōri Restaurante,"Praça Marquês de Pombal, 2A,Setúbal, Portugal","Setúbal, Portugal",-9.15046702,38.72446396,Setúbal,Setúbal
805253,Don Formozzini - Pizzaria Italiana,"Av. Independência das Colónias,Setúbal, Portugal","Setúbal, Portugal",-8.88896219,38.53355426,Setúbal,Setúbal
606505,490 Taberna STB,"Av. Luísa Todi 490,Setúbal, Portugal","Setúbal, Portugal",-8.89902914,38.52276006,Setúbal,Setúbal
686741,Poço das Fontaínhas,"R. Fontaínhas 98,Setúbal, Portugal","Setúbal, Portugal",-8.8844679,38.5223454,Setúbal,Setúbal
469189,Kodachi - Setúbal,"Rua Plácido Stichini Nº 1,Setúbal, Portugal","Setúbal, Portugal",-8.9012608,38.5206886,Setúbal,Setúbal
710119,Pizzaria Forno Di Napoli,"Av. Luísa Todi 347,Setúbal, Portugal","Setúbal, Portugal",-8.9013094,38.5207468,Setúbal,Setúbal
579537,Martroia,"Av. José Mourinho 116,Setúbal, Portugal","Setúbal, Portugal",-8.89784195,38.52038158,Setúbal,Setúbal
724377,Bistrô & Tapas Restaurante - Meliã Setúbal,"Av. Alexandre Herculano 58,Setúbal, Portugal","Setúbal, Portugal",-8.8898968,38.5287299,Setúbal,Setúbal
373491,A Vela Branca,"Parque Urbano de Albarquel, Edificio 4,Setúbal, Portugal","Setúbal, Portugal",-8.89315319,38.52458572,Setúbal,Setúbal
805376,Alegre-me Healthy Brunch,"R. Antão Girão 77,Setúbal, Portugal","Setúbal, Portugal",-8.88886568,38.52482783,Setúbal,Setúbal
721731,Sushima Setúbal,"R. do Barão do Rio Zezere 6,Setúbal, Portugal","Setúbal, Portugal",-9.1306976,38.7100235,Setúbal,Setúbal
512745,Feito ao Bife by Absurdo,"Av. José Mourinho 24,Setúbal, Portugal","Setúbal, Portugal",-8.90037501,38.52023401,Setúbal,Setúbal
500445,Kodachi - Azeitão,"Rua João Vaz - Lote 101 - Loja 1, Brejos de Azeitão,Setúbal, Portugal","Setúbal, Portugal",-8.8771657,38.5223639,Setúbal,Setúbal
752864,Restaurante Saribas by Maria Mendonça,"Av. 22 de Dezembro 45,Setúbal, Portugal","Setúbal, Portugal",-8.8924571,38.5289652,Setúbal,Setúbal
713739,Tasca da Esquina Setúbal,"R. Flávio Resende 02,Setúbal, Portugal","Setúbal, Portugal",-8.8775877,38.5277107,Setúbal,Setúbal
756162,Aroma,"R. José António Januário da Silva 4,Setúbal, Portugal","Setúbal, Portugal",-8.8907931,38.5236503,Setúbal,Setúbal
684301,"Chef Stories ""About Meat""","R. Cruz Perdigão s/n,Azeitão, Portugal","Setúbal, Portugal",-9.02872231,38.53970321,Azeitão,Setúbal
697837,Barriga de Freira,"Rua Acácio Barradas, Convento Nacional, Largo de Jesus,Setúbal Municipality, Portugal","Setúbal, Portugal",-8.8950008,38.5258089,Setúbal Municipality,Setúbal
742711,Casa das Codornizes,"Praceta de Cabo Verde 26,Palmela, Portugal","Setúbal, Portugal",-8.89725038,38.57159633,Palmela,Setúbal
277565,Flavors,"Estrada Nacional 379 - Espaço do Complexo Fortuna Artes e Ofícios,Q.ta do Anjo, Portugal","Setúbal, Portugal",-7.96828794,39.68219757,Q.ta do Anjo,Setúbal
750670,Restaurante 101,"R. João Vaz 101,São Lourenço, Portugal","Setúbal, Portugal",-9.02694609,38.5424884,São Lourenço,Setúbal
74956,Culto Panorâmico,"Av. dos Cavaleiros de Santiago e Espada 4,Palmela, Portugal","Setúbal, Portugal",-8.8988067,38.567189,Palmela,Setúbal
700719,TajBom,"Av. Antoine Velge, lote 3 - Quinta da Glória,Palmela, Portugal","Setúbal, Portugal",-8.8878879,38.5655501,Palmela,Setúbal
800402,Casa Borba Pizzaria,"R. de Lisboa,São Lourenço, Portugal","Setúbal, Portugal",-7.18417828,38.87735365,São Lourenço,Setúbal
280575,Exotic Sushi Fusion,"R. Manuel Maria Barbosa du Bocage,Pinhal Novo, Portugal","Setúbal, Portugal",-8.9128534,38.6268128,Pinhal Novo,Setúbal
719868,La Picanha,"Largo José Afonso 69,Setúbal, Portugal","Setúbal, Portugal",-8.8988667,38.5211778,Setúbal,Setúbal
650467,Oficina da Carne - Tróia,"Alameda da Marina, Lj. LM6, 7570-789, Portugal,Carvalhal (GDL), Portugal","Setúbal, Portugal",-8.1181504,37.07348594,Carvalhal (GDL),Setúbal
281403,Pousada de Palmela,"Pousada de Palmela,Palmela, Portugal","Setúbal, Portugal",-9.0231781,39.5059166,Palmela,Setúbal
510419,Delhi Darbar - Quinta do Conde,"R. das Faias 1101,Q.ta do Conde, Portugal","Setúbal, Portugal",-8.74287224,41.35379791,Q.ta do Conde,Setúbal
639523,Subarashi Viana,"Praça da Liberdade a1,Viana do Castelo, Portugal","Viana do Castelo, Portugal",-7.57806985,40.25614851,Viana do Castelo,Viana do Castelo
486175,O Botequim,"Av. do Meio 146,Viana do Castelo, Portugal","Viana do Castelo, Portugal",-8.85228151,41.70907068,Viana do Castelo,Viana do Castelo
697183,Bota D'Água,"Largo João Tomás da Costa, 44,Viana do Castelo, Portugal","Viana do Castelo, Portugal",-8.82573031,41.69224904,Viana do Castelo,Viana do Castelo
804349,Piteu,"R. dos Rubins 84,Viana do Castelo, Portugal","Viana do Castelo, Portugal",-8.83036098,41.69301752,Viana do Castelo,Viana do Castelo
455535,Pousada Viana do Castelo,"Monte de Santa Luzia,Viana do Castelo, Portugal","Viana do Castelo, Portugal",-8.59833813,41.75567245,Viana do Castelo,Viana do Castelo
64756,O Laranjeira,"Rua Manuel Espregueira - 24,Viana do Castelo, Portugal","Viana do Castelo, Portugal",-8.82882365,41.69293197,Viana do Castelo,Viana do Castelo
753253,Alcazar,"Avenida S.Romão, nº7,Neiva,Neiva, Portugal","Viana do Castelo, Portugal",-8.7736878,41.6235954,Neiva,Viana do Castelo
807999,Senhor Bacalhau,"4900-066,Afife, Portugal","Viana do Castelo, Portugal",-8.85706234,41.77898026,Afife,Viana do Castelo
374579,Sky Valley Esposende,"Av. Eng. Eduardo Arantes e Oliveira,Esposende, Portugal","Viana do Castelo, Portugal",-8.78338484,41.53289332,Esposende,Viana do Castelo
744735,Argaço Food & Drinks,"R. de Fontela,Moledo, Portugal","Viana do Castelo, Portugal",-8.10533569,41.4764745,Moledo,Viana do Castelo
804081,Gula Steakhouse,"R. Francisco António da Guarda 2,Esposende, Portugal","Viana do Castelo, Portugal",-7.2675727,40.5394755,Esposende,Viana do Castelo
750758,Restaurante Espelho D´Água Hotel Porta do Sol,"Av. Dr. Dantas Carneiro 104,Caminha, Portugal","Viana do Castelo, Portugal",-8.86275345,41.84732691,Caminha,Viana do Castelo
801137,Samsara by Sky Valley,"R. do Farol,Marinhas, Portugal","Viana do Castelo, Portugal",-8.79054609,41.54399903,Marinhas,Viana do Castelo
737564,Lagoa Azul,"R. 5 de Outubro 88,Vila Praia de Âncora, Portugal","Viana do Castelo, Portugal",-8.8647119,41.8151427,Vila Praia de Âncora,Viana do Castelo
688779,Louro,"Largo do Esteiro, 5     Viana do Castelo,Torre, Portugal","Viana do Castelo, Portugal",-8.73695599,41.70973056,Torre,Viana do Castelo
736781,Um Cibo à mesa,"R. de Montezelos 316,Vila Real, Portugal","Vila Real, Portugal",-7.74433442,41.30987478,Vila Real,Vila Real
64903,CAISDAVILLA,"Rua Monsenhor Jerónimo do Amaral,,Vila Real, Portugal","Vila Real, Portugal",-7.73813111,41.2945525,Vila Real,Vila Real
699385,Loja do Covilhete,"R. António de Azevedo nº 60,Vila Real, Portugal","Vila Real, Portugal",-7.7425305,41.3032595,Vila Real,Vila Real
745450,El Camino,"Av. da Europa 14,Vila Real, Portugal","Vila Real, Portugal",-7.7386973,41.3049765,Vila Real,Vila Real
752638,GA.RE. - Garrafeira & Restaurante,"Rua Doutor Lourenço Camilo Costa,Vila Real, Portugal","Vila Real, Portugal",-7.72713385,41.29296722,Vila Real,Vila Real
802352,O Pisco - Restaurante Regional,"R. da Quinta da Mata 5000,Vila Real, Portugal","Vila Real, Portugal",-7.76918569,41.31080346,Vila Real,Vila Real
754719,TerraMar,"Zona Industrial Constatim Lote 151,Vila Real, Portugal","Vila Real, Portugal",-7.6315732,41.55502701,Vila Real,Vila Real
749455,Sushi Real,"N313 23,Vila Real, Portugal","Vila Real, Portugal",-7.7409814,41.3017705,Vila Real,Vila Real
666143,Borralha Restaurante,"Travessa Moreira de Carvalho nº2,Vila Real, Portugal","Vila Real, Portugal",-8.71500618,41.3363673,Vila Real,Vila Real
628989,Restaurante Convívio,"Rua Vasco Sameiro, Travessa António Silva nº 8,Vila Real, Portugal","Vila Real, Portugal",-7.72343674,41.29773072,Vila Real,Vila Real
752845,Casa Chuço,"R. da Raia 266,Vila Real, Portugal","Vila Real, Portugal",-7.76502321,41.306165,Vila Real,Vila Real
317367,DOC Douro - Chef Rui Paula,"Estrada Nacional, 222,Folgosa, Portugal","Vila Real, Portugal",-7.68216118,41.15145043,Folgosa,Vila Real
708481,Casa do Arco by Douro Exclusive,"5085-252,São Cristovão do Douro, Portugal","Vila Real, Portugal",-7.55095148,41.2073288,São Cristovão do Douro,Vila Real
590849,"Quinta do Portal, Casa das Pipas","Estrada Nacional 323, Celeirós,Sabrosa, Portugal","Vila Real, Portugal",-7.57985487,41.26236297,Sabrosa,Vila Real
623963,The River Restaurante,"R. José Vasques Osório,Peso da Régua, Portugal","Vila Real, Portugal",-7.7818707,41.15702797,Peso da Régua,Vila Real
752074,Quinta dos Românticos,"Largo 27 de Maio 84,Canelas, Portugal","Vila Real, Portugal",-7.72920195,41.16495892,Canelas,Vila Real
272309,Restaurante Viriato,"Rua do Hospital - Pousada de Viseu,Viseu, Portugal","Viseu, Portugal",-7.91299205,40.65295475,Viseu,Viseu
715388,Aromático 54,"Largo Prebenda, 51,Viseu, Portugal","Viseu, Portugal",-7.91011731,40.65903586,Viseu,Viseu
748764,Pizzaria Luzzo Viseu,"R. da Paz 1 a 5,Viseu, Portugal","Viseu, Portugal",-7.9126858,40.6569001,Viseu,Viseu
715146,Muralha da Sé,"R. Adro 24,Viseu, Portugal","Viseu, Portugal",-7.91212938,40.6599643,Viseu,Viseu
750472,Hamburgueria do Club,"Av. Dom João II 23,Braga, Portugal","Braga, Portugal",-8.3952917,41.5527703,Braga,Braga
752194,Pizzaria Casa Napoli,"Rua Urbanização Quinta dos Orfeãos BL A,Braga, Portugal","Braga, Portugal",-8.44165645,41.54119,Braga,Braga
801774,Armazém da Sé,"R. Dom Frei Caetano Brandão 95,Braga, Portugal","Braga, Portugal",-8.4285463,41.5500106,Braga,Braga
733920,Nikko,"R. Dom Frei Caetano Brandão 177,Braga, Portugal","Braga, Portugal",-8.428246,41.548369,Braga,Braga
754489,Bill's Sports Bar,"R. Cónego Rafael Álvares da Costa 26,Braga, Portugal","Braga, Portugal",-8.4053636,41.5504186,Braga,Braga
801183,Antù Braga,"R. do Souto 42,Braga, Portugal","Braga, Portugal",-8.4256228,41.5505509,Braga,Braga
806553,Beijing ,"R. Dr. Carlos Lloyd Braga 12,Braga, Portugal","Braga, Portugal",-8.4007757,41.552509,Braga,Braga
749403,Dona Pipa,"R. Dom Rodrigo da Cunha,Braga, Portugal","Braga, Portugal",-8.41162606,41.53089764,Braga,Braga
745867,Inato Bistrô,"Praça do Município 7,Braga, Portugal","Braga, Portugal",-8.42753995,41.55079717,Braga,Braga
715084,Méze,"Praça Conde de Agrolongo 71,Braga, Portugal","Braga, Portugal",-8.42785021,41.55254893,Braga,Braga
375379,Esperança Verde,"Av. Dr. Artur Soares 312,Braga, Portugal","Braga, Portugal",-8.42628752,41.56073796,Braga,Braga
553647,Café Astória,"Praça da República 4,Braga, Portugal","Braga, Portugal",-8.4233262,41.551846,Braga,Braga
395369,ROLHA - Restaurante & Garrafeira,"R. da Igreja 84,Braga, Portugal","Braga, Portugal",-8.4174125,41.5258471,Braga,Braga
481989,Kartilho,"R. Dom Afonso Henriques 36, 38,Braga, Portugal","Braga, Portugal",-8.4276959,41.5488482,Braga,Braga
713817,Steakhouse Churrasqueira Nacional,"R. Fotógrafo Arcelino,Braga, Portugal","Braga, Portugal",-8.42714695,41.52193,Braga,Braga
750380,Terminal 4700,"R. Andrade Corvo 54,Braga, Portugal","Braga, Portugal",-8.4308049,41.5502027,Braga,Braga
697817,O Gato do Rio,"Tv. de Linhares 4,Braga, Portugal","Braga, Portugal",-8.3746508,41.5669039,Braga,Braga
432083,Mamma Mia Ristorante Pizzeria,"Praceta Amândio Ferreira Pinto 8,Braga, Portugal","Braga, Portugal",-8.3863622,41.5681125,Braga,Braga
675287,Cervejaria F - Makro,"Praceta Pedro da Rocha 4,Braga, Portugal","Braga, Portugal",-8.40283378,41.5501851,Braga,Braga
568401,La Porta Braga,"R. Dom Diogo de Sousa 19,Braga, Portugal","Braga, Portugal",-8.429073,41.5504191,Braga,Braga
318455,Habanero-Restaurante & Bar Mexicano,"R. António Marinho 10,Braga, Portugal","Braga, Portugal",-8.4195724,41.558545,Braga,Braga
714524,Pizzaria Pizza Braga,"Praceta João Beltrão 4,Braga, Portugal","Braga, Portugal",-8.40388434,41.55078475,Braga,Braga
755773,The Big Guy - Burger Bar,"Praceta do Vilar 4,Braga, Portugal","Braga, Portugal",-8.3985587,41.5588009,Braga,Braga
727119,Cante Food & Friends,"R. do Forno 17,Braga, Portugal","Braga, Portugal",-8.4262903,41.549483,Braga,Braga
733852,Pampa's Churrascaria,"Praça Gen. Humberto Delgado,Braga, Portugal","Braga, Portugal",-8.4110807,41.5424063,Braga,Braga
717943,A Brasileira,"Largo Barão de São Martinho 17,Braga, Portugal","Braga, Portugal",-8.42366877,41.55083071,Braga,Braga
802331,Ristorante Papilloni,"Largo Sra. A. Branca 90,Braga, Portugal","Braga, Portugal",-8.4163567,41.5517679,Braga,Braga
65069,Tia Isabel,"R. Eng. Afonso José Fonseca 41,Braga, Portugal","Braga, Portugal",-8.4293061,41.5540945,Braga,Braga
419495,Diana Restaurant,"R. Dom Frei Caetano Brandão, 172 r/c,Braga, Portugal","Braga, Portugal",-8.42841137,41.5485123,Braga,Braga
734122,Centurium,"Av. Central 134,Braga, Portugal","Braga, Portugal",-8.4195598,41.5513423,Braga,Braga
481713,Alma d’Eça,"R. Eça de Queirós 28,Braga, Portugal","Braga, Portugal",-8.4259361,41.5516734,Braga,Braga
556955,Restaurante Delfim,"Rua das Oliveiras, 30, Ferreiros - Braga,Braga, Portugal","Braga, Portugal",-8.42063842,41.55425601,Braga,Braga
672337,Ohlala,"Av. Dom João II 97,Braga, Portugal","Braga, Portugal",-8.39512127,41.55252484,Braga,Braga
740579, Oboé Restaurant & Club,"R. Dr. Gonçalo Sampaio 16/18,Braga, Portugal","Braga, Portugal",-8.4599147,41.5579721,Braga,Braga
675213,Mostarda & Chocolate,"Praça Conde de Agrolongo, n161,Braga, Portugal","Braga, Portugal",-8.4276417,41.55227735,Braga,Braga
707365,Sale & Dolce,"Rua de São Paulo, n.º 1,Braga, Portugal","Braga, Portugal",-8.4273182,41.5482818,Braga,Braga
677297,Il Fiume - Nogueiró,"R. Dr. Carlos Loyd Braga 13,Braga, Portugal","Braga, Portugal",-8.40054795,41.55302435,Braga,Braga
746412,Sempiedade Braga,"R. Dr. Loureiro Amorim 14-22,Braga, Portugal","Braga, Portugal",-8.42042256,41.51013385,Braga,Braga
572183,Caffe Italy,"Praça da República,Braga, Portugal","Braga, Portugal",-8.4230309,41.55113588,Braga,Braga
675887,Alma do Raio,"Rua do Raio, 28,Braga, Portugal","Braga, Portugal",-8.44056331,41.53349043,Braga,Braga
468425,Bistrô Chefão Steak House,"Largo São Francisco, Braga, Portugal,Braga, Portugal","Braga, Portugal",-8.42358998,41.55184587,Braga,Braga
677303,Il Fiume - Real,"R. do Pq. Norte 33C,Braga, Portugal","Braga, Portugal",-8.7591017,41.4924136,Braga,Braga
594727,Pevidém 3,"Avenida Dom João II, nº71,Braga, Portugal","Braga, Portugal",-8.39482985,41.55592955,Braga,Braga
540063,Restaurante Kianda,"R. Dom Frei Caetano Brandão 120-122,Braga, Portugal","Braga, Portugal",-8.4273942,41.5504231,Braga,Braga
690465,Donna Sé,"Largo do Paço 18,Braga, Portugal","Braga, Portugal",-8.42632845,41.5507018,Braga,Braga
730026,Comilaum,"R. Monsenhor Airosa 62,Braga, Portugal","Braga, Portugal",-8.425356,41.5420791,Braga,Braga
383107,"Tábuas, Copos & Outras Cenas","R. Dom Gonçalo Pereira 54,Braga, Portugal","Braga, Portugal",-8.4268821,41.54884,Braga,Braga
748762,A Taberna da Praça,"Largo da Praça Velha 9,Braga, Portugal","Braga, Portugal",-8.4288655,41.550144,Braga,Braga
677305,Il Fiume - Maximinos,"R. Manuel Carneiro loja 2,Braga, Portugal","Braga, Portugal",-8.42935325,41.54141266,Braga,Braga
752370,Barra 46,"R. Dom Paio Mendes 46,Braga, Portugal","Braga, Portugal",-8.42932325,41.54943105,Braga,Braga
468765,Bracara Augusta,"Av. João XXI 671,Braga, Portugal","Braga, Portugal",-8.41708347,41.54816087,Braga,Braga
688137,Colher d'Pau Taberna,"Largo da Praça Velha 17,Braga, Portugal","Braga, Portugal",-8.42885979,41.55004828,Braga,Braga
715248,Bendito's Burger and Beer,"Av. Padre Júlio Fragata 88,Braga, Portugal","Braga, Portugal",-8.40749894,41.56152479,Braga,Braga
653731,SANNO - Healthy Food | Braga,"Largo do Paço 14,Braga, Portugal","Braga, Portugal",-8.4264461,41.5504656,Braga,Braga
556969,Fornito Restaurante e Pizzaria,"R. Cândido de Sousa 25,Braga, Portugal","Braga, Portugal",-8.41386297,41.5600865,Braga,Braga
732992,Taberna da Pizza,"Largo de São Francisco 32,Braga, Portugal","Braga, Portugal",-8.42371567,41.5520134,Braga,Braga
410223,Pecado da Sé,"R. do Forno, 22,Braga, Portugal","Braga, Portugal",-8.43701235,41.50482516,Braga,Braga
705137,Time To,"R. Dom Afonso Henriques 7,Braga, Portugal","Braga, Portugal",-8.4279963,41.5488411,Braga,Braga
704181,Félix Taberna,"Largo da Praça Velha 17,Braga, Portugal","Braga, Portugal",-8.42885979,41.55004828,Braga,Braga
741702,O Portico,"Largo do Arco,Braga, Portugal","Braga, Portugal",-8.41411572,41.55806847,Braga,Braga
749644,Águas de Bacalhau,"Campo das Hortas 18,Braga, Portugal","Braga, Portugal",-8.42992318,41.54975809,Braga,Braga
752365,EAT FIT gnration,"Praça Conde de Agrolongo,Braga, Portugal","Braga, Portugal",-8.42859725,41.55175815,Braga,Braga
723402,Cervejaria F - Tribunal,"Praça da Justiça 168,Braga, Portugal","Braga, Portugal",-8.41322435,41.5485187,Braga,Braga
337551,Taberna do Migaitas,"R. Dom Gonçalo Pereira, 39,Braga, Portugal","Braga, Portugal",-8.4273631,41.5493946,Braga,Braga
700177,Braga Marisco,"R. Fonte Carreira 13,Braga, Portugal","Braga, Portugal",-8.46364473,41.56351924,Braga,Braga
649967,Mimo's Smoke House,"Rua do Raio 279, C. C. do Rechicho 15 Cave,Braga, Portugal","Braga, Portugal",-8.4332239,41.3919646,Braga,Braga
582195,La Piola,"R. Dom Afonso Henriques 33,Braga, Portugal","Braga, Portugal",-8.4275903,41.5490135,Braga,Braga
806363,Darema Street Food,"Largo de São João do Souto 13a,Braga, Portugal","Braga, Portugal",-8.4248501,41.5502243,Braga,Braga
739101,Marie Restaurante,"Largo Sra. A. Branca,Braga, Portugal","Braga, Portugal",-8.41727322,41.55177565,Braga,Braga
570109,Letraria - Craft Beer Library Braga,"R. Dom Gonçalo Pereira 35,Braga, Portugal","Braga, Portugal",-8.4273873,41.5494384,Braga,Braga
571493,Atravessado,"R. de Santo António das Travessas 30,Braga, Portugal","Braga, Portugal",-8.35566511,41.51858057,Braga,Braga
727019,Idealysta,"R. Artur Garibaldi 13,Nogueira, Portugal","Braga, Portugal",-8.4188627,41.5301392,Nogueira,Braga
637049,Indian Papadum restaurant,"Largo de Heliodoro Salgado n 2, R/C,Portimão, Portugal","Portimão, Portugal",-8.5367591,37.1369659,Portimão,Portimão
324035,Al Fresco,"Edificio Vau Costa, Loja F,Portimão, Portugal","Portimão, Portugal",-8.53439903,37.13763428,Portimão,Portimão
802871,Segreti d'Itália - Portimão,"R. Poe. João Brás,Portimão, Portugal","Portimão, Portugal",-8.54331765,37.13620198,Portimão,Portimão
612371,Allbeef Restaurante,"Av V3, Sitio dos 3 castelos – Praia da Rocha,Portimão, Portugal","Portimão, Portugal",-8.54352583,37.12118984,Portimão,Portimão
663591,O Quinto Império,"Av. João Paulo II L2,Portimão, Portugal","Portimão, Portugal",-8.55782471,37.12635177,Portimão,Portimão
701219,Numa Restaurante,"Av. Miguel Bombarda 17,Portimão, Portugal","Portimão, Portugal",-8.5414295,37.1334445,Portimão,Portimão
751966,A Adega da Torralta ,"Adega, Quinta do Ribeiro,Alvor, Portugal","Portimão, Portugal",-8.59394169,37.12870789,Alvor,Portimão
732106,Allgarbe,"R. da Hortinha 35,Portimão, Portugal","Portimão, Portugal",-8.5161632,37.12229546,Portimão,Portimão
752918,CBC,"R. da Pedra 69,Portimão, Portugal","Portimão, Portugal",-8.5567799,37.145688,Portimão,Portimão
636729,W-Wine Food and Friends,"Avenida tomás cabreira, edificio Rocha Mar, 3-4,Portimão, Portugal","Portimão, Portugal",-8.5424485,37.1184824,Portimão,Portimão
714209,Casa de Sushi,"R. Dom Carlos I 8500,Portimão, Portugal","Portimão, Portugal",-8.53705068,37.13412538,Portimão,Portimão
755838,Bella Pizzeria,"Rua Engenheiro Francisco Bivar, Edf. Columbia R/c,Portimão, Portugal","Portimão, Portugal",-8.53439903,37.13763428,Portimão,Portimão
749889,Pote Cheio - Pizza & Bar,"R. Manuel José de Alvor 54,Portimão, Portugal","Portimão, Portugal",-8.53866527,37.13845204,Portimão,Portimão
807573,The Irish Rover Bar and Grill,"Av. Tomás Cabreira 1,Portimão, Portugal","Portimão, Portugal",-8.5424389,37.1184751,Portimão,Portimão
605439,Adris,"Av. Tomás Cabreira, edificio santa maria, Loja D,Portimão, Portugal","Portimão, Portugal",-8.54172615,37.11914925,Portimão,Portimão
655913,Peixarada - Bacalhoada,"Lgo da Barca 10,Portimão, Portugal","Portimão, Portugal",-8.5329397,37.140029,Portimão,Portimão
310485,Squash,"R. Eng. Francisco Bívar,Portimão, Portugal","Portimão, Portugal",-8.61411098,37.15970307,Portimão,Portimão
745692,Meshua,"Av. das Comunidades Lusíadas,Portimão, Portugal","Portimão, Portugal",-8.54370328,37.11993882,Portimão,Portimão
755683,"Paladar Ibérico - Tapas, Pinchos e Montaditos","R. Jaime Palhinha 1,Portimão, Portugal","Portimão, Portugal",-8.5438198,37.1272443,Portimão,Portimão
636747,Restaurante F,"Avenida tomás cabreira, edificio falesia, loja 12,Portimão, Portugal","Portimão, Portugal",-8.5424902,37.1185881,Portimão,Portimão
589023,Hamburgueria B&B,"R. dos Oceanos, Lote 4, Loja 5,Portimão, Portugal","Portimão, Portugal",-8.5364835,37.1229005,Portimão,Portimão
581411,Churrasqueira Mursa,"Av. Tomás Cabreira, Edificio Guimar, Fracção 4, 1º Andar,Portimão, Portugal","Portimão, Portugal",-8.5428315,37.1188438,Portimão,Portimão
742657,Restaurante Chefão Steak House,"Rua do Miradouro, Edífico Chefão, Praia da Rocha, Faro,Portimão, Portugal","Portimão, Portugal",-8.53727341,37.11909485,Portimão,Portimão
691801,Amanti Pizza e Pasta,"Av. João Paulo II 1,Portimão, Portugal","Portimão, Portugal",-8.5499415,37.1291377,Portimão,Portimão
721658,Faina,"Museu de Portimão, Zona Ribeirinha, Rua D. Carlos I,Portimão, Portugal","Portimão, Portugal",-8.59626291,37.12921352,Portimão,Portimão
750354,Do Cais,"Riverfront, 8500-843 Portimao Faro,Portimão, Portugal","Portimão, Portugal",-8.53058243,37.11880493,Portimão,Portimão
734349,Churrasqueira da Praça,"R. António Ferro,Portimão, Portugal","Portimão, Portugal",-9.20625595,38.74359885,Portimão,Portimão
752122,Sunset Pizzeria,"Marina,Portimão, Portugal","Portimão, Portugal",-8.52849674,37.1151619,Portimão,Portimão
751643,Carpe Diem Bistrô,"Praça da República 44,Portimão, Portugal","Portimão, Portugal",-7.4299171,39.2899396,Portimão,Portimão
489513,La Gioconda (Praia da Rocha),"Avenida Tomás Cabreira, Edificio Torre da Rocha, loja 1,Portimão, Portugal","Portimão, Portugal",-8.5424389,37.1184751,Portimão,Portimão
750332,Mãe Terra,"R. Dr. João Vitorino Mealha 7,Portimão, Portugal","Portimão, Portugal",-8.535468,37.1382585,Portimão,Portimão
739921,T-Bone Tender Steakhouse & Premium Lounge,"Marina,Portimão, Portugal","Portimão, Portugal",-8.52849674,37.1151619,Portimão,Portimão
753270,Sunset Plaza Real,"R. Dom Afonso V,Portimão, Portugal","Portimão, Portugal",-8.5457986,37.1241125,Portimão,Portimão
665231,La Cucina di Marta - Ristorante e Pizzeria Italiana,"R. do Comércio 45,Portimão, Portugal","Portimão, Portugal",-8.5371571,37.1403913,Portimão,Portimão
733631,Veranda,"R. da Vila Rosa 8,Portimão, Portugal","Portimão, Portugal",-8.5836198,37.1461082,Portimão,Portimão
707825,Xarme - Restaurante & bar,"R. Afonso de Albuquerque 24,Portimão, Portugal","Portimão, Portugal",-8.5187684,37.1254934,Portimão,Portimão
686159,Kame Sushi Bar,"R. do Mar,Portimão, Portugal","Portimão, Portugal",-8.53440708,37.11862867,Portimão,Portimão
743420,Terrazza by La Gioconda,"Ed. Belo Horizonte, Av. Tomás Cabreira B,Portimão, Portugal","Portimão, Portugal",-8.53439903,37.13763428,Portimão,Portimão
742934,Rei do Espeto - Grill & Bar,"R. António Feu 13,Portimão, Portugal","Portimão, Portugal",-8.53835773,37.11920704,Portimão,Portimão
721316,Chef Malik Italian Restaurant,"Largo Gil Eanes 15,Portimão, Portugal","Portimão, Portugal",-8.614039,37.1571951,Portimão,Portimão
383677,Aladino,"Av. Tomás Cabreira - Casino - Praia da Rocha,Portimão, Portugal","Portimão, Portugal",-8.54172676,37.11854902,Portimão,Portimão
517591,Loki Restaurante,"R. Vasco Pires 6,Portimão, Portugal","Portimão, Portugal",-8.53316631,37.14032606,Portimão,Portimão
691781,Churrasqueira do Vau,"Estrada do vau, ed. Coral do vau, loja 1 Loja 1,Portimão, Portugal","Portimão, Portugal",-8.55658504,37.12122856,Portimão,Portimão
750353,Riverside,"Largo do Dique 8,Portimão, Portugal","Portimão, Portugal",-8.5350794,37.137232,Portimão,Portimão
636911,Vinhos & Comidas,"Av. Tomás Cabreira, edificio casa da praia, loja 1,Portimão, Portugal","Portimão, Portugal",-8.5424389,37.1184751,Portimão,Portimão
750021,Gaia - Chill & Grill ,"Av. Tomás Cabreira 21,Portimão, Portugal","Portimão, Portugal",-7.64687826,37.12442623,Portimão,Portimão
701075,"Balance Cafe - Vegetariano, Vegan, Healthy","R. Dona Maria de Aragão e Castela 73,Portimão, Portugal","Portimão, Portugal",-8.5374963,37.1430365,Portimão,Portimão
752121,Deck Marina Lounge,"Marina,Portimão, Portugal","Portimão, Portugal",-8.52849674,37.1151619,Portimão,Portimão
586445,Cloque ao Mar,"Estrada do Vau, Sitio das mesas,Portimão, Portugal","Portimão, Portugal",-8.56886125,37.15421192,Portimão,Portimão
806642,Artes & Sabores,"Av. João Paulo II,Portimão, Portugal","Portimão, Portugal",-8.55672681,37.12701278,Portimão,Portimão
671825,Chico Maria,"R. das Flores 31,Portimão, Portugal","Portimão, Portugal",-8.5589241,37.1539063,Portimão,Portimão
636843,Bistro Italiano,"Av. Tomás Cabreira, edificio concorde, loja 1,Portimão, Portugal","Portimão, Portugal",-8.5424389,37.1184751,Portimão,Portimão
699895,PTM Downtown,"R. Dr. joao de Deus 2,Portimão, Portugal","Portimão, Portugal",-8.535241,37.1674881,Portimão,Portimão
749705,Churrasqueira de Lagoa,"R. Primeiro de Dezembro 8400,Parchal, Portugal","Portimão, Portugal",-8.51864058,37.13782779,Parchal,Portimão
387511,Borda do Cais,"R. Infante Santo 75,Ferragudo, Portugal","Portimão, Portugal",-8.5222143,37.1242523,Ferragudo,Portimão
64520,Penha Longa Mercatto,"Estrada da Lagoa Azul 12,Sintra, Portugal","Sintra, Portugal",-9.39660303,38.76735427,Sintra,Sintra
716608,Restaurante Santos Abrunheira,"2710-141,Sintra, Portugal","Sintra, Portugal",-9.35323906,38.77605438,Sintra,Sintra
322555,Spices,"Penha Longa Resort- Estrada da Lagoa Azul,Sintra, Portugal","Sintra, Portugal",-9.40306665,38.7630263,Sintra,Sintra
312345,Sushifashion Beloura,"Viela Beloura nr 6,Sintra, Portugal","Sintra, Portugal",-9.37124016,38.76393648,Sintra,Sintra
806811,Caribbean Restaurante,"R. Pedreira 14b,Sintra, Portugal","Sintra, Portugal",-9.3891666,38.8157627,Sintra,Sintra
691707,Maria Bojarda,"Praça Dom Afonso V,Sintra, Portugal","Sintra, Portugal",-9.38003801,38.80047453,Sintra,Sintra
71812,LAB by Sergi Arola,"Estrada da Lagoa Azul 12,Sintra, Portugal","Sintra, Portugal",-9.39660303,38.76735427,Sintra,Sintra
749750,Mamotto Sushi,"Avenida François Mitterrand - Urbanização Vale Flores - 30,Sintra, Portugal","Sintra, Portugal",-9.36338236,38.78838619,Sintra,Sintra
65010,Tacho Real,"Rua da Ferraria, 4, Sintra-Vila,Sintra, Portugal","Sintra, Portugal",-9.39040345,38.79621739,Sintra,Sintra
546871,CASA Restaurante Petiscaria Bar,"Rua Dom António Correia de Sá - 2,Sintra, Portugal","Sintra, Portugal",-9.39872635,38.8168542,Sintra,Sintra
390931,Sabores do Mercado,"Rua Tomé de Barros Queirós ,15,Sintra, Portugal","Sintra, Portugal",-9.3810604,38.8035758,Sintra,Sintra
66700,Arola,"Estrada da Lagoa Azul - 12,Sintra, Portugal","Sintra, Portugal",-9.39660303,38.76735427,Sintra,Sintra
668343,Passione Pizza Sintra,"Avenida Heliodoro Salgado - 18,Sintra, Portugal","Sintra, Portugal",-9.3824131,38.8018807,Sintra,Sintra
710099,Nova Hamburgueria,"Praceta Bartolomeu Perestrelo - Urbanização Vale Flores - 25 - Loja 3,Sintra, Portugal","Sintra, Portugal",-9.3538724,38.7864835,Sintra,Sintra
700709,Hamburgueria da Ferraria,"Miradouro da Ferraria - 4,Sintra, Portugal","Sintra, Portugal",-9.3899737,38.7961925,Sintra,Sintra
800905,Miranda Restaurant & Terrace Bar,"Praça da República,Sintra, Portugal","Sintra, Portugal",-9.39179552,38.79795316,Sintra,Sintra
64519,Lawrence's Hotel,"Rua Consigliéri Pedroso 38-40,Sintra, Portugal","Sintra, Portugal",-9.3922099,38.79588887,Sintra,Sintra
302683,Harko's,"Rua Serpa Pinto, 6,Sintra, Portugal","Sintra, Portugal",-9.3817643,38.7916445,Sintra,Sintra
528521,Adega do Cozinheiro,"Rua do Salão - 16 - Galamares,Sintra, Portugal","Sintra, Portugal",-9.3750662,38.8613708,Sintra,Sintra
71674,Sabores de Sintra,"R. 1º de Dezembro nº16/18,Sintra, Portugal","Sintra, Portugal",-9.4085143,38.9035887,Sintra,Sintra
469185,Kodachi - Sintra,"Avenida Doutor Desidério Cambournac - 21,Sintra, Portugal","Sintra, Portugal",-9.3802075,38.802423,Sintra,Sintra
733783,Tulhas,"R. Gil Vicente 4,Sintra, Portugal","Sintra, Portugal",-9.3913693,38.7962181,Sintra,Sintra
720360, Tapas & Wine ,"Rua Visconde de Monserrate - 26,Sintra, Portugal","Sintra, Portugal",-9.38992089,38.79659149,Sintra,Sintra
71673,Taverna dos Trovadores,"Praça Dom Fernando II 18,Sintra, Portugal","Sintra, Portugal",-9.3810046,38.7908587,Sintra,Sintra
584313,Canto dos Trovadores,"Praça Dom Fernando II - 18,Sintra, Portugal","Sintra, Portugal",-9.3810046,38.7908587,Sintra,Sintra
702495,Burger & Co,"Avenida Doutor Miguel Bombarda - 43,Sintra, Portugal","Sintra, Portugal",-9.25722413,38.76038481,Sintra,Sintra
214107,Metamorphosis,"Rua João de Deus - 41/45,Sintra, Portugal","Sintra, Portugal",-9.384384,38.799553,Sintra,Sintra
64580,Romaria de Baco,"Rua Gil Vicente - 2,Sintra, Portugal","Sintra, Portugal",-9.3599974,38.7543482,Sintra,Sintra
276117,Dona Maria,"Largo Ferreira de Castro, 3,Sintra, Portugal","Sintra, Portugal",-9.390637,38.7959164,Sintra,Sintra
386713,Midori,"Linhó | 2714-511,Sintra, Portugal","Sintra, Portugal",-9.3827467,38.76816177,Sintra,Sintra
486627,Pikatta,"Praceta Diogo de Silves - 8 - Urbanização Vale Flores,Sintra, Portugal","Sintra, Portugal",-9.3547243,38.7868837,Sintra,Sintra
282297,Sintra Terrace,"Largo do Miradouro da Ferraria - 3,Sintra, Portugal","Sintra, Portugal",-9.3900139,38.7962503,Sintra,Sintra
571731,Tiffosi da Serra,"Rua de Cascais - 899 - Malveira da Serra,Alcabideche, Portugal","Sintra, Portugal",-9.4487106,38.7521901,Alcabideche,Sintra
747402,Kobra Tacos & Tequila,"Rua Cesaltina Fialho Gouveia - 75A,Alcabideche, Portugal","Sintra, Portugal",-9.4043547,38.73766655,Alcabideche,Sintra
292969,A Delícia da Beloura,"Av. Pedro Álvares Cabral, 230,Sintra, Portugal","Sintra, Portugal",-9.3806985,38.7584138,Sintra,Sintra
718145,Sayuri Sushi,"Praça Cidade de Omura - 40,Agualva-Cacém, Portugal","Sintra, Portugal",-9.30098703,38.76425472,Agualva-Cacém,Sintra
806022,Avenida Paulista Steak House,"R. da Azenha 18,Algueirão-Mem Martins, Portugal","Sintra, Portugal",-9.3403451,38.7964926,Algueirão-Mem Martins,Sintra
801200,Dom Brasiliano Pizzaria,"Av. do Brasil 145A,Agualva-Cacém, Portugal","Sintra, Portugal",-9.2978601,38.7485997,Agualva-Cacém,Sintra
325895,Cantinho da Vila,"R. Arco do Teixeira 15,Sintra, Portugal","Sintra, Portugal",-9.39047916,38.7968075,Sintra,Sintra
751973,Komodo Sushi Bar,"Rua 1º de Maio - 167A - Aldeia de Juzo,Aldeia de Juzo, Portugal","Sintra, Portugal",-48.9533061,-16.32260305,Aldeia de Juzo,Sintra
755346,O Cantinho de São Marcos,"R. Cidade de Rio de Janeiro 25,Agualva-Cacém, Portugal","Sintra, Portugal",-9.2994493,38.7500268,Agualva-Cacém,Sintra
716234,Porta76 Sushi Restaurant,"Rua da Escola - 76A,São Domingos de Rana, Portugal","Sintra, Portugal",-9.3541891,38.7062855,São Domingos de Rana,Sintra
705087,Aroma Sushi Lounge,"Rua Quinta da Nora - 27,Sintra, Portugal","Sintra, Portugal",-9.35048413,38.76336903,Sintra,Sintra
802730,Miss Sushi Japanese,"Av. do Atlântico 189,Colares, Portugal","Sintra, Portugal",-8.8413721,41.6927821,Colares,Sintra
716255,Sal&Xixa Steakhouse,"Avenida Eugene Levy - 37,Colares, Portugal","Sintra, Portugal",-9.46897857,38.82635133,Colares,Sintra
711062,This Grace,"Rua Dona Filipa de Lencastre 33B,Belas, Portugal","Sintra, Portugal",-9.2784577,38.7647837,Belas,Sintra
380121,Cantinho do Picadeiro,"Rua Carlos Massett - 4 - Galamares,Sintra, Portugal","Sintra, Portugal",-9.41143626,38.79832393,Sintra,Sintra
755939,Sushi Kiyomi,"Largo Gama Barros - 5,Agualva-Cacém, Portugal","Sintra, Portugal",-9.31315839,38.77201522,Agualva-Cacém,Sintra
565437,Box Lounge Estoril,"Rua Dom Bosco - 576 - 1C,Estoril, Portugal","Sintra, Portugal",-9.4063151,38.7179167,Estoril,Sintra
64812,Dona Azeitona,"Rua dos Campos - 14 - Arneiro dos Marinheiros,São João das Lampas, Portugal","Sintra, Portugal",-9.41376161,38.85866879,São João das Lampas,Sintra
806534,Cantinho das Pipas,"R. Principal 114,Alcabideche, Portugal","Sintra, Portugal",-9.3839791,38.7288718,Alcabideche,Sintra
719871,A Sede da Céu,"Rua dos Lusitanos - 124 - Varzea de Polima,São Domingos de Rana, Portugal","Sintra, Portugal",-9.3240998,38.7256276,São Domingos de Rana,Sintra
746288,Sushi Friendly,"Praceta Rocha Martins - 21D,Algueirão-Mem Martins, Portugal","Sintra, Portugal",-9.345274,38.80351475,Algueirão-Mem Martins,Sintra
743810,Maria Azeitona - Tires,"Avenida Amália Rodrigues - Aeroporto Cascais,São Domingos de Rana, Portugal","Sintra, Portugal",-9.3456355,38.7160132,São Domingos de Rana,Sintra
723585,InSports,"Zona Industrial de São Carlos - Pavilhao Infoot,Mem Martins, Portugal","Sintra, Portugal",-9.33721256,38.78804779,Mem Martins,Sintra
724121,Boteco do Gaúcho,"Rua Dom Bosco - 576 A,Estoril, Portugal","Sintra, Portugal",-9.4063151,38.7179167,Estoril,Sintra
64817,Refúgio da Roca,"Estrada do Cabo da Roca - 27,Colares, Portugal","Sintra, Portugal",-9.48135631,38.77623466,Colares,Sintra
415635,Restaurante Lisbon Club,"2605-213,Belas, Portugal","Sintra, Portugal",-9.25911522,38.77604294,Belas,Sintra
800542,Pizzaria Beato,"Estr. de Paço de Arcos 39,Agualva-Cacém, Portugal","Sintra, Portugal",-9.3053243,38.7649121,Agualva-Cacém,Sintra
753895,Ecoar Sushi House,"Rua Adelino Amaro da Costa - 5,Algueirão-Mem Martins, Portugal","Sintra, Portugal",-9.3545239,38.7967972,Algueirão-Mem Martins,Sintra
753556,HFX Restaurante & Churrasqueira,"R. Elias Garcia 37,Agualva-Cacém, Portugal","Sintra, Portugal",-9.2994782,38.7672752,Agualva-Cacém,Sintra
755917,Génios Caprichosos,"R. Adelino Amaro da Costa 5,Algueirão-Mem Martins, Portugal","Sintra, Portugal",-9.3545239,38.7967972,Algueirão-Mem Martins,Sintra
705449,Bar do Fundo,"Av. Alfredo Coelho - Praia Grande,Colares, Portugal","Sintra, Portugal",-9.47694646,38.81421551,Colares,Sintra
800354,Hamburgueria Dog´s House,"Av. Fitares 35,Rio de Mouro, Portugal","Sintra, Portugal",-9.31379973,38.78597419,Rio de Mouro,Sintra
64665,Terrace - Hotel Arribas,"Avenida Alfredo Coelho - Praia Grande - 28,Colares, Portugal","Sintra, Portugal",-9.47694646,38.81421551,Colares,Sintra
802646,Savana Sushi Mem Martins,"Estr. Algueirão 21,Algueirão-Mem Martins, Portugal","Sintra, Portugal",-9.34140952,38.79836274,Algueirão-Mem Martins,Sintra
736507,Otto Gastro Bar,"Estrada Nova da Rainha - 1,Colares, Portugal","Sintra, Portugal",-9.47742525,38.78269949,Colares,Sintra
615345,Tipico Aires,"Rua João Pires Correia - 291,Alcabideche, Portugal","Sintra, Portugal",-9.409955,38.7323441,Alcabideche,Sintra
806487,Restaurante Clubhouse,"Alameda do Aqueduto - Clubhouse,Belas, Portugal","Sintra, Portugal",-9.2832282,38.8083748,Belas,Sintra
738028,P'ra Mesa Restaurante,"Avenida 29 de Agosto - 161,Terrugem, Portugal","Sintra, Portugal",-9.37816376,38.8470883,Terrugem,Sintra
64862,Búzio,"Avenida Eugene Levy - 56,Colares, Portugal","Sintra, Portugal",-9.4687097,38.8262799,Colares,Sintra
755462,Pizzaria Villa Sintra,"Estrada de Mafra - Complexo Desportivo Municipal de Sintra,Lourel, Portugal","Sintra, Portugal",-7.96828794,39.68219757,Lourel,Sintra
744819,The Den -  Uma experiência à base de plantas,"Rua Neves de Sousa - 11C,Oeiras, Portugal","Oeiras, Portugal",-9.30607725,38.70856125,Oeiras,Oeiras
806182,Aussie Steakhouse,"Rua Marechal Costa Gomes 4c,Oeiras, Portugal","Oeiras, Portugal",-9.30882486,38.70337826,Oeiras,Oeiras
690103,Chez Idriss - Restaurante Marroquino & Shisha Lounge,"R. Marquês Pombal nº 6,Oeiras, Portugal","Oeiras, Portugal",-9.3113482,38.7198511,Oeiras,Oeiras
803232,Tem Graça,"Av. Infante Dom Henrique 99 A,Lisboa, Portugal","Oeiras, Portugal",-9.10416286,38.76463166,Lisboa,Oeiras
806131,Pizzaria La Dolce Vita Trattoria Oeiras,"R. Cândido dos Reis 123,Oeiras, Portugal","Oeiras, Portugal",-9.3135118,38.6930553,Oeiras,Oeiras
805258,Sucesso,"R. Cmte. Germano Dias 8A,Oeiras, Portugal","Oeiras, Portugal",-9.3087308,38.6948721,Oeiras,Oeiras
369411,Confraria do Polvo,"Rua Candido dos Reis - 168,Oeiras, Portugal","Oeiras, Portugal",-9.3128358,38.692876,Oeiras,Oeiras
578149,Focus - Sushi and Steak,"Focus Sushi & Steak - Restaurante, à Alameda Conde de, Rua Arthur Brandão, Oeiras, Portugal,Oeiras, Portugal","Oeiras, Portugal",-9.321136,38.6916013,Oeiras,Oeiras
66752,Sakura Shopping Palmeiras,"Rua Quinta das Palmeiras - C.C. Shopping Palmeiras - Loja 122,Oeiras, Portugal","Oeiras, Portugal",-9.30830956,38.69740677,Oeiras,Oeiras
647659,Mangia Mangia,"CC Oeiras Park - Av. António Bernardo Cabral de Macedo,Oeiras, Portugal","Oeiras, Portugal",-9.29991968,38.70312454,Oeiras,Oeiras
406613,Etc&Tal,"Av. Dom João I, nº 10, loja B,Oeiras, Portugal","Oeiras, Portugal",-9.2774999,38.7077301,Oeiras,Oeiras
452039,Pizaria Bate e Beco,"Rua Marechal Costa Gomes - 22 - Loja C,Oeiras, Portugal","Oeiras, Portugal",-7.9208507,38.5596028,Oeiras,Oeiras
724159,Dom Ze'viche,"Rua Febus Moniz - 6A,Oeiras, Portugal","Oeiras, Portugal",-9.3125044,38.6922938,Oeiras,Oeiras
485053,Focus - Restaurante Italiano,"Rua Doutor José Joaquim de Almeida - 17,Oeiras, Portugal","Oeiras, Portugal",-9.3142217,38.6869979,Oeiras,Oeiras
751496,Sakura Oeiras Vila,"Rua Cândidos dos Reis - 37A,Oeiras, Portugal","Oeiras, Portugal",-9.310428,38.6927335,Oeiras,Oeiras
326553,Charkoal,"Marina de Oeiras - Bloco A,Oeiras, Portugal","Oeiras, Portugal",-9.30830956,38.69740677,Oeiras,Oeiras
65243,Saisa,"Praia de Santo Amaro de Oeiras, Passeio Marítimo de Oeiras,Oeiras, Portugal","Oeiras, Portugal",-9.30484859,38.70135742,Oeiras,Oeiras
730384,Al Vesuvio Ristorante Pizzeria,"Rua Marquês Pombal - 18,Oeiras, Portugal","Oeiras, Portugal",-9.310734,38.7200194,Oeiras,Oeiras
720102,Verso Rooftop Lounge,"Rua José de Azambuja Proença - Parque dos Poetas,Oeiras, Portugal","Oeiras, Portugal",-9.30099158,38.70167991,Oeiras,Oeiras
753959,Toca do Lobo,"Rua José Relvas - 12,Parede, Portugal","Oeiras, Portugal",-9.3530716,38.69040862,Parede,Oeiras
356193,A Quinta,"Largo Henrique de Paiva Couceiro - 36,Oeiras, Portugal","Oeiras, Portugal",-9.31719375,38.6887381,Oeiras,Oeiras
733895,Reticências & Parágrafos,"R. H Barrilaro Ruas 118 Loja 2B,Parede, Portugal","Oeiras, Portugal",-9.3531721,38.6959674,Parede,Oeiras
802592,Tiffosi na Praia,"Praça Do Junqueiro 12b,Carcavelos, Portugal","Oeiras, Portugal",-9.342874,38.68407165,Carcavelos,Oeiras
731835,Aura Inspiring Food,"Rua de Malhões - Edifício 53 - Loja 2,Paço de Arcos, Portugal","Oeiras, Portugal",-8.7278012,41.4158082,Paço de Arcos,Oeiras
524411,Great Mess,"Rua Ilha das Flores - 62 - Loja C,Carcavelos, Portugal","Oeiras, Portugal",-8.54809155,41.22604445,Carcavelos,Oeiras
732382,Maki Sushi,"Rua Jaime Cortesão - 15,Parede, Portugal","Oeiras, Portugal",-9.3472489,38.6917992,Parede,Oeiras
627953,Sushiway by Chef Kadu,"Praça Mário Azevedo Gomes - 316,Parede, Portugal","Oeiras, Portugal",-9.35897628,38.69222875,Parede,Oeiras
744945,Besushi,"R. de Braga 57A,Carcavelos, Portugal","Oeiras, Portugal",-9.3411505,38.6959579,Carcavelos,Oeiras
436803,Azure,"Rua da Holanda, nº 1 - Edifício G, 2º andar,Carcavelos, Portugal","Oeiras, Portugal",-9.32540013,38.68081835,Carcavelos,Oeiras
461197,NOA Sushi,"Avenida Marechal Craveiro Lopes - 142 - Loja A,Carcavelos, Portugal","Oeiras, Portugal",-9.3404961,38.69178413,Carcavelos,Oeiras
756833,Donna Divina,"Avenida Melvin Jones - 166A - Buzano,Parede, Portugal","Oeiras, Portugal",-9.3510919,38.6949892,Parede,Oeiras
741158,Pizzaria De Marco,"R. 1º de Dezembro 16,São Domingos de Rana, Portugal","Oeiras, Portugal",-9.34342695,38.71429985,São Domingos de Rana,Oeiras
725789,Tascascaria - Tapas & Wine Bar,"Avenida da República - 1644B,Parede, Portugal","Oeiras, Portugal",-9.3588377,38.6911284,Parede,Oeiras
745399,Barko,"Avenida Marginal - Edifício Veleiro,Carcavelos, Portugal","Oeiras, Portugal",-9.33327007,38.69219971,Carcavelos,Oeiras
439563,Supremo Sushi,"Rua Doutor Baltazar Cabral - 1,Carcavelos, Portugal","Oeiras, Portugal",-9.33464363,38.69404354,Carcavelos,Oeiras
753164,Terrace Caxias,"Estrada da Gibalta - 18 - 1º andar,Caxias, Portugal","Oeiras, Portugal",-9.2763868,38.69975706,Caxias,Oeiras
64554,Casa Galega Paço de Arcos,"R. Costa Pinto 126,Paço de Arcos, Portugal","Oeiras, Portugal",-9.2912262,38.6956325,Paço de Arcos,Oeiras
751215,Palad'arte Peruvian Cuisine,"Rua Laura Alves - 277,Parede, Portugal","Oeiras, Portugal",-9.36143529,38.70295588,Parede,Oeiras
801918,Outbêco São Domingos de Rana,"R. Helena Félix 61B,São Domingos de Rana, Portugal","Oeiras, Portugal",-9.3303663,38.7120748,São Domingos de Rana,Oeiras
421361,O Queque,"Rua Instituto Conde de Agrolongo - 3C,Paço de Arcos, Portugal","Oeiras, Portugal",-9.2923636,38.6998639,Paço de Arcos,Oeiras
327585,A Pastorinha,"Av. Marginal,Carcavelos, Portugal","Oeiras, Portugal",-9.32661625,38.67708183,Carcavelos,Oeiras
539631,Alkimia Madeirense Carcavelos,"Rua Júlio Moreira - 9,Carcavelos, Portugal","Oeiras, Portugal",-9.3348719,38.689595,Carcavelos,Oeiras
290733,La Lombonera Steakhouse,"Rua Viana da Mota - 19,Estoril, Portugal","Oeiras, Portugal",-9.3724583,38.6987138,Estoril,Oeiras
714980,Genoma Sushi,"Rua Serra da Estrela - 21,São Domingos de Rana, Portugal","Oeiras, Portugal",-9.3469159,38.7072683,São Domingos de Rana,Oeiras
751221,Inevitavel - Collection Palácio dos Arcos,"Largo Conde das Alcáçovas 3,Paço de Arcos, Portugal","Oeiras, Portugal",-9.2907041,38.6974663,Paço de Arcos,Oeiras
725637,Moa Sushi - Parede,"Avenida da República - 1165 - Loja Dta,Parede, Portugal","Oeiras, Portugal",-9.3538005,38.6896646,Parede,Oeiras
737313,Tamagoshi,"R. Dr. Francisco Sá Carneiro 61,Parede, Portugal","Oeiras, Portugal",-9.3511423,38.6894136,Parede,Oeiras
804242,Thailander Asian Restaurant and Bar,"R. Dr. Manuel de Arriaga,Carcavelos, Portugal","Oeiras, Portugal",-9.34044793,38.68779285,Carcavelos,Oeiras
804161,Nautk - Restaurant & Rooftop,"Av. Marginal 4154,Parede, Portugal","Oeiras, Portugal",-9.3660273,38.6927222,Parede,Oeiras
800731,Restaurante O Mira,"Av. Marginal 4b,Cascais, Portugal","Oeiras, Portugal",-9.4030226,38.7046803,Cascais,Oeiras
701539,Restaurante BRASILIS,"Rua Instituto Conde de Agrolongo - 13B,Paço de Arcos, Portugal","Oeiras, Portugal",-9.2918707,38.7006614,Paço de Arcos,Oeiras
569093,BOH! Italian Grill,"Rua Professor Noronha Feio - 24A,Queijas, Portugal","Oeiras, Portugal",-9.2646251,38.7176229,Queijas,Oeiras
64500,Zeno Pizza & Picanha Carcavelos,"Rua Bartolomeu Dias, Centro Comercial Riviera - Loja 36,Carcavelos, Portugal","Oeiras, Portugal",-9.33327007,38.69219971,Carcavelos,Oeiras
310337,Yuzu Sushi Bar,"Praça Guilherme Gomes Fernandes - 5,Paço de Arcos, Portugal","Oeiras, Portugal",-9.3344264,38.6890149,Paço de Arcos,Oeiras
64753,Os Arcos,"Rua Costa Pinto 47,Paço de Arcos, Portugal","Oeiras, Portugal",-9.2908567,38.6955281,Paço de Arcos,Oeiras
580607,La Rúcula - Paço de Arcos,"Praça 5 de Outubro - 12A,Paço de Arcos, Portugal","Oeiras, Portugal",-9.1359721,39.403334,Paço de Arcos,Oeiras
553423,Praia Velha,"Avenida Marques de Pombal - 7,Paço de Arcos, Portugal","Oeiras, Portugal",-9.2927352,38.6944105,Paço de Arcos,Oeiras
754441,Casa dos Arcos,"Rua António Sérgio - 39A - Murtal,Parede, Portugal","Oeiras, Portugal",-9.3278412,38.70181,Parede,Oeiras
805365,D'Amici,"Largo Duartes,São Domingos de Rana, Portugal","Oeiras, Portugal",-9.34930774,38.71615212,São Domingos de Rana,Oeiras
307617,Sociedade Parede,"R. Marquês Pombal 319,Parede, Portugal","Oeiras, Portugal",-9.3567852,38.6892899,Parede,Oeiras
807157,Hoja Santa - Cocina y Coctelería Mexicana,"Rua do Funchal - 3B,Carcavelos, Portugal","Oeiras, Portugal",-9.3268484,38.6989803,Carcavelos,Oeiras
218695,Califórnia,"Largo José Régio - 4 A/B,Parede, Portugal","Oeiras, Portugal",-9.36557547,38.70180287,Parede,Oeiras
474123,Olivo Ristorante Italiano,"Rua de São Gabriel - 26,Caxias, Portugal","Oeiras, Portugal",-9.4054957,38.71919657,Caxias,Oeiras
688287,Kamikaze,"R. Cândido dos Reis 53B,Almada, Portugal","Almada, Portugal",-9.14885364,38.68657267,Almada,Almada
684693,Su She-Asian Food,"R. Ramiro Ferrão 27B,Almada, Portugal","Almada, Portugal",-9.166219,38.6728429,Almada,Almada
559413,APNA INDIAN RESTAURANTE,"R. Cândido dos Reis, 55A,Almada, Portugal","Almada, Portugal",-9.148919,38.6863232,Almada,Almada
698711,Restaurante Nezy,"R. Cap. Leitão 78,Almada, Portugal","Almada, Portugal",-9.1608654,38.6793598,Almada,Almada
511151,Oficina da Carne - Cacilhas,"R. Cândido dos Reis 80,Almada, Portugal","Almada, Portugal",-9.1490923,38.6864292,Almada,Almada
754327,Amaresushi Restaurante Japonês,"R. Marcos de Assunção nº 4F,Almada, Portugal","Almada, Portugal",-9.16939935,38.67037655,Almada,Almada
65021,Galeria,"R. António Sérgio 3,Almada, Portugal","Almada, Portugal",-9.15667307,38.66528243,Almada,Almada
752372,Trufa Earth Food,"Praça Movimento das Forças Armadas 11,Almada, Portugal","Almada, Portugal",-9.15569975,38.68050111,Almada,Almada
754730,King Heart ,"R. Cmte. António Feio 15,Almada, Portugal","Almada, Portugal",-9.1499098,38.6852572,Almada,Almada
743608,Damasqino,"R. Cmte. António Feio,Almada, Portugal","Almada, Portugal",-9.307053,38.72794311,Almada,Almada
801326,Poteitos - Batataria & Cia,"Tv. da Praia 100,Almada, Portugal","Almada, Portugal",-9.2155393,38.6944948,Almada,Almada
753559,Wild - Burgers & Shakes,"R. Abel Salazar 9,Almada, Portugal","Almada, Portugal",-9.1860762,38.5989428,Almada,Almada
806280,Outbêco Almada,"R. Cap. Leitão 43,Almada, Portugal","Almada, Portugal",-9.1592976,38.6817883,Almada,Almada
751769,Pátio 24,"R. Dom Francisco Xavier de Noronha 24,Almada, Portugal","Almada, Portugal",-9.1598268,38.6776618,Almada,Almada
673065,Italian Republic - Charneca Caparica,"R. de Pedro Costa 1247A,Almada, Portugal","Almada, Portugal",-9.18795957,38.60945073,Almada,Almada
749591,Amar't,"R. Artur António Ferreira de Paiva 2,Almada, Portugal","Almada, Portugal",-9.15436502,38.67303252,Almada,Almada
675673,Boshq - Inspirational Food + Juice Lab,"Rua Abel Salazar - 9 - Pragal,Almada, Portugal","Almada, Portugal",-9.1860762,38.5989428,Almada,Almada
657163,Oficina do Petisco - Mercado da Romeira,"Mercado da Romeira, R. Manuel José Gomes 101, 2805-194 Almada,Almada, Portugal","Almada, Portugal",-9.1526917,38.6700994,Almada,Almada
745168,K-BOB - Restaurante Coreano (Almada),"Av. Prof. Egas Moniz 36C, 2805-245 Almada,Almada, Portugal","Almada, Portugal",-9.1605537,38.6746003,Almada,Almada
576959,Paleta de Sabores,"R. Maria Judite de Carvalho 13,Almada, Portugal","Almada, Portugal",-9.1652515,38.6509191,Almada,Almada
725323,O Ilhéu,"Rua Eduardo Viana Nº11 Loja A, Laranjeiro,Almada, Portugal","Almada, Portugal",-9.1616062,38.6613508,Almada,Almada
546117,O Novo Cais,"R. Cândido dos Reis,Almada, Portugal","Almada, Portugal",-9.14787105,38.6871909,Almada,Almada
631751,KatanaSushi (Santos),"R. Presidente Arriaga nº 55,Lisbon, Portugal","Almada, Portugal",-9.1665105,38.7044271,Lisbon,Almada
203793,Gurkha São Bento,"R. São Bento 318,Lisboa, Portugal","Almada, Portugal",-9.1535779,38.7144727,Lisboa,Almada
523203,Antiga Wine Bar,"Rua de Santo Antonio da Sé - 10,Lisbon, Portugal","Almada, Portugal",-9.1346322,38.7102159,Lisbon,Almada
366403,Blue,"R. Barata Salgueiro 55,Lisboa, Portugal","Almada, Portugal",-9.1502935,38.7201731,Lisboa,Almada
740410,Cícero Bistrot,"R. Saraiva de Carvalho 171,Lisboa, Portugal","Almada, Portugal",-9.1650457,38.7151562,Lisboa,Almada
806134,No Mames Wey - Almada,"Av. Dom Nuno Álvares Pereira 8a,Almada, Portugal","Almada, Portugal",-9.1569442,38.6799245,Almada,Almada
502653,Grenache,"Pátio de Dom Fradique - 12,Lisbon, Portugal","Almada, Portugal",-9.1091991,38.7289886,Lisbon,Almada
306873,IIImpar,"R. Nova de São Mamede, 23/25,Lisboa, Portugal","Almada, Portugal",-9.1512884,38.7195308,Lisboa,Almada
653937,Khayyam,"R. do Jasmim 16,Lisboa, Portugal","Almada, Portugal",-9.1493843,38.7151329,Lisboa,Almada
808026,Bel Amour,"Av. da Liberdade 36C,Lisboa, Portugal","Almada, Portugal",-9.1427719,38.7178378,Lisboa,Almada
374583,Restaurante Porto Brandão & Rooftop Carvoadas,"R. Bento de Jesus Caraça 25,Caparica, Portugal","Almada, Portugal",-9.1578499,38.6383589,Caparica,Almada
64746,Descobre,"Rua Bartolomeu Dias, nºs 65 e 69,Lisboa, Portugal","Almada, Portugal",-9.2127256,38.6950685,Lisboa,Almada
741524,AGORA,"Rua do Alecrim - 24,Lisboa, Portugal","Almada, Portugal",-9.1432783,38.707747,Lisboa,Almada
325439,Ganesha Palace,"Avenida Álvares Cabral - 44/48,Lisboa, Portugal","Almada, Portugal",-9.1568775,38.7186183,Lisboa,Almada
742172,Boca Linda,"Calçada Marquês Abrantes 92,Lisboa, Portugal","Almada, Portugal",-9.1550139,38.7078512,Lisboa,Almada
662851,Basílio,"Rua dos Bacalhoeiros 111,Lisbon, Portugal","Almada, Portugal",-9.134002,38.7091076,Lisbon,Almada
750320,Taberna Londrina Bairro Alto,"Rua do Norte - 24,Lisboa, Portugal","Almada, Portugal",-9.1436928,38.7111069,Lisboa,Almada
64703,Caso Sério,"Rua Cruzes da Sé 5,Lisboa, Portugal","Almada, Portugal",-9.1504457,38.7455438,Lisboa,Almada
625749,Shun Open Kitchen,"R. Tomás da Anunciação 171A,Lisbon, Portugal","Almada, Portugal",-9.1658501,38.7209296,Lisbon,Almada
756053,Taberna do Castelo,"Largo São Martinho 10,Lisboa, Portugal","Almada, Portugal",-9.1311852,38.7108748,Lisboa,Almada
728776,Seisan,"R. da Madalena 271,Lisbon, Portugal","Almada, Portugal",-9.1365268,38.7132127,Lisbon,Almada
661209,Himchuli,"R. do Sacramento a Alcântara 48,Lisboa, Portugal","Almada, Portugal",-9.1685671,38.7047653,Lisboa,Almada
64883,Restaurante Elevador ,"Rua dos Correeiros 204,Lisboa, Portugal","Almada, Portugal",-9.13798844,38.71271463,Lisboa,Almada
653501,Muelle - meat and chill,"R. Bento de Jesus Caraça,Almada, Portugal","Almada, Portugal",-9.18948661,38.64835005,Almada,Almada
706515,Sebastião,"R. dos Correeiros 164,Lisboa, Portugal","Almada, Portugal",-9.1377398,38.712077,Lisboa,Almada
299447,Downunder by Justin Jennings,"R. dos Industriais 21,Lisbon, Portugal","Almada, Portugal",-9.1540657,38.7104567,Lisbon,Almada
656923,Sekai Sushi Bar,"R. dos Mastros 30,Lisboa, Portugal","Almada, Portugal",-9.1522261,38.7093153,Lisboa,Almada
732781,SEIS Garrafeira & Petiscos - Wine Bar,"Rua do Milagre de Santo António - 6,Lisboa, Portugal","Almada, Portugal",-9.133142,38.711472,Lisboa,Almada
477041,Beher Lisboa,"Rua da Prata - 249,Lisboa, Portugal","Almada, Portugal",-9.1376119,38.7124006,Lisboa,Almada
755149,Emblemático,"Rua de S. Paulo 222,Lisboa, Portugal","Almada, Portugal",-9.1466076,38.7085425,Lisboa,Almada
806291,Nachos Mexican Food,"Tv. Inglesinhos 34,Lisboa, Portugal","Almada, Portugal",-9.1356411,38.70700836,Lisboa,Almada
730728,Envy Lisboa,"R. da Cintura do Porto de Lisboa,Lisboa, Portugal","Almada, Portugal",-9.12396671,38.71191669,Lisboa,Almada
66848,Bastardo,"Rua da Betesga 3,Lisboa, Portugal","Almada, Portugal",-9.1384329,38.7130508,Lisboa,Almada
751130,Nadi! Georgian Bistro,"R. São Filipe Neri 21,Lisboa, Portugal","Almada, Portugal",-9.1543059,38.7206784,Lisboa,Almada
691733,Veramente Pizza & Vino,"Av. Dom Carlos I 144,Lisboa, Portugal","Almada, Portugal",-9.1534407,38.7111504,Lisboa,Almada
732967,Cru Lisboa,"Largo Rafael Bordalo Pinheiro 13,Lisboa, Portugal","Almada, Portugal",-9.141786,38.7113763,Lisboa,Almada
64398,Café no Chiado,"Largo Picadeiro 10 a 12,Lisboa, Portugal","Almada, Portugal",-9.1421424,38.7093403,Lisboa,Almada
749373,Cosmopolitan Burger,"Rua Presidente Arriaga - 69,Lisboa, Portugal","Almada, Portugal",-9.1667032,38.7044563,Lisboa,Almada
742465,Casa Graviola,"Rua da Boavista - 66,Lisboa, Portugal","Almada, Portugal",-9.1486264,38.7088323,Lisboa,Almada
695041,3 Amigos (Pampulha),"Calçada da Pampulha - 38,Lisboa, Portugal","Almada, Portugal",-9.1673865,38.7047026,Lisboa,Almada
715156,Atalho do Cais (Grupo Atalho),"Rua de S. Paulo 32,Lisboa, Portugal","Almada, Portugal",-9.1432694,38.7074808,Lisboa,Almada
638561,Taberna do Lis,"Rua dos Douradores - 146,Lisbon, Portugal","Almada, Portugal",-9.13687,38.7121003,Lisbon,Almada
750605,Citron Lisboa,"Rua da Padaria - 30,Lisboa, Portugal","Almada, Portugal",-9.1344241,38.7096789,Lisboa,Almada
806539,Salotto Divino,"R. Nova da Piedade 97,Lisboa, Portugal","Almada, Portugal",-9.153172,38.7140421,Lisboa,Almada
578863,The Green Affair - Chiado,"Rua Serpa Pinto 15A,Lisbon, Portugal","Almada, Portugal",-9.3626623,38.7061444,Lisbon,Almada
64492,Café de São Bento,"Rua de São Bento 212,Lisbon, Portugal","Almada, Portugal",-9.1531169,38.7132246,Lisbon,Almada
748624,Ajitama Ramen Bistro - Alecrim,"R. do Alecrim 47A, 1200-014 Lisboa, Portugal,Lisbon, Portugal","Almada, Portugal",-9.1434343,38.7081687,Lisbon,Almada
464101,Condes de Ericeira -The One Palácio da Anunciada,"R. das Portas de Santo Antão 112,Lisboa, Portugal","Almada, Portugal",-9.1411578,38.7170119,Lisboa,Almada
737856,Animal – Restaurant & Bar,"Tv. Glória 22,Lisbon, Portugal","Almada, Portugal",-39.53014859,-17.0267009,Lisbon,Almada
361555,Ânfora - Palácio do Governador,"R. Bartolomeu Dias 117,Lisboa, Portugal","Almada, Portugal",-9.36354419,38.71186459,Lisboa,Almada
738651,Osso Botequim,"Rua dos Lusíadas - 113C,Lisboa, Portugal","Almada, Portugal",-9.1828966,38.7036942,Lisboa,Almada
752545,Armazém Clandestino,"R. de São João da Mata 88,Lisboa, Portugal","Almada, Portugal",-9.1585495,38.7080172,Lisboa,Almada
366759,Almassas,"R. Saraiva de Carvalho 200,Lisboa, Portugal","Almada, Portugal",-9.1629031,38.715938,Lisboa,Almada
806897,Pizzaria Tapas La Famiglia,"Rua de São Julião - 70,Lisboa, Portugal","Almada, Portugal",-9.1360415,38.7095438,Lisboa,Almada
804115,Rainbow Sushi & Kebab,"R. Gonçalves Zarco 21c,Lisboa, Portugal","Almada, Portugal",-9.2279863,38.7977016,Lisboa,Almada
208575,Delfina - Cantina Portuguesa,"Praça do Município n.º 21,Lisboa, Portugal","Almada, Portugal",-9.1394703,38.70823924,Lisboa,Almada
801165,TLÁLOC - Un Rincón Mexicano,"R. do Cruzeiro 1,Lisboa, Portugal","Almada, Portugal",-9.1877014,38.7057997,Lisboa,Almada
294339,Fado & Wine,"R. da Assunção 15,Lisboa, Portugal","Almada, Portugal",-9.1368058,38.7119181,Lisboa,Almada
737197,Ninja Buns - Lisboa,"Av. Álvares Cabral 24A,Lisboa, Portugal","Almada, Portugal",-9.1563929,38.7192054,Lisboa,Almada
801132,Tabuaria do Paço,"Rua da Alfândega 106,Lisboa, Portugal","Almada, Portugal",-9.133939,38.7088173,Lisboa,Almada
756393,Estação Bica Pizza Pub,"R. da Bica de Duarte Belo 14,Lisboa, Portugal","Almada, Portugal",-9.14615276,38.70981155,Lisboa,Almada
336637,Suba,"R. de Santa Catarina nº1,Lisboa, Portugal","Almada, Portugal",-9.1471611,38.7097116,Lisboa,Almada
432839,Espada,"Rua de São Paulo - 26 1º andar,Lisboa, Portugal","Almada, Portugal",-9.1431743,38.7074497,Lisboa,Almada
718213,NoTalho - Lisboa,"Praça da Alegria 50,Lisboa, Portugal","Almada, Portugal",-9.14538141,38.71824223,Lisboa,Almada
800477,ZeZinho ,"Rua da Esperança 25,Lisboa, Portugal","Almada, Portugal",-9.1537024,38.7086114,Lisboa,Almada
445895,Gandhi Palace - Bairro Alto,"Rua do Diário de Notícias - 139,Lisboa, Portugal","Almada, Portugal",-9.1445252,38.7137378,Lisboa,Almada
262737,Dama e Vagabundo,"Rua da Betesga 1,Lisboa, Portugal","Almada, Portugal",-9.1382942,38.713108,Lisboa,Almada
755771,Iberos Tasca Moderna,"Avenida 24 de Julho - 84,Lisboa, Portugal","Almada, Portugal",-9.1595311,38.7049638,Lisboa,Almada
753329,Olá Beirut by Chef Osman Tay,"Rua da Boavista 172,Lisboa, Portugal","Almada, Portugal",-9.1504269,38.7090632,Lisboa,Almada
501511,El Cabron  Tacos y Tequilla,"Largo Santos 5,Lisboa, Portugal","Almada, Portugal",-9.11783476,38.72235342,Lisboa,Almada
714335,Italian Place,"Rua do Conde - 63A,Lisboa, Portugal","Almada, Portugal",-9.1621102,38.7063703,Lisboa,Almada
674245,Nozomi Sushi Bar,"Rua Luis de Camões - 86,Lisboa, Portugal","Almada, Portugal",-9.1817127,38.7033866,Lisboa,Almada
805593,Tasca Balthazar,"Calçada do Duque 23,Lisboa, Portugal","Almada, Portugal",-9.199091,38.7058422,Lisboa,Almada
718428,Qosqo,"Rua dos Bacalhoeiros - 26A,Lisboa, Portugal","Almada, Portugal",-9.133896,38.7092009,Lisboa,Almada
732779,Bao House,"Rua Antonio Maria Cardoso - 74,Lisboa, Portugal","Almada, Portugal",-9.1423476,38.7096626,Lisboa,Almada
806403,Capricho - Restaurante & Bar,"R. Cozinha Económica 30b,Lisboa, Portugal","Almada, Portugal",-9.1758726,38.7038912,Lisboa,Almada
715932,Di Casa Infante Santo,"Av. Infante Santo 13,Lisboa, Portugal","Almada, Portugal",-9.1679834,38.7060004,Lisboa,Almada
748151,Jamonaria Pata Negra,"Rua dos Arameiros - 1,Lisboa, Portugal","Almada, Portugal",-9.1336952,38.7088286,Lisboa,Almada
801665,French Arth,"R. de São Bento 30,Lisboa, Portugal","Almada, Portugal",-9.152533,38.710475,Lisboa,Almada
650315,Bengal Tandoori Lisboa,"R. da Alegria 20,Lisboa, Portugal","Almada, Portugal",-9.1463259,38.7177913,Lisboa,Almada
713442,Nono Hong Kong,"Rua da Vitória - 69,Lisboa, Portugal","Almada, Portugal",-9.13838081,38.71080184,Lisboa,Almada
706449,Casa Santi,"Largo de Santos 14A, 1200-080 Lisboa, Portugal,Lisboa, Portugal","Almada, Portugal",-9.1539087,38.7071853,Lisboa,Almada
749037,Pizzaria Luzzo Alcântara,"Rua de Alcântara - 32A,Lisboa, Portugal","Almada, Portugal",-9.1756603,38.7063511,Lisboa,Almada
741160,151 da Rosa,"R. da Rosa 151,Lisboa, Portugal","Almada, Portugal",-9.1454892,38.7130681,Lisboa,Almada
711991,Manah,"R. Moeda 8,Lisboa, Portugal","Almada, Portugal",-9.1469189,38.7080075,Lisboa,Almada
694339,"Eat, Pray, Love","Tv. do Carvalho 29,Lisboa, Portugal","Almada, Portugal",-9.146197,38.7078469,Lisboa,Almada
806631,Bistro 99 by Chakall,"R. Portas de Santo Antão 93,Lisboa, Portugal","Almada, Portugal",-9.1406809,38.7163228,Lisboa,Almada
705411,Picanha,"R. das Janelas Verdes 96,Lisboa, Portugal","Almada, Portugal",-9.1606057,38.7054442,Lisboa,Almada
517741,Miss Jappa,"Praça do Príncipe Real 5, 1250-096 Lisboa, Portugal,Lisboa, Portugal","Almada, Portugal",-9.1484088,38.7156102,Lisboa,Almada
650743,Don Pablo - Campo de Ourique,"R. Silva Carvalho 167,Lisbon, Portugal","Almada, Portugal",-9.1617857,38.7196885,Lisbon,Almada
576011,Dalí Cozinha Surreal,"Rua de Infantaria 16, número 43, Campo de Ourique,Lisbon, Portugal","Almada, Portugal",-9.1675838,38.7207843,Lisbon,Almada
71342,Audrey's,"Rua Santiago 14,Lisboa, Portugal","Almada, Portugal",-9.1313793,38.7113558,Lisboa,Almada
740874,111 Vinhos - Chiado,"Rua da Horta Seca - 1,Lisboa, Portugal","Almada, Portugal",-9.1438279,38.7102689,Lisboa,Almada
514595,Sukhothai,"R. da Atalaia 77,Lisboa, Portugal","Almada, Portugal",-9.1450445,38.7124486,Lisboa,Almada
707831,Taqueria do Chiado,"Rua da Trindade - 36C,Lisboa, Portugal","Almada, Portugal",-9.1422087,38.7118435,Lisboa,Almada
803044,Green Burger,"Praça da Alegria 40,Lisboa, Portugal","Almada, Portugal",-8.5993701,41.1444588,Lisboa,Almada
299691,Peixola,"Rua do Alecrim, 35,Lisboa, Portugal","Almada, Portugal",-9.1434623,38.7078934,Lisboa,Almada
739155,Restaurante Ouro,"Rua Áurea - 100,Lisboa, Portugal","Almada, Portugal",-9.1381798,38.7099418,Lisboa,Almada
652921,Café IN - Sushi & Meat,"Av. Brasília, Pavilhão Nascente 311,Lisboa, Portugal","Almada, Portugal",-9.1297028,38.81301302,Lisboa,Almada
744994,Corrupio,"Rua da Moeda 1, F/G, 1200-275 Lisboa,Lisboa, Portugal","Almada, Portugal",-9.1472322,38.7076465,Lisboa,Almada
667047,MBH Hamburgueseria Alcantara,"Rua Vieira da Silva 56, 1350-342,Lisbon, Portugal","Almada, Portugal",-9.1734488,38.7055105,Lisbon,Almada
576409,Casa Tradição,"Travessa do Almargem - 4,Lisboa, Portugal","Almada, Portugal",-9.13207155,38.70948685,Lisboa,Almada
692259,Pizzaria Luzzo Santos,"Calçada Marquês de Abrantes, 15A,Lisboa, Portugal","Almada, Portugal",-9.1522451,38.7085276,Lisboa,Almada
457685,Mano a Mano,"R. do Alecrim 22,Lisboa, Portugal","Almada, Portugal",-9.1433027,38.7075445,Lisboa,Almada
745714,Sala de Corte,"Praça Dom Luís I 7,Lisboa, Portugal","Almada, Portugal",-9.1472817,38.7069371,Lisboa,Almada
806149,The Reception Brunch,"R. dos Fanqueiros 93,Lisboa, Portugal","Almada, Portugal",-9.1358647,38.7102687,Lisboa,Almada
745739,El Cebichero,"Praça das Flores 46, 1200-192 Lisboa,Lisboa, Portugal","Almada, Portugal",-9.1516379,38.7153483,Lisboa,Almada
807661,Hana Sushi & Thai,"Travessa da Tapada - 3,Lisboa, Portugal","Almada, Portugal",-9.1807829,38.7055664,Lisboa,Almada
735346,Tanuki Sushi Augusta,"R. de São Nicolau 78,Lisboa, Portugal","Almada, Portugal",-9.13779321,38.71027448,Lisboa,Almada
517799,Beer&Wine Up,"Rua do Alecrim, 49,Lisboa, Portugal","Almada, Portugal",-9.1434246,38.7082123,Lisboa,Almada
360601,Lugar Marcado,"R. Regedor 7,Lisboa, Portugal","Almada, Portugal",-9.1358215,38.7125368,Lisboa,Almada
307749,Eating Bear - Adhoc Wine,"Rua da Madalena - 62/64,Lisboa, Portugal","Almada, Portugal",-9.1349664,38.7098373,Lisboa,Almada
714636,Tasca da Memória,"Tv. da Memória 62 - Hotel Wine & Books,Lisboa, Portugal","Almada, Portugal",-9.1356411,38.70700836,Lisboa,Almada
625307,Matte Lisboa,"22 Calçada Marquês de Abrantes,Lisboa, Portugal","Almada, Portugal",-9.1526001,38.7085058,Lisboa,Almada
267029,India Gate,"Rua da Padaria 18,Lisboa, Portugal","Almada, Portugal",-9.1344208,38.7094913,Lisboa,Almada
313651,Djairsound,"R. das Janelas Verdes, 22,Lisboa, Portugal","Almada, Portugal",-9.1590294,38.706245,Lisboa,Almada
473189,IZANAGI SushiCafé,"Doca de Santo Amaro Armazém 0,Lisbon, Portugal","Almada, Portugal",-9.17595597,38.70007633,Lisbon,Almada
750833,Cais de Belém,"Rua Vieira Portuense - 64,Lisboa, Portugal","Almada, Portugal",-9.2028674,38.6969599,Lisboa,Almada
594961,Crouton,"R. de São Bento 337A,Lisboa, Portugal","Almada, Portugal",-9.1556449,38.7185867,Lisboa,Almada
754914,Brilhante,"R. Moeda 1H,Lisboa, Portugal","Almada, Portugal",-9.1471776,38.7077992,Lisboa,Almada
64505,Lisboa à Noite,"Rua das Gáveas 69,Lisboa, Portugal","Almada, Portugal",-9.1434745,38.7120708,Lisboa,Almada
740404,Rico Sabor,"Travessa dos Fiéis de Deus - 28,Lisboa, Portugal","Almada, Portugal",-9.1439432,38.711928,Lisboa,Almada
340207,Leziria Casa de Petiscos,"R. São João da Mata, 46,Lisboa, Portugal","Almada, Portugal",-9.1583421,38.7075582,Lisboa,Almada
204657,Gin Lovers Bar & Restaurant,"Praça do Príncipe Real 26,Lisboa, Portugal","Almada, Portugal",-9.1484567,38.7168309,Lisboa,Almada
64444,Comida de Santo,"Calçada Eng. Miguel Pais 39,Lisbon, Portugal","Almada, Portugal",-9.1514911,38.7172546,Lisbon,Almada
504931,Mannys Place,"R. da Barroca 92,Lisboa, Portugal","Almada, Portugal",-9.144531,38.712206,Lisboa,Almada
362875,Contrabando Restaurante e Bar,"Av. 24 de Julho. 90,Lisboa, Portugal","Almada, Portugal",-9.1599279,38.704774,Lisboa,Almada
800830,Gusto Taberu,"R. das Fontaínhas 38,Lisboa, Portugal","Almada, Portugal",-9.1749748,38.7062302,Lisboa,Almada
743987,Vista do Castelo,"Calçada do Duque - 27,Lisboa, Portugal","Almada, Portugal",-9.2001317,38.7007304,Lisboa,Almada
744943,Malmequer Bemmequer,"R. de São Miguel 23,Lisboa, Portugal","Almada, Portugal",-9.12964102,38.71088652,Lisboa,Almada
727021,In.Vulgar,"Rua dos Fanqueiros - 308,Lisboa, Portugal","Almada, Portugal",-9.1368546,38.713176,Lisboa,Almada
665771,São Rafael,"Largo de São Rafael 1,Lisboa, Portugal","Almada, Portugal",-9.1292663,38.7104549,Lisboa,Almada
700857,Italian Republic - Bacalhoeiros,"Rua dos Bacalhoeiros 95,Lisboa, Portugal","Almada, Portugal",-9.1337574,38.7090941,Lisboa,Almada
750312,Mae’s kitchen,"Rua Convento da Encarnação - 1,Lisboa, Portugal","Almada, Portugal",-9.138455,38.7155392,Lisboa,Almada
750898,Casa da Feijoada,"R. Gilberto Rola 22,Lisboa, Portugal","Almada, Portugal",-9.17220316,38.70492618,Lisboa,Almada
381657,M’Arrecreo,"Rua São Pedro de Alcântara 35,Lisboa, Portugal","Almada, Portugal",-9.1440126,38.7139306,Lisboa,Almada
284783,Wine Not?,"R. Ivens, 45,Lisboa, Portugal","Almada, Portugal",-9.1401959,38.7102059,Lisboa,Almada
707379,Taverna Del Rey,"Largo do Chafariz de Dentro - 14,Lisboa, Portugal","Almada, Portugal",-9.1284123,38.7112052,Lisboa,Almada
64420,Nunes Real Marisqueira,"R. Bartolomeu Dias 172 E e F,Lisboa, Portugal","Almada, Portugal",-9.2144012,38.6950837,Lisboa,Almada
752389,Nori Restaurant Japonês,"Rua da Cruz dos Poiais 89,Lisboa, Portugal","Almada, Portugal",-9.1513911,38.7122022,Lisboa,Almada
369493,Restaurante Trivial,"Rua da Palmeira n 44-A,Lisboa, Portugal","Almada, Portugal",-9.139659,38.8103586,Lisboa,Almada
738424,Pita Gourmet - Campo de Ourique,"Rua Possidónio da Silva - 182,Lisboa, Portugal","Almada, Portugal",-9.1675391,38.7125361,Lisboa,Almada
667901,O Guerreiro,"Rua de Santa Cruz do Castelo - 50,Lisboa, Portugal","Almada, Portugal",-9.1328214,38.7128392,Lisboa,Almada
217763,Grapes and Bites,"R. do Norte 85,Lisboa, Portugal","Almada, Portugal",-9.1437964,38.7119622,Lisboa,Almada
413195,Okah Rooftop - Bar & Restaurant,"Cais Rocha Conde de Óbidos, Edifico LACS, Rooftop, Santos, Lisboa,Lisboa, Portugal","Almada, Portugal",-9.15530491,38.70625305,Lisboa,Almada
803054,Boca D'Uva,"R. das Farinhas 42,Lisboa, Portugal","Almada, Portugal",-9.1353465,38.7138803,Lisboa,Almada
800200,Miss Dumpling,"Tv. dos Mastros 25,Lisboa, Portugal","Almada, Portugal",-9.1522885,38.7092647,Lisboa,Almada
800103,GunPowder Lisbon,"R. Nova da Trindade 13,Lisboa, Portugal","Almada, Portugal",-9.1426791,38.7125174,Lisboa,Almada
449413,Confraria LX,"R. do Alecrim 12A,Lisboa, Portugal","Almada, Portugal",-9.1433706,38.7070415,Lisboa,Almada
432831,Segundo Muelle,"Praça Dom Luís I, 30,Lisboa, Portugal","Almada, Portugal",-9.1467144,38.7075993,Lisboa,Almada
741100,mangiamo?,"Rua Catarina Eufémia - 34C,Sobreda, Portugal","Almada, Portugal",-9.1727573,38.6353608,Sobreda,Almada
523149,Drogaria,"R. Joaquim Casimiro 8, 1200-696 Lisboa,Lisboa, Portugal","Almada, Portugal",-9.1671908,38.7051927,Lisboa,Almada
72540,Fumeiro de Santa Catarina,"Tv. Alcaide 4C,Lisboa, Portugal","Almada, Portugal",-9.1491967,38.7098983,Lisboa,Almada
738821,Kais,"Cais da Viscondessa,Lisboa, Portugal","Almada, Portugal",-9.1356411,38.70700836,Lisboa,Almada
64637,Tentações de Gôa,"Rua S. Pedro Mártir - 23,Lisbon, Portugal","Almada, Portugal",-9.1359939,38.7144252,Lisbon,Almada
618107,Os Tibetanos,"R. do Salitre 117,Lisboa, Portugal","Almada, Portugal",-9.1487584,38.7197353,Lisboa,Almada
366235,Meating SteakHouse,"Rua Cândido dos Reis 72 - 74,Cacilhas, Portugal","Almada, Portugal",-9.14900128,38.68650215,Cacilhas,Almada
640703,SUD Lisboa Terrazza,"Avenida Brasília - Pavilhão Poente (ao lado do MAAT),Lisboa, Portugal","Almada, Portugal",-9.1356411,38.70700836,Lisboa,Almada
656689,TERROIR Restaurante,"Rua dos Fanqueiros - 182,Lisboa, Portugal","Almada, Portugal",-9.13637513,38.71191157,Lisboa,Almada
725644,Federico,"R. do Diário de Notícias 150,Lisboa, Portugal","Almada, Portugal",-9.1445128,38.7140638,Lisboa,Almada
805200,Wel Well Center,"R. Marcos Portugal 18A,Lisboa, Portugal","Almada, Portugal",-9.1523095,38.7162226,Lisboa,Almada
752350,Restaurante Vietnamita Luz Saigon,"R. Prof. Juvenal Esteves 4, loja 7,Lisboa, Portugal","Almada, Portugal",-9.175335,38.70478852,Lisboa,Almada
215193,Taberna da Esperança,"Rua da Esperança 112,Lisboa, Portugal","Almada, Portugal",-9.1549963,38.7081368,Lisboa,Almada
806425,Cusek - Bairro Alto,"R. do Diário de Notícias 66,Lisboa, Portugal","Almada, Portugal",-9.144084,38.7122327,Lisboa,Almada
292841,Água pela Barba,"R. do Almada, 29/31,Lisboa, Portugal","Almada, Portugal",-9.1467364,38.7100047,Lisboa,Almada
750340,Planto,"Rua da Boavista 69A,Lisboa, Portugal","Almada, Portugal",-9.1496942,38.708823,Lisboa,Almada
750779,Bica Sour,"R. da Bica de Duarte Belo 31,Lisboa, Portugal","Almada, Portugal",-9.1462247,38.7099084,Lisboa,Almada
735005,Gastrobar Winebar,"Largo da Academia Nacional de Belas Artes 18,Lisboa, Portugal","Almada, Portugal",-9.1399343,38.7084882,Lisboa,Almada
64790,"Santa Bica - Eat, Drink, Sleep","Travessa do Cabral - 37,Lisbon, Portugal","Almada, Portugal",-9.14623426,38.7093301,Lisbon,Almada
730595,Antù Alfama,"Beco de São Miguel, 1100-538 Lisboa, Portugal,Lisboa, Portugal","Almada, Portugal",-9.12964065,38.71093148,Lisboa,Almada
215195,Petiscaria Ideal,"Rua da Esperança 100,Lisboa, Portugal","Almada, Portugal",-9.1548556,38.7081927,Lisboa,Almada
700789,Canto Da Atalaia,"R. da Atalaia 13,Lisboa, Portugal","Almada, Portugal",-9.1449226,38.7114941,Lisboa,Almada
67536,Espaço Açores,"Largo Boa Hora à Ajuda 19,Lisboa, Portugal","Almada, Portugal",-9.1940503,38.7035402,Lisboa,Almada
727600,Santo Graal - Campo de Ourique,"R. Ferreira Borges 45,Lisbon, Portugal","Almada, Portugal",-9.16403827,38.71634517,Lisbon,Almada
738347,Solidó,"Calçada do Duque 35,Lisboa, Portugal","Almada, Portugal",-9.2021701,38.7034996,Lisboa,Almada
64644,Meson Andaluz Lisboa,"Travessa do Alecrim - 4,Lisboa, Portugal","Almada, Portugal",-9.1929472,38.7040706,Lisboa,Almada
72720,Tabik,"Av. da Liberdade 29 A,Lisboa, Portugal","Almada, Portugal",-9.163604,38.849544,Lisboa,Almada
344031,Café Pit,"Rua Augusto Rosa - 19,Lisboa, Portugal","Almada, Portugal",-9.1319163,38.7102019,Lisboa,Almada
361503,Mex Factory,"Rua Rodrigues de Faria - 103 - Edifício H 0.09A,Lisboa, Portugal","Almada, Portugal",-9.17884215,38.70348105,Lisboa,Almada
283057,Oitonove,"R. da Barroca 89,Lisboa, Portugal","Almada, Portugal",-9.1446242,38.7120797,Lisboa,Almada
78083,Maruto,"R. Cais de Santarém 30,Lisboa, Portugal","Almada, Portugal",-9.1301435,38.7093083,Lisboa,Almada
64698,Castro Restaurante,"Rua das Gáveas 74-78,Lisboa, Portugal","Almada, Portugal",-9.1433744,38.7122133,Lisboa,Almada
64530,Sancho - Lisboa,"Travessa da Glória nº. 14,Lisboa, Portugal","Almada, Portugal",-9.1439121,38.7172414,Lisboa,Almada
431711,Season,"R. Nova da Piedade 62, 1200-299,Lisboa, Portugal","Almada, Portugal",-9.1530583,38.7142232,Lisboa,Almada
64399,La Paparrucha,"R. Dom Pedro V 18/20,Lisboa, Portugal","Almada, Portugal",-9.1454748,38.7157095,Lisboa,Almada
368391,Consensual,"Travessa da Água da Flôr, 42, Bairro Alto,Lisboa, Portugal","Almada, Portugal",-9.1448771,38.713566,Lisboa,Almada
410193,Geographia,"Rua Conde 1,Lisboa, Portugal","Almada, Portugal",-9.1365758,38.7553905,Lisboa,Almada
453903,Pizzeria Romana BIO,"R. de São João da Praça 75,Lisboa, Portugal","Almada, Portugal",-9.1307529,38.7095547,Lisboa,Almada
716488,XXL by Olivier,"Calçada da Estrela 57,Lisboa, Portugal","Almada, Portugal",-9.1548615,38.712085,Lisboa,Almada
521769,Tiles Restaurant and Bar,"Rua de S. Paulo 33,Lisboa, Portugal","Almada, Portugal",-9.1436725,38.7074664,Lisboa,Almada
390093,Nikkei,"Doca do Bom Sucesso - Edif. Vela Latina,Lisboa, Portugal","Almada, Portugal",-9.1356411,38.70700836,Lisboa,Almada
329177,Fama d'Alfama Restaurante,"Rua do Terreiro do Trigo - 80,Lisboa, Portugal","Almada, Portugal",-9.1289092,38.7104411,Lisboa,Almada
64843,The Insólito,"Rua São Pedro de Alcântara, 83,Lisboa, Portugal","Almada, Portugal",-9.1446862,38.7149795,Lisboa,Almada
720938,Maria do Carmo,"R. da Oliveira ao Carmo 1,Lisboa, Portugal","Almada, Portugal",-9.1412877,38.7121815,Lisboa,Almada
553793,Swaagat The Taste of India,"Rua dos Correeiros - 122/128,Lisboa, Portugal","Almada, Portugal",-9.1356411,38.70700836,Lisboa,Almada
727388,Bohemia Lx - Sé Casa de Fado,"Travessa do Almargem - 4A,Lisboa, Portugal","Almada, Portugal",-9.1320725,38.7093554,Lisboa,Almada
76836,O Caracol,"R. da Barroca 14,Lisboa, Portugal","Almada, Portugal",-9.1444401,38.7112342,Lisboa,Almada
713103,Antù Cais do Sodré,"Rua do Corpo Santo 22,Lisboa, Portugal","Almada, Portugal",-9.1426527,38.7073499,Lisboa,Almada
750403,Pizzaiollo Chiado by Fullest ,"Largo Rafael Bordalo Pinheiro - 29,Lisboa, Portugal","Almada, Portugal",-9.141653,38.711704,Lisboa,Almada
64953,Taberna da Baixa,"Rua dos Fanqueiros 161,Lisbon, Portugal","Almada, Portugal",-9.1363802,38.7115366,Lisbon,Almada
675401,Tamarind,"Rua da Glória 43,Lisbon, Portugal","Almada, Portugal",-9.144153,38.7167048,Lisbon,Almada
64449,Farol de Santa Luzia,"Largo de Santa Luzia 5,Lisboa, Portugal","Almada, Portugal",-9.1306177,38.7117577,Lisboa,Almada
750229,Osteria Bellosguardo,"Rua Castelo Picão - 11,Lisboa, Portugal","Almada, Portugal",-9.1295216,38.7117014,Lisboa,Almada
727602,Santo Graal - Ajuda,"Calçada da Ajuda 113ch,Lisbon, Portugal","Almada, Portugal",-9.1996073,38.7035054,Lisbon,Almada
342289,O Fatica,"R. dos Mastros 33,Lisboa, Portugal","Almada, Portugal",-9.1523466,38.709344,Lisboa,Almada
378105,BemBelém,"R. Vieira Portuense 72,Lisboa, Portugal","Almada, Portugal",-9.2029757,38.6969854,Lisboa,Almada
473981,Sacramento do Chiado,"Calçada do Sacramento 40 a 46,Lisboa, Portugal","Almada, Portugal",-9.1403088,38.7115106,Lisboa,Almada
463755,Pap'Açorda,"Av. 24 de Julho 49 - 1 piso,Lisboa, Portugal","Almada, Portugal",-9.1440732,38.7065402,Lisboa,Almada
77315,Taberna Tosca,"Praça São Paulo 21,Lisboa, Portugal","Almada, Portugal",-9.1444374,38.7075522,Lisboa,Almada
680151,Bono Lisboa,"Calçada Ferragial 9,Lisboa, Portugal","Almada, Portugal",-9.14153059,38.7076187,Lisboa,Almada
66671,The Decadente Restaurante & Bar,"Rua de São Pedro de Alcântara - 81,Lisboa, Portugal","Almada, Portugal",-9.1446274,38.71489,Lisboa,Almada
739779,Soju Pocha,"Rua da Rosa - 99,Lisboa, Portugal","Almada, Portugal",-9.13989085,38.7186829,Lisboa,Almada
748669,Pizzaria Tapas La Casa,"Rua dos Correiros - 170,Lisboa, Portugal","Almada, Portugal",-9.137763,38.7121425,Lisboa,Almada
801597,Seventh Brunch Liberdade,"R. da Conceição da Glória 49,Lisboa, Portugal","Almada, Portugal",-9.1451116,38.7172142,Lisboa,Almada
806612,Malfamati,"R. Afonso de Albuquerque 4,Lisboa, Portugal","Almada, Portugal",-9.1323481,38.7092326,Lisboa,Almada
754621,A Gaúcha – Grelhados e Companhia,"Rua dos Bacalhoeiros - 26C,Lisboa, Portugal","Almada, Portugal",-9.1339681,38.709216,Lisboa,Almada
806353,Tapas n´Friends Rua Augusta,"R. Augusta 180,Lisboa, Portugal","Almada, Portugal",-9.1378517,38.7113504,Lisboa,Almada
365129,Pub Português,"R. da Barroca 15,Lisboa, Portugal","Almada, Portugal",-9.1445536,38.7112262,Lisboa,Almada
611905,Tapas N Friends - São Nicolau,"Rua São Nicolau 49,Lisbon, Portugal","Almada, Portugal",-9.1370482,38.7103407,Lisbon,Almada
639703,Valle Flor,"R. Jau 54 - Pestana Palace,Lisbon, Portugal","Almada, Portugal",-9.1356411,38.70700836,Lisbon,Almada
356621,RIB Beef & Wine - Lisboa,"Praça do Comércio 31A,Lisboa, Portugal","Almada, Portugal",-9.13570062,38.70800852,Lisboa,Almada
688919,Santa Restaurante & Bar,"Rua São João da Praça - 103,Lisboa, Portugal","Almada, Portugal",-9.1320104,38.7094871,Lisboa,Almada
756539,Restaurante Terra Lisboa,"R. Q.ta do Almargem 7,Lisboa, Portugal","Almada, Portugal",-9.1356411,38.70700836,Lisboa,Almada
687191,Il Carpaccio,"Rua dos Correeiros - 153,Lisboa, Portugal","Almada, Portugal",-9.1378175,38.7119034,Lisboa,Almada
744946,Italian Republic - Campo de Ourique,"R. Tomás da Anunciação 45B,Lisboa, Portugal","Almada, Portugal",-9.1657226,38.7175957,Lisboa,Almada
655507,Jamie's Italian Lisboa,"Praça do Príncipe Real 28A,Lisboa, Portugal","Almada, Portugal",-9.14819,38.7166777,Lisboa,Almada
410629,Crispy Mafya,"R. Cecílio de Sousa 85, 1200-100,Lisboa, Portugal","Almada, Portugal",-9.1496377,38.7169883,Lisboa,Almada
289565,Organi - Chiado,"Calçada Nova de São Francisco, 2,Lisbon, Portugal","Almada, Portugal",-9.1395629,38.7102972,Lisbon,Almada
200778,Mar ao Carmo,"Largo do Carmo 21,Lisboa, Portugal","Almada, Portugal",-9.1411518,38.7119789,Lisboa,Almada
753240,Neri,"Largo do Rato 4A,Lisboa, Portugal","Almada, Portugal",-9.203916,38.6978248,Lisboa,Almada
720185,Maat Café & Kitchen,"Avenida Brasília - MAAT,Lisboa, Portugal","Almada, Portugal",-9.1461184,38.7054576,Lisboa,Almada
339083,Bohemia Lx - St António Casa de Fado,"CALÇADA DO CORREIO VELHO N7,Lisboa, Portugal","Almada, Portugal",-9.1340532,38.71072795,Lisboa,Almada
271085,Gandhi Palace - Praça da Figueira,"R. dos Douradores 167,Lisboa, Portugal","Almada, Portugal",-9.1373283,38.7129259,Lisboa,Almada
64569,Quotidiano,"Largo das Fontaínhas 7,Lisboa, Portugal","Almada, Portugal",-9.1767404,38.7043295,Lisboa,Almada
64706,Zambeze,"Calçada do Marquês de Tancos, Ed EMEL,Lisboa, Portugal","Almada, Portugal",-9.13562355,38.71264719,Lisboa,Almada
722062,Matchamama,"R. Rodrigues Faria 103,Lisbon, Portugal","Almada, Portugal",-9.17884215,38.70348105,Lisbon,Almada
272545,Arco do Castelo,"Rua do Chão da Feira, 25,Lisboa, Portugal","Almada, Portugal",-9.1326392,38.7121401,Lisboa,Almada
569709,Páteo de Alfama,"Rua São João da Praça - 18,Lisboa, Portugal","Almada, Portugal",-9.1298843,38.7101959,Lisboa,Almada
709943,Rooftop at The Art Inn,"R. 1º de Dezembro 31,Lisboa, Portugal","Almada, Portugal",-9.1400265,38.7130854,Lisboa,Almada
801168,Amélia,"R. Ferreira Borges 101,Lisboa, Portugal","Almada, Portugal",-9.164144,38.7176984,Lisboa,Almada
557393,Lisboa Vadia,"Rua de São Mamede - 33A,Lisboa, Portugal","Almada, Portugal",-9.1354201,38.7115066,Lisboa,Almada
754879,Pizzaiollo Sé by Fullest,"Rua Cruzes da Sé - 29,Lisboa, Portugal","Almada, Portugal",-9.1327254,38.7095429,Lisboa,Almada
742045,Le Jardin D' Éden Lisboa,"R. Correia Teles 107A,Lisboa, Portugal","Almada, Portugal",-9.1708543,38.7190939,Lisboa,Almada
730660,Em Alta na Baixa,"R. de São Nicolau 22,Lisboa, Portugal","Almada, Portugal",-9.1364843,38.710605,Lisboa,Almada
64396,Tágide,"Largo da Academia Nacional de Belas Artes 19,Lisboa, Portugal","Almada, Portugal",-9.1399559,38.7084499,Lisboa,Almada
547491,Ristorante La Squadra,"Praça da Figueira,Lisbon, Portugal","Almada, Portugal",-9.13889027,38.71278,Lisbon,Almada
745736,Cofre Verde,"Rua de São Julião - 112,Lisboa, Portugal","Almada, Portugal",-9.144823,38.7079884,Lisboa,Almada
212305,Solar da Beira Baixa,"R. do Arco do Marquês de Alegrete 2F,Lisboa, Portugal","Almada, Portugal",-9.1362163,38.7143514,Lisboa,Almada
807500,Guelra - Ocean to Table,"R. de Belém 35,Lisboa, Portugal","Almada, Portugal",-9.2023942,38.6971803,Lisboa,Almada
337709,Bem Haja Lisboa,"R. Marcos Portugal 1 - Príncipe Real,Lisboa, Portugal","Almada, Portugal",-9.1518496,38.7152763,Lisboa,Almada
753096,Cacau Gastrobar,"Rua Vieira da Silva - 12,Lisboa, Portugal","Almada, Portugal",-9.1734542,38.7048242,Lisboa,Almada
308333,Farta Brutos,"Tv. da Espera 16 a 20,Lisboa, Portugal","Almada, Portugal",-9.1434492,38.7115487,Lisboa,Almada
64621,Chapitô à Mesa - Restaurante,"Costa do Castelo 1,Lisboa, Portugal","Almada, Portugal",-9.1336423,38.7115832,Lisboa,Almada
64491,1300 Taberna,"R. Rodrigues de Faria 103,Lisboa, Portugal","Almada, Portugal",-9.17884215,38.70348105,Lisboa,Almada
652919,Café IN  - Peixe fresco e Marisco,"Av. Brasília, Pavilhão Nascente 311,Lisboa, Portugal","Almada, Portugal",-9.1297028,38.81301302,Lisboa,Almada
754200,La Serra,"R. Fradesso da Silveira 2,Lisboa, Portugal","Almada, Portugal",-9.1749189,38.7045139,Lisboa,Almada
738258,Oitto,"Largo Picadeiro 8-A,Lisboa, Portugal","Almada, Portugal",-9.1421972,38.7090372,Lisboa,Almada
655511,Jamie Oliver's Pizzeria,"Rua do Loreto 12,Lisboa, Portugal","Almada, Portugal",-9.1441511,38.7107513,Lisboa,Almada
718761,Dote - Cais do Sodré,"R. Bernardino Costa 42,Lisboa, Portugal","Almada, Portugal",-9.1429892,38.706942,Lisboa,Almada
76557,Restaurante do Clube Naval de Lisboa,"Av. Brasília - Doca de Belém - Edifício do Clube Naval de Lisboa,Lisboa, Portugal","Almada, Portugal",-9.1356411,38.70700836,Lisboa,Almada
752569,Maria Escandalosa,"R. da Misericórdia 118,Lisboa, Portugal","Almada, Portugal",-9.14314526,38.71281847,Lisboa,Almada
737959,Tonkotsu Rámen by Go Juu,"R. Fradesso da Silveira 53,Lisboa, Portugal","Almada, Portugal",-9.1758453,38.7044427,Lisboa,Almada
66542,Bistro 100 Maneiras,"Largo da Trindade 9,Lisboa, Portugal","Almada, Portugal",-9.1429315,38.712098,Lisboa,Almada
664479,Pizza Misura Spaguetteria,"R. da Misericórdia 105,Lisbon, Portugal","Almada, Portugal",-9.1431708,38.712267,Lisbon,Almada
521413,Clube de Fado,"Rua de São João da Praça, 94,Lisboa, Portugal","Almada, Portugal",-9.1312084,38.7096261,Lisboa,Almada
410517,Sabor Gaúcho,"Rua do Carmo 2, Loja 6.01, 1200-094,Lisboa, Portugal","Almada, Portugal",-9.1395811,38.7110545,Lisboa,Almada
652437,Alberto's Bistro,"Rua dos Fanqueiros - 169,Lisbon, Portugal","Almada, Portugal",-9.1364105,38.7116257,Lisbon,Almada
391273,Leve Leve Tapas Bar,"Travessa da Boa Hora, 39,Lisboa, Portugal","Almada, Portugal",-9.1449702,38.7137666,Lisboa,Almada
549621,Marisqueira Azul - Praça do Comércio,"Praça do Comércio 70-71,Lisboa, Portugal","Almada, Portugal",-9.13549551,38.70748699,Lisboa,Almada
690067,Shoes n Booze Bar,"Rua da Madalena - 68,Lisboa, Portugal","Almada, Portugal",-9.1349894,38.7098914,Lisboa,Almada
801964,Outbêco Estrela,"Calçada da Estrela 35,Lisboa, Portugal","Almada, Portugal",-9.1533073,38.7113991,Lisboa,Almada
723073,Guaka Lisboa,"R. de São Marçal 94,Lisboa, Portugal","Almada, Portugal",-9.15105135,38.71449116,Lisboa,Almada
64982,A Praça,"R. Rodrigues de Faria 105,Lisboa, Portugal","Almada, Portugal",-9.1788196,38.7035081,Lisboa,Almada
655773,Tapas N Friends - Chiado,"Calçada Nova de São Francisco nº14,Lisbon, Portugal","Almada, Portugal",-9.1400733,38.7102341,Lisbon,Almada
699299,Visconti Chiado,"Largo Rafael Bordalo Pinheiro 18,Lisboa, Portugal","Almada, Portugal",-9.1418518,38.7115343,Lisboa,Almada
325931,Rio Coura,"Rua Augusto Rosa - 30,Lisboa, Portugal","Almada, Portugal",-9.1320677,38.7102805,Lisboa,Almada
319681,La Vita è Bella,"Rua da Prata 115,Lisboa, Portugal","Almada, Portugal",-9.1368737,38.7105222,Lisboa,Almada
274213,Nosolo Italia - Belém,"Av Brasilia, 202,Lisboa, Portugal","Almada, Portugal",-50.26031887,-20.27733477,Lisboa,Almada
214829,Granja Velha,"R. dos Douradores 200,Lisboa, Portugal","Almada, Portugal",-9.1371972,38.7129371,Lisboa,Almada
441847,Bohemio da Ribeira,"Tv. Carvalho 27,Cais do Sodré, Portugal","Almada, Portugal",-9.1426922,38.7066076,Cais do Sodré,Almada
214821,Dois Arcos,"R. dos Douradores 163,Lisboa, Portugal","Almada, Portugal",-9.1373104,38.7128729,Lisboa,Almada
64684,Belém 2 a 8,"Rua de Belém - 2,Lisboa, Portugal","Almada, Portugal",-9.2018484,38.6973798,Lisboa,Almada
730118,Prato Fino,"Rua da Glória 47,Lisboa, Portugal","Almada, Portugal",-9.1442224,38.7167458,Lisboa,Almada
804744,Ramen Korner,"R. da Vitória 10,Lisboa, Portugal","Almada, Portugal",-9.136472,38.7113596,Lisboa,Almada
214081,Monte Mar - Lisboa,"R. da Cintura do Porto de Lisboa Armazém 65,Lisboa, Portugal","Almada, Portugal",-9.12390405,38.71208045,Lisboa,Almada
592051,Sakura Infante Santo,"Avenida Infante Santo - 60B,Lisbon, Portugal","Almada, Portugal",-9.1669991,38.7084755,Lisbon,Almada
349807,Sanskar Nepal,"R. Chagas 25,Lisboa, Portugal","Almada, Portugal",-9.1453489,38.7102858,Lisboa,Almada
64716,Quermesse,"Rua da Glória 85,Lisboa, Portugal","Almada, Portugal",-9.1446822,38.717061,Lisboa,Almada
416071,Portugália - Cais do Sodré,"Rua da Cintura do Porto de Lisboa - Cais do Sodré,Lisboa, Portugal","Almada, Portugal",-9.1113514,38.72490235,Lisboa,Almada
733788,Carnal,"R. da Misericórdia 78,Lisboa, Portugal","Almada, Portugal",-9.142991,38.7123889,Lisboa,Almada
65190,Vela Latina,"Doca do Bom Sucesso,Lisboa, Portugal","Almada, Portugal",-9.21203995,38.69247055,Lisboa,Almada
745485,Catedrais Tapas Bar Restaurante,"Rua de São Cristóvão - 23,Lisboa, Portugal","Almada, Portugal",-9.1357434,38.7130753,Lisboa,Almada
578559,Collect - Food . Radio . Records,"R. Nova do Carvalho 60 – 62,Lisboa, Portugal","Almada, Portugal",-9.1441895,38.7074304,Lisboa,Almada
569711,Fado em Si,"Rua de São João da Praça, n.º 18,Lisboa, Portugal","Almada, Portugal",-9.1315781,38.7096062,Lisboa,Almada
344361,Clube de Jornalistas,"R. Trinas 129,Lisbon, Portugal","Almada, Portugal",-9.1592798,38.71009,Lisbon,Almada
65005,KOB by Olivier,"Rua do Salitre - 169,Lisboa, Portugal","Almada, Portugal",-9.1516038,38.71980858,Lisboa,Almada
752310,Tunel de Santos,"Largo de Santos 1A,Lisboa, Portugal","Almada, Portugal",-9.15523191,38.7070318,Lisboa,Almada
66683,Feitoria,"1400-038,Lisboa, Portugal","Almada, Portugal",-9.21252251,38.69242477,Lisboa,Almada
697905,São Miguel D´Alfama,"Rua de São Miguel - 9,Lisboa, Portugal","Almada, Portugal",-9.12863227,38.71163436,Lisboa,Almada
358327,Tapas n' Friends Rossio,"Calçada do Carmo, 21,Lisboa, Portugal","Almada, Portugal",-9.1404443,38.7134684,Lisboa,Almada
547711,Eneko Lisboa,"R. Maria Luísa Holstein 5,Lisboa, Portugal","Almada, Portugal",-9.1765548,38.70370355,Lisboa,Almada
580743,Tasca de Notícias,"R. do Diário de Notícias 49,Lisbon, Portugal","Almada, Portugal",-9.1441632,38.7119128,Lisbon,Almada
319683,Tapas n' Friends Trindade,"R. da Trindade, 34,Lisboa, Portugal","Almada, Portugal",-9.1419989,38.7119155,Lisboa,Almada
64608,Terra Nova by Populi,"Ala Nascente Terreiro do Paço 85-86,Lisboa, Portugal","Almada, Portugal",-9.17224255,38.7734087,Lisboa,Almada
674881,Invicta Madragoa,"Rua da Esperança,Lisboa, Portugal","Almada, Portugal",-9.15604319,38.70775252,Lisboa,Almada
653561,As Velhas,"R. da Conceição da Glória 21,Lisboa, Portugal","Almada, Portugal",-9.1445791,38.7174182,Lisboa,Almada
624207,Coyo Taco – Cais do Sodré,"R. Ribeira Nova 36,Lisboa, Portugal","Almada, Portugal",-9.1454927,38.7075706,Lisboa,Almada
753616,Petiscos da Prata,"Rua da Prata 88,Lisbon, Portugal","Almada, Portugal",-9.1365049,38.7101318,Lisbon,Almada
746667,Obicà Mozzarella Bar - Lisboa,"R. da Escola Politécnica 90,Lisbon, Portugal","Almada, Portugal",-9.1521274,38.7182764,Lisbon,Almada
752658,The Kool Puppets - Tapas Bar,"Rua da Rosa - 136,Lisboa, Portugal","Almada, Portugal",-9.13942375,38.71782725,Lisboa,Almada
473991,Carmo,"Largo do Carmo 11,Lisboa, Portugal","Almada, Portugal",-9.1409938,38.7117286,Lisboa,Almada
64840,Prima Pasta,"R. da Madalena,Lisbon, Portugal","Almada, Portugal",-9.13652451,38.71345265,Lisbon,Almada
747969,The George,"Rua do Crucifixo - 58,Lisboa, Portugal","Almada, Portugal",-9.1387948,38.7102065,Lisboa,Almada
750240,Esperança do Bairro,"Rua do Norte - 95,Lisboa, Portugal","Almada, Portugal",-9.1438078,38.712332,Lisboa,Almada
691761,LEVE LEVE 2.0,"Tv. da Boa Hora 48,Lisbon, Portugal","Almada, Portugal",-9.145052,38.7138206,Lisbon,Almada
624201,Honorato Belém,"R. de Belém 116,Lisboa, Portugal","Almada, Portugal",-9.2037755,38.6975115,Lisboa,Almada
718416,Mensagem - Restaurante Bar Panorâmico,"R. da Oliveira ao Carmo 8,Lisboa, Portugal","Almada, Portugal",-9.1413923,38.7125022,Lisboa,Almada
202943,Café Luso,"Travessa da Queimada 10,Lisboa, Portugal","Almada, Portugal",-9.1438055,38.7130836,Lisboa,Almada
345159,Raízes,"R. Olival 36,Lisboa, Portugal","Almada, Portugal",-9.1613974,38.705718,Lisboa,Almada
740450,Cervejaria Antártida Lisboa,"Praça do Comércio - 10 - Terreiro do Paço – Ala Poente,Lisboa, Portugal","Almada, Portugal",-9.18413511,38.77882168,Lisboa,Almada
734411,MariAlma,"Av. Vale de Milhaços 125,Corroios, Portugal","Almada, Portugal",-9.1673612,38.62639135,Corroios,Almada
711531,Florentino,"R. do Sacramento a Alcântara 30,Lisboa, Portugal","Almada, Portugal",-9.1682917,38.7047781,Lisboa,Almada
68518,Frade Dos Mares,"Av. D. Carlos I, nº 55 A,Lisboa, Portugal","Almada, Portugal",-9.1332686,38.76171545,Lisboa,Almada
294125,Nosolo Italia - Praça do Comércio,"Praça do Comércio, Ala Nascente, porta 74-77,Lisboa, Portugal","Almada, Portugal",-9.1356411,38.70700836,Lisboa,Almada
746593,Bello Forno,"Campo das Cebolas - 50,Lisboa, Portugal","Almada, Portugal",-9.13139966,38.70894203,Lisboa,Almada
461411,Varanda Azul,"Avenida do Restelo - Estádio do Restelo - Edifício Varanda Azul,Lisboa, Portugal","Almada, Portugal",-9.20784473,38.70245361,Lisboa,Almada
660891,Sopinhas Restaurante,"R. da Madalena 50,Lisbon, Portugal","Almada, Portugal",-9.1348644,38.7095669,Lisbon,Almada
319679,Peixaria do Rossio,"Calçada do Carmo, 9,Lisboa, Portugal","Almada, Portugal",-9.1400959,38.7135573,Lisboa,Almada
743662,Paladarium,"Largo do Chão do Loureiro - 2,Lisboa, Portugal","Almada, Portugal",-9.13547093,38.71189041,Lisboa,Almada
369729,Tapas n' Friends Sé,"Cruzes da Sé 25,Lisboa, Portugal","Almada, Portugal",-9.1742382,38.7074073,Lisboa,Almada
748877,Nicolau Lisboa,"R. de São Nicolau 17,Lisbon, Portugal","Almada, Portugal",-9.1362318,38.7105382,Lisbon,Almada
454317,Locanda Italiana,"Rua das Portas de Santo Antão - 45,Lisboa, Portugal","Almada, Portugal",-9.1399334,38.7154852,Lisboa,Almada
487227,Troppo Squisito - Lisboa,"Praça do Comércio - Ala Poente - 20/23,Lisboa, Portugal","Almada, Portugal",-9.13591116,38.70694262,Lisboa,Almada
358369,Café Príncipe Real,"R. Dom Pedro V, 56 J,Lisboa, Portugal","Almada, Portugal",-9.145975,38.7157598,Lisboa,Almada
579631,Baía do Peixe - Praça do Comércio,"Praça do Comércio,Lisboa, Portugal","Almada, Portugal",-9.13495541,38.70732498,Lisboa,Almada
325663,Porter Bistro,"Rua do Arsenal 146,Lisboa, Portugal","Almada, Portugal",-9.1413335,38.7073237,Lisboa,Almada
517959,Dias no Bairro,"Rua do Norte - 81,Lisboa, Portugal","Almada, Portugal",-9.1438025,38.7121096,Lisboa,Almada
481181,Rossio Gastrobar,"R. 1º de Dezembro 118,Lisboa, Portugal","Almada, Portugal",-9.1407442,38.7149105,Lisboa,Almada
64841,Maria Catita,"Rua dos Bacalhoeiros 30,Lisboa, Portugal","Almada, Portugal",-9.1343432,38.7092843,Lisboa,Almada
744192,Cervejaria Solar do Vez,"Campo das Cebolas - 48,Lisboa, Portugal","Almada, Portugal",-9.13139966,38.70894203,Lisboa,Almada
805840,Bica-san,"Rua de S. Paulo 93,Lisboa, Portugal","Almada, Portugal",-9.146874,38.7084081,Lisboa,Almada
64373,100 Maneiras,"R. do Teixeira 39,Lisboa, Portugal","Almada, Portugal",-9.1450375,38.7147351,Lisboa,Almada
368507,Petisqueira Matateu,"Rua do Arsenal Restelo,Lisboa, Portugal","Almada, Portugal",-9.1390922,38.70782255,Lisboa,Almada
730051,Di Amici Pizza em Casa,"Calçada da Ajuda,Lisboa, Portugal","Almada, Portugal",-9.16613576,38.72660076,Lisboa,Almada
208875,daPrata52,"Rua da Prata 52,Lisboa, Portugal","Almada, Portugal",-9.1362949,38.7095719,Lisboa,Almada
269713,Adega Machado,"Rua do Norte 91,Lisboa, Portugal","Almada, Portugal",-9.1437994,38.7122779,Lisboa,Almada
727170,Art Italiana (Pizzeria),"Calçada do Combro - 17,Lisboa, Portugal","Almada, Portugal",-9.1460738,38.7107926,Lisboa,Almada
343573,Dom João I,"Rua Dom Duarte - 1B,Lisboa, Portugal","Almada, Portugal",-9.1375142,38.7143342,Lisboa,Almada
453327,Arkhe,"Rua de São Filipe Néri 14,Lisboa, Portugal","Almada, Portugal",-9.1541455,38.7205481,Lisboa,Almada
737496,JAC Brunch & Concept Store,"Rua da Rosa - 240,Lisboa, Portugal","Almada, Portugal",-9.1460484,38.7152682,Lisboa,Almada
200837,A Primavera do Jerónimo,"Tv. da Espera 34,Lisboa, Portugal","Almada, Portugal",-9.1438841,38.7114957,Lisboa,Almada
613009,Terraço Editorial,"Rua dos Fanqueiros - 276 - 8 andar,Lisboa, Portugal","Almada, Portugal",-9.1366822,38.7127492,Lisboa,Almada
750303,Radio-Hotel Club & Sushi,"Travessa do Conde da Ponte - 12,Lisboa, Portugal","Almada, Portugal",-9.1809302,38.7005055,Lisboa,Almada
732910,Taberna D'Alegria,"Rua da Alegria 38,Lisboa, Portugal","Almada, Portugal",-9.1465449,38.7176464,Lisboa,Almada
632609,O Cocas,"Rua dos Correeiros - 177,Lisboa, Portugal","Almada, Portugal",-9.137936,38.7122049,Lisboa,Almada
409469,BaixaMar Lisboa - Mariscos e Petiscos,"Rua dos Bacalhoeiros - 28,Lisboa, Portugal","Almada, Portugal",-9.13431436,38.70925374,Lisboa,Almada
741570,Carnívoro Steak Wine & Friends,"N10-1 215,Sobreda, Portugal","Almada, Portugal",-9.1836871,38.6487707,Sobreda,Almada
728295,Pastanaga,"Tv. dos Pescadores 27,Lisboa, Portugal","Almada, Portugal",-9.152694,38.7089887,Lisboa,Almada
461795,Casanostra,"Tv. do Poço da Cidade 60,Lisboa, Portugal","Almada, Portugal",-9.1451858,38.7123792,Lisboa,Almada
756021,Pica-Pau,"R. da Escola Politécnica 27,Lisboa, Portugal","Almada, Portugal",-9.149754,38.7171793,Lisboa,Almada
745238,Rocco Ristorante,"R. Ivens 14,Lisboa, Portugal","Almada, Portugal",-9.1401744,38.7095398,Lisboa,Almada
77090,Vicente by Carnalentejana,"Rua das Flores 6,Lisboa, Portugal","Almada, Portugal",-9.1438282,38.7077219,Lisboa,Almada
698431,O Boteco by Chef Kiko Martins,"Praça Luís de Camões 37,Lisboa, Portugal","Almada, Portugal",-9.1435086,38.7108277,Lisboa,Almada
577607,O Frade,"Calçada da Ajuda 14,Lisboa, Portugal","Almada, Portugal",-9.1993204,38.6979188,Lisboa,Almada
738493,ZeroZero Principe Real,"R. da Escola Politécnica 32,Lisboa, Portugal","Almada, Portugal",-9.1497057,38.7173342,Lisboa,Almada
665233,A Severa - Fado,"R. das Gáveas 51 R/C,Lisbon, Portugal","Almada, Portugal",-9.1434429,38.7117644,Lisbon,Almada
360537,Ofício,"Rua Nova da Trindade - 11K,Lisboa, Portugal","Almada, Portugal",-9.1425898,38.7124429,Lisboa,Almada
354061,Terraço de Belém,"Avenida Brasília - Edifício Polo Náutico,Lisboa, Portugal","Almada, Portugal",-9.1356411,38.70700836,Lisboa,Almada
750329,Loco,"R. Navegantes nº53-B,Lisboa, Portugal","Almada, Portugal",-9.1606164,38.7125179,Lisboa,Almada
800823,L-Tasca by Maria Peixeira,"R. do Alecrim 5,Lisboa, Portugal","Almada, Portugal",-9.1435947,38.7069413,Lisboa,Almada
625027,Floresta das Escadinhas,"Rua de Santa Justa - 3,Lisboa, Portugal","Almada, Portugal",-9.13658618,38.71261702,Lisboa,Almada
65044,Oficina do Duque,"Calçada do Duque 43,Lisboa, Portugal","Almada, Portugal",-9.1997123,38.7026815,Lisboa,Almada
640599,Há Pitéu - Bistrô Bar,"R. da Atalaia 70 H,Lisboa, Portugal","Almada, Portugal",-9.14489447,38.71208152,Lisboa,Almada
455771,Estrela da Bica,"Travessa do Cabral 33,Lisboa, Portugal","Almada, Portugal",-9.1462781,38.7093412,Lisboa,Almada
470727,Mar ao Largo,"Largo Rafael Bordalo Pinheiro n 28,Lisboa, Portugal","Almada, Portugal",-9.1417177,38.7117938,Lisboa,Almada
738746,Chutnify Lisboa,"Travessa da Palmeira 44,Lisboa, Portugal","Almada, Portugal",-9.1500394,38.7143999,Lisboa,Almada
755311,Book Restaurante - Terrace,"R. Saraiva de Carvalho 35,Lisboa, Portugal","Almada, Portugal",-9.1594618,38.7174645,Lisboa,Almada
749926,Chickinho LX,"Rua Rodrigues de Faria - 103 - LX Factory,Lisboa, Portugal","Almada, Portugal",-9.17884215,38.70348105,Lisboa,Almada
518319,Tre Bambu  ,"R. do Salitre 38,Lisboa, Portugal","Almada, Portugal",-9.1463007,38.7197322,Lisboa,Almada
64443,As Salgadeiras,"Rua das Salgadeiras 18,Lisboa, Portugal","Almada, Portugal",-9.1442902,38.7109987,Lisboa,Almada
316663,Honorato - Chiado,"Largo Rafael Bordalo Pinheiro 12,,Lisboa, Portugal","Almada, Portugal",-9.1417673,38.7113365,Lisboa,Almada
801594,Seventh Brunch Chiado,"Calçada do Combro 147,Lisboa, Portugal","Almada, Portugal",-9.148879,38.7110313,Lisboa,Almada
73171,São Jorge,"Calçada do Marquês de Tancos 1,Lisboa, Portugal","Almada, Portugal",-9.13467669,38.71219204,Lisboa,Almada
744129,Cervejaria Sem Vergonha,"Tv. de Santa Quitéria 38,Lisboa, Portugal","Almada, Portugal",-9.1568584,38.7176544,Lisboa,Almada
721913,Sumaya,"R. da Escola Politécnica 40,Lisboa, Portugal","Almada, Portugal",-9.1497864,38.7173569,Lisboa,Almada
473965,Figu's,"Praça da Figueira 17,Lisboa, Portugal","Almada, Portugal",-9.137634,38.7132332,Lisboa,Almada
66684,Cafetaria Mensagem - Altis Belém Hotel & Spa,"Doca do Bom Sucesso,Lisboa, Portugal","Almada, Portugal",-9.21203995,38.69247055,Lisboa,Almada
77730,Limoncello,"R. do Norte 61,Lisboa, Portugal","Almada, Portugal",-9.1437877,38.7116261,Lisboa,Almada
745712,Alma,"R. Anchieta 15,Lisboa, Portugal","Almada, Portugal",-9.1411057,38.7101523,Lisboa,Almada
328423,Tripeiro,"R. dos Correeiros 70A,Lisboa, Portugal","Almada, Portugal",-9.1372077,38.710711,Lisboa,Almada
589449,La Tagliatella - Santos,"Av. Dom Carlos I 42,Lisboa, Portugal","Almada, Portugal",-9.152599,38.7079345,Lisboa,Almada
608283,Mezzogiorno,"Rua Garrett 19 - Galerias Páteo Garrett, lojas C, d,Lisbon, Portugal","Almada, Portugal",-9.1400508,38.7108359,Lisbon,Almada
748901,Lovecraft Gastropub Lisboa,"Rua da Boavista - 28,Lisboa, Portugal","Almada, Portugal",-9.1479415,38.7086951,Lisboa,Almada
326269,SOI Asian Street Food,"Rua da Moeda 1C,Lisboa, Portugal","Almada, Portugal",-9.1472342,38.7076731,Lisboa,Almada
719733,Pharmacia Felicidade,"Rua de Santa Catarina n 2 e n, 4,Lisboa, Portugal","Almada, Portugal",-9.14866776,38.70976865,Lisboa,Almada
665029,Franguinho do Príncipe,"Rua da imprensa Nacional,116B,Lisboa, Portugal","Almada, Portugal",-9.1516323,38.7174876,Lisboa,Almada
714835,Cheers Burger,"R. Casa do Povo 86 A B,Corroios, Portugal","Almada, Portugal",-9.1568059,38.64231,Corroios,Almada
727894,Associação do Fado Casto - Casa de Fados ,"Rua de São Mamede - 8A,Lisboa, Portugal","Almada, Portugal",-9.1328851,38.7105939,Lisboa,Almada
307203,A Minhota da Prata,"Rua da Prata - 75,Lisboa, Portugal","Almada, Portugal",-9.1366361,38.7099201,Lisboa,Almada
625547,Casa dos Pecados,"Tv. João de Deus 14/16,Lisbon, Portugal","Almada, Portugal",-9.2190623,38.7550953,Lisbon,Almada
754537,Vamos ao Algarve - Restaurante Fado,"Rua do Terreiro do Trigo - 86,Lisboa, Portugal","Almada, Portugal",-9.1289838,38.7103765,Lisboa,Almada
649767,O Fumeiro,"R. da Conceição da Glória 27,Lisboa, Portugal","Almada, Portugal",-9.1446434,38.7173905,Lisboa,Almada
703059,MachimBombo,"Calçada do Combro 87,Lisboa, Portugal","Almada, Portugal",-9.1476792,38.7109543,Lisboa,Almada
393761,Taberna dos Ferreiros,"Tv. Ferreiros a Belém 5,Lisboa, Portugal","Almada, Portugal",-9.2019293,38.6975523,Lisboa,Almada
615329,Restaurant Chulho & Bar,"R. de São João da Mata 82,Lisbon, Portugal","Almada, Portugal",-9.1585202,38.7079615,Lisbon,Almada
64516,Taberna Ibérica,"Praça da Alegria 66,Lisboa, Portugal","Almada, Portugal",-9.1447977,38.7182386,Lisboa,Almada
738449,Tabica Bistrô,"Tv. Bica Grande 6,Lisboa, Portugal","Almada, Portugal",-9.1463424,38.7087026,Lisboa,Almada
738896,Go A Lisboa Rooftop,"Calçada do Livramento - 17,Lisboa, Portugal","Almada, Portugal",-9.1720479,38.7064437,Lisboa,Almada
698619,Taverna d'Alcantara,"R. Gilberto Rola 37,Lisboa, Portugal","Almada, Portugal",-9.1726151,38.7053383,Lisboa,Almada
694149,Descarado,"Doca de Santo Amaro, Armazém 8,Lisboa, Portugal","Almada, Portugal",-9.1787946,38.69896155,Lisboa,Almada
730856,Sul Osteria do Povo,"R. Guarda-Mor 6,Lisboa, Portugal","Almada, Portugal",-9.1567865,38.7077172,Lisboa,Almada
497965,KOPPU RAMEN + IZAKAYA,"R. do Salitre 131A, 1250-198,Lisboa, Portugal","Almada, Portugal",-9.1490672,38.7196629,Lisboa,Almada
64430,Tasca da Esquina,"Rua Domingos Sequeira 41C,Lisboa, Portugal","Almada, Portugal",-9.1636126,38.7152557,Lisboa,Almada
744327,Volta dos Sabores,"Rua da Barroca - 106,Lisboa, Portugal","Almada, Portugal",-9.1445535,38.712431,Lisboa,Almada
271615,Adega Já Fumega,"R. Campo de Ourique 11-13,Lisboa, Portugal","Almada, Portugal",-9.1615296,38.7202396,Lisboa,Almada
64911,Varina da Madragoa,"R. das Madres 34,Lisbon, Portugal","Almada, Portugal",-9.1546081,38.708878,Lisbon,Almada
329195,DOCA SEIS,"Doca de Santo Amaro Armazém 6, Alcântara,Lisboa, Portugal","Almada, Portugal",-9.1781667,38.69854565,Lisboa,Almada
664311,Tasca do Teimoso,"Rua das Taipas 41A,Lisbon, Portugal","Almada, Portugal",-9.1454985,38.7166426,Lisbon,Almada
464373,Portugália - Belém,"Av. Brasília,Lisboa, Portugal","Almada, Portugal",-9.14621567,38.70516169,Lisboa,Almada
803333,No Mames Wey - Campo de Ourique,"R. Infantaria 16 2A,Lisboa, Portugal","Almada, Portugal",-9.1624933,38.7183772,Lisboa,Almada
745711,Tapisco,"R. Dom Pedro V 81,Lisboa, Portugal","Almada, Portugal",-9.1459762,38.71566895,Lisboa,Almada
736553,Piazza Sicilia-Osteria di Michele Bono,"Rua da Glória 39,Lisboa, Portugal","Almada, Portugal",-9.1440845,38.7166647,Lisboa,Almada
659381,Sabor do Bacalhau,"R. da Barroca 75,Lisbon, Portugal","Almada, Portugal",-9.1446125,38.7119716,Lisbon,Almada
754432,Powerplant,"R. Fernandes Tomás 64,Lisboa, Portugal","Almada, Portugal",-9.1507052,38.7094665,Lisboa,Almada
732009,Carmo Rooftop,"Largo do Carmo,Lisboa, Portugal","Almada, Portugal",-9.14069465,38.7116705,Lisboa,Almada
714458,Tasca do Jaime d'Alfama,"R. de São Pedro 40,Lisboa, Portugal","Almada, Portugal",-9.1291604,38.7107979,Lisboa,Almada
64727,Le Petit Café,"Largo de São Martinho - 6,Lisboa, Portugal","Almada, Portugal",-9.3457171,39.0716215,Lisboa,Almada
671145,Taqueria do Cais,"Rua de S. Paulo 28,Lisboa, Portugal","Almada, Portugal",-9.1432055,38.70746,Lisboa,Almada
682389,Restaurante da Sé,"Cruzes da Sé 31A,Lisboa, Portugal","Almada, Portugal",-9.1330154,38.7094852,Lisboa,Almada
66710,A Travessa,"Travessa do Convento das Bernardas 12,Lisbon, Portugal","Almada, Portugal",-9.1562692,38.7080871,Lisbon,Almada
281337,CR7 Corner – Bar & Bistrô,"R. Comércio, 54,Lisboa, Portugal","Almada, Portugal",-9.1359525,38.7091632,Lisboa,Almada
64423,Solar dos Nunes,"Rua dos Lusiadas 68-72,Lisboa, Portugal","Almada, Portugal",-9.1804324,38.705432,Lisboa,Almada
731774,Chapito à Mesa - Pátio,"Costa do Castelo 7,Lisboa, Portugal","Almada, Portugal",-9.1339526,38.7115896,Lisboa,Almada
286371,Lábios de Mosto,"R. da Oliveira ao Carmo, 47,Lisboa, Portugal","Almada, Portugal",-9.1418927,38.7128109,Lisboa,Almada
485867,Maria Xica brunch e tapas,"Av. Primeiro de Maio, 24,Caldas da Rainha, Portugal","Caldas da Rainha, Portugal",-9.1392839,39.406773,Caldas da Rainha,Caldas da Rainha
807228,Ti' Ascenção,"Rua Dom João II - 41,Caldas da Rainha, Portugal","Caldas da Rainha, Portugal",-9.14680435,39.4109913,Caldas da Rainha,Caldas da Rainha
214521,Lisbonense,"Av. Dr. Manuel Figueira Freire da Câmara,Caldas da Rainha, Portugal","Caldas da Rainha, Portugal",-9.15190536,39.4034047,Caldas da Rainha,Caldas da Rainha
627771,Funky Sushi Bar,"Rua Júlio César Machado - 3A,Caldas da Rainha, Portugal","Caldas da Rainha, Portugal",-9.1329062,39.4072516,Caldas da Rainha,Caldas da Rainha
805620,A Canastra,"R. Antiga Estr. Real 34,Óbidos, Portugal","Caldas da Rainha, Portugal",-9.15892995,39.35630815,Óbidos,Caldas da Rainha
566951,Pátio d'lagoa,"Aldeia dos Pescadores lote 19,Vau, Portugal","Caldas da Rainha, Portugal",-9.21117878,39.3645134,Vau,Caldas da Rainha
64624,Maria Batata,"Rua das Poças, Arelho,Óbidos, Portugal","Caldas da Rainha, Portugal",-9.19055924,39.38353997,Óbidos,Caldas da Rainha
500947,Cobalt Restaurant,"Hotel Evolutee - Cabeço da Serra - Obidos,Vau, Portugal","Caldas da Rainha, Portugal",-9.21117878,39.3645134,Vau,Caldas da Rainha
481579,Book & Cook,"R. de Dom João de Ornelas,Óbidos, Portugal","Caldas da Rainha, Portugal",-9.15503997,39.36085262,Óbidos,Caldas da Rainha
64874,Maratona,"Praça 25 de Abril - 15,Caldas da Rainha, Portugal","Caldas da Rainha, Portugal",-8.98158358,39.54811026,Caldas da Rainha,Caldas da Rainha
64860,Alcaide,"Rua Direita - 60,Óbidos, Portugal","Caldas da Rainha, Portugal",-9.157482,39.3612867,Óbidos,Caldas da Rainha
64623,Villa Restaurant & Terrace Bar,"R. Padre Nunes Tavares - 6,Óbidos, Portugal","Caldas da Rainha, Portugal",-9.15627054,39.36180723,Óbidos,Caldas da Rainha
676865,Merkado - Na Lagoa,"Aldeia dos Pescadores - Bom Sucesso,Óbidos, Portugal","Caldas da Rainha, Portugal",-9.23854923,39.42570496,Óbidos,Caldas da Rainha
585153,Kabuki Sushi,"Rua Dr. Francisco Sa Carneiro 12,Caldas da Rainha, Portugal","Caldas da Rainha, Portugal",-9.1382193,39.4037919,Caldas da Rainha,Caldas da Rainha
805623,Rodízio d'Óbidos,"R. Manuel Teotónio,Usseira, Portugal","Caldas da Rainha, Portugal",-9.15351522,39.32429405,Usseira,Caldas da Rainha
725979,Alma D'Sal,"Praia Rio Cortiço,Óbidos, Portugal","Caldas da Rainha, Portugal",-9.15713787,39.36206818,Óbidos,Caldas da Rainha
741451,Club House West Cliffs,"Estrada do Rio Cortiço 4 - Obidos,Vau, Portugal","Caldas da Rainha, Portugal",-9.15771,39.3596168,Vau,Caldas da Rainha
727246,Madok,"Rua Josefa d´Óbidos 11,Óbidos, Portugal","Caldas da Rainha, Portugal",-9.15771899,39.36009181,Óbidos,Caldas da Rainha
209637,Lounge,"R. Josefa de Óbidos 24,Óbidos, Portugal","Caldas da Rainha, Portugal",-9.1289968,38.7201919,Óbidos,Caldas da Rainha
500961,The Legend Restaurant,"Hotel Evolutee - Cabeço da Serra - Obidos,Óbidos, Portugal","Caldas da Rainha, Portugal",-9.15713787,39.36206818,Óbidos,Caldas da Rainha
281377,Pousada de Óbidos,"Paço Real S/N,Óbidos, Portugal","Caldas da Rainha, Portugal",-9.15713787,39.36206818,Óbidos,Caldas da Rainha
806091,Restaurante Casa Cunha Leal,"R. Eng. Cunha Leal 1,Alcaide, Portugal","Fundão, Portugal",-9.11121657,38.75389044,Alcaide,Fundão
806191,Epicentro,"R. António Augusto de Aguiar 108,Covilhã, Portugal","Fundão, Portugal",-7.5040676,40.2799081,Covilhã,Fundão
65134,O Alambique,"Tv. da Estrada Nacional 18,Fundão, Portugal","Fundão, Portugal",-7.6212106,40.1316691,Fundão,Fundão
635525,Restaurante Hermínia,"Av. da Liberdade 123,Fundão, Portugal","Fundão, Portugal",-9.1657115,38.6259137,Fundão,Fundão
742945,Monreal,"6200-305,  Estrada Nacional 230, Meia Légua nº48,Covilhã, Portugal","Fundão, Portugal",-7.51126648,40.26545808,Covilhã,Fundão
802344,Montes Herminios,"6200-219,Covilhã, Portugal","Fundão, Portugal",-7.50133657,40.28100586,Covilhã,Fundão
800352,OllhÁ Brasa,"R. do Sr. dos Emigrantes,Valverde, Portugal","Fundão, Portugal",-8.71952421,41.66372607,Valverde,Fundão
542603,Casa das Muralhas,"R. Pedro Álvares Cabral, 5,Covilhã, Portugal","Fundão, Portugal",-7.5070078,40.2810307,Covilhã,Fundão
379857,Alkimya,"Av. Frei Heitor Pinto N 1,Covilhã, Portugal","Fundão, Portugal",-7.5046207,40.2829946,Covilhã,Fundão
725263,Tomás,"Rua General Humberto Delgado Nº64, Canhoso,Covilhã, Portugal","Fundão, Portugal",-7.4815111,40.2943364,Covilhã,Fundão
711197,G-Treze Restaurante,"Alameda da Europa - Edifício Atlântico - Lote 3 - Loja A,Covilhã, Portugal","Fundão, Portugal",-7.49916954,40.27301541,Covilhã,Fundão
737101,Francesinhas & Companhia,"Av. Frei Heitor Pinto 22,Covilhã, Portugal","Fundão, Portugal",-7.508451,40.2854444,Covilhã,Fundão
800599,Restaurante Medieval,"6200-324,Covilhã, Portugal","Fundão, Portugal",-7.50326014,40.28264999,Covilhã,Fundão
632463,Taberna A Laranjinha,"R. Primeiro de Dezembro 10,Covilhã, Portugal","Fundão, Portugal",-7.37803048,40.37658107,Covilhã,Fundão
617905,Hamburgueria Beirã,"R. de São Salvador 6A,Covilhã, Portugal","Fundão, Portugal",-7.503717,40.2830157,Covilhã,Fundão
730745,Monumental,"R. José Ramalho 109,Covilhã, Portugal","Fundão, Portugal",-7.506025,40.278008,Covilhã,Fundão
418015,Pousada da Serra da Estrela,"Estrada Nacional 339 - Penhas da Saúde,Covilhã, Portugal","Fundão, Portugal",-7.64291703,40.40029507,Covilhã,Fundão
753458,Restaurante Cardo,"Quinta da Deserta e Malina,,Évora, Portugal","Évora, Portugal",-7.90960217,38.57098389,Évora,Évora
606089,Tempero & Prosa,"R. Miguel Bombarda 74,Évora, Portugal","Évora, Portugal",-7.9058462,38.5703939,Évora,Évora
719425,Lombardo,"Largo de Severim de Faria, nº1,Évora, Portugal","Évora, Portugal",-7.9121433,38.5746878,Évora,Évora
754210,1556 Restaurante & Bar,"Largo da Porta de Moura 28,Évora, Portugal","Évora, Portugal",-7.905489,38.5703924,Évora,Évora
753923,Diboa Hamburgueria & Restaurante,"R. Bento de Jesus Caraça 33,Évora, Portugal","Évora, Portugal",-7.89771099,38.57517822,Évora,Évora
696895,Hibrido,"R. de Serpa Pinto 34,Évora, Portugal","Évora, Portugal",-7.9111624,38.5709308,Évora,Évora
726836,Restaurante Dualidade,"Largo da Porta de Moura,Évora, Portugal","Évora, Portugal",-7.90570593,38.57094574,Évora,Évora
806010,SBO Sabores e Livros,"R. das Alcaçarias 1,Évora, Portugal","Évora, Portugal",-7.9078691,38.5745735,Évora,Évora
659359,Moinho do Cu Torto,"R. de Santo André 2,Évora, Portugal","Évora, Portugal",-7.58768106,38.84292479,Évora,Évora
755309,The Noble Bistrô,"R. da Freiria de Baixo 16,Évora, Portugal","Évora, Portugal",-7.905548,38.5717866,Évora,Évora
742926,Alkimia Wine Lounge,"Avenida Doutor Francisco Barahona - 6D,Évora, Portugal","Évora, Portugal",-7.90748421,38.56463847,Évora,Évora
206211,Alkimia Madeirense,"Av. Dr. Francisco Barahona Nº6D Direito,Évora, Portugal","Évora, Portugal",-7.90748421,38.56463847,Évora,Évora
452775,Sabores do Alentejo,"R. da Cerca Nova,Évora, Portugal","Évora, Portugal",-7.95090785,41.4832189,Évora,Évora
805980,Restaurante Cenoura-Brava,"Quinta do Santo,Évora, Portugal","Évora, Portugal",-7.90960217,38.57098389,Évora,Évora
750031,Cavalariça Évora,"R. Augusto Filipe Simões, 9,Évora, Portugal","Évora, Portugal",-7.9076567,38.57324125,Évora,Évora
744171,Aromas do Campo,"Alcarcova de Baixo 13,Évora, Portugal","Évora, Portugal",-7.9087359,38.5707454,Évora,Évora
273429,Loios - Pousada Convento Évora,"Largo do Conde de Vila Flor,Évora, Portugal","Évora, Portugal",-7.90739835,38.57217605,Évora,Évora
64599,Degust'AR,"Rua Cândido dos Reis - 72,Évora, Portugal","Évora, Portugal",-7.91305211,38.57464472,Évora,Évora
546169,Adega da Talha Velha,"R. Romão Ramalho 56,Évora, Portugal","Évora, Portugal",-7.9102572,38.5689777,Évora,Évora
630899,Mr Pickwick,"Alcárcova de Cima 3,Évora, Portugal","Évora, Portugal",-7.90914246,38.57134575,Évora,Évora
562909,O Trovador,"R. da Mostardeira N°4,Évora, Portugal","Évora, Portugal",-7.91215638,38.57445577,Évora,Évora
733312,Asian Food Palacio Dourado,"R. do Raimundo 120,Évora, Portugal","Évora, Portugal",-7.912589,38.568105,Évora,Évora
64831,Restaurante Típico Guião,"Rua da República - 81,Évora, Portugal","Évora, Portugal",-7.9081815,38.5695294,Évora,Évora
277655,TascaTosca & Wine Restaurant,"Rua Alcárcova de Baixo, 53,Évora, Portugal","Évora, Portugal",-7.9082511,38.5703053,Évora,Évora
749685,Nã T'acho Restaurante Atipico,"R. da Misericórdia 9,Évora, Portugal","Évora, Portugal",-7.906121,38.5708696,Évora,Évora
802440,HOWM Évora,"Av. de São Sebastião 1,Évora, Portugal","Évora, Portugal",-7.9162506,38.5697029,Évora,Évora
746873,Adfa,"R. dos Penedos 10C,Évora, Portugal","Évora, Portugal",-7.91458971,38.57165197,Évora,Évora
660703,Tragos e Condutos,"Alcarcova de Baixo 35,Évora, Portugal","Évora, Portugal",-7.9084886,38.5704865,Évora,Évora
201809,5amêndoas Restaurante,"R. Diana de Liz 5,Évora, Portugal","Évora, Portugal",-7.9122962,38.5641613,Évora,Évora
487475,Taskafina,"R. dos Apóstolos 10,Évora, Portugal","Évora, Portugal",-7.9128828,38.5740698,Évora,Évora
717060,Tapas ou Destapas-ÉVORA,"R. de Serpa Pinto 141,Évora, Portugal","Évora, Portugal",-7.9134152,38.5704978,Évora,Évora
566285,A Bruxa d'Évora,"R. Cinco de Outubro 86,Évora, Portugal","Évora, Portugal",-8.51187262,41.1610935,Évora,Évora
742594,Franguito da Guia,"Av. de São Sebastião 25,Évora, Portugal","Évora, Portugal",-7.9183878,38.5687035,Évora,Évora
579195,Piparoza - Boutique Bar,"Alcárcova de Baixo - 23,Évora, Portugal","Évora, Portugal",-7.90859019,38.57046248,Évora,Évora
804717,Sé Catedral - Restaurant & Cocktail Bar,"R. Chã 38,Porto, Portugal","Porto, Portugal",-8.6129156,41.1457566,Porto,Porto
499033,Coupage,"Tv. de Cedofeita 51,Porto, Portugal","Porto, Portugal",-8.6154151,41.1498487,Porto,Porto
695771,Domo,"Rua de Fernandes Tomás 928,Porto, Portugal","Porto, Portugal",-8.6093893,41.1506685,Porto,Porto
756634,Gastro by Elemento,"R. Maria Adelaide Freitas Gonçalves 13,Porto, Portugal","Porto, Portugal",-8.58819205,41.16401385,Porto,Porto
348107,Cacau Wine Terrace,"R. Dominguez Alvarez, 44,Porto, Portugal","Porto, Portugal",-8.64734801,41.15991807,Porto,Porto
701737,Brutt Champagnaria Gastrobar,"Largo de Mompilher 1,Porto, Portugal","Porto, Portugal",-8.6129334,41.15005125,Porto,Porto
752668,Pátio 44,"Passeio de São Lázaro 44,Porto, Portugal","Porto, Portugal",-8.6023321,41.1463652,Porto,Porto
216629,éLeBê Centro,"Rua da Conceição 94,Porto, Portugal","Porto, Portugal",-8.6143918,41.1499935,Porto,Porto
202419,RIB Beef & Wine - Porto,"Praça Ribeira 1,Porto, Portugal","Porto, Portugal",-8.61305625,41.14060435,Porto,Porto
805740,"Arts Bistrô - Food, Cocktails, Terrace & Live Music","Av. de Rodrigues de Freitas 340,Porto, Portugal","Porto, Portugal",-8.6044868,41.1454215,Porto,Porto
735589,Duello,"R. do Bonjardim 233,Porto, Portugal","Porto, Portugal",-8.609512,41.1489378,Porto,Porto
708357,Roma,"R. de Santo Ildefonso 310,Porto, Portugal","Porto, Portugal",-8.6022507,41.1469064,Porto,Porto
661887,Restaurante OM - Ordem dos Médicos,"R. Delfim Maia 405,Porto, Portugal","Porto, Portugal",-8.6105785,41.1722984,Porto,Porto
755954,Asia Connection,"Rua da Fábrica 81,Porto, Portugal","Porto, Portugal",-8.613454,41.1474851,Porto,Porto
737972,Bulas Wine House ,"Cais das Pedras 13,Porto, Portugal","Porto, Portugal",-8.61031818,41.15015411,Porto,Porto
744611,Maria Morcona,"Rua dos Bragas 92,Porto, Portugal","Porto, Portugal",-8.6146842,41.1528546,Porto,Porto
735373,Mino's Pizza São João,"Estr. da Circunvalação 7592c,Porto, Portugal","Porto, Portugal",-8.61892935,41.18184465,Porto,Porto
739836,Eleven Lab - Downtown,"R. de José Falcão 138,Porto, Portugal","Porto, Portugal",-8.61410838,41.1493282,Porto,Porto
722550,Novo Oporto,"Rua da Boavista 4,Porto, Portugal","Porto, Portugal",-8.06020253,41.23530184,Porto,Porto
522579,Thamel Restaurant,"Rua da Picaria 25,Porto, Portugal","Porto, Portugal",-8.6130302,41.1488726,Porto,Porto
756331,Ólume,"Rua do Almada 426,Porto, Portugal","Porto, Portugal",-8.6120383,41.1507432,Porto,Porto
738737,Quattro Ristorante ,"Rua da Fábrica 53,Porto, Portugal","Porto, Portugal",-8.6130461,41.147409,Porto,Porto
371313,Gion,"R. do Comércio do Porto, 197,Porto, Portugal","Porto, Portugal",-8.6157584,41.1424034,Porto,Porto
807743,Assador Portuense,"Tv. de Cedofeita 20A,Porto, Portugal","Porto, Portugal",-8.6160293,41.1496654,Porto,Porto
803014,A Regateira Gastrobar,"Rua de Costa Cabral 1998,Porto, Portugal","Porto, Portugal",-8.5869119,41.1734895,Porto,Porto
746520,Honolulu- Food & Cocktails,"Praça de Carlos Alberto 46,Porto, Portugal","Porto, Portugal",-8.61602835,41.14776205,Porto,Porto
718754,Biferia - Clérigos,"R. do Conde de Vizela 38, 4050-639,Porto, Portugal","Porto, Portugal",-8.613529,41.1464765,Porto,Porto
289805,Egoista Tapas Bar,"Rua de Costa Cabral, 2121,Porto, Portugal","Porto, Portugal",-8.5866286,41.1745926,Porto,Porto
630269,Parrilhita,"Rua Doutor Ricardo Jorge - 64,Porto, Portugal","Porto, Portugal",-8.6117583,41.1504151,Porto,Porto
808286,Estômago,"R. dos Mercadores 80,Porto, Portugal","Porto, Portugal",-8.6131284,41.1416924,Porto,Porto
743322,Han Table Barbecue - Porto Store,"Rua do Almada - 267,Porto, Portugal","Porto, Portugal",-8.6121782,41.1489915,Porto,Porto
651555,eMotivo,"Rua do Rosário 124,Porto, Portugal","Porto, Portugal",-8.620782,41.1494363,Porto,Porto
666533,P4 na Baixa,"R. de Sá de Noronha 61,Porto, Portugal","Porto, Portugal",-8.615256,41.147827,Porto,Porto
804437,A Cervejaria by O Caçula Group,"R. de Cedofeita 50,Porto, Portugal","Porto, Portugal",-8.6163953,41.1492742,Porto,Porto
720045,Bugo Art Burguers,"Rua de Miguel Bombarda 598,Porto, Portugal","Porto, Portugal",-8.6240372,41.1492273,Porto,Porto
291409,Casa Rocha - comes & bebes,"R. da Sra. da Luz 424,Porto, Portugal","Porto, Portugal",-8.6778064,41.1525027,Porto,Porto
753438,Fauno,"R. Estreita dos Lóios 5,Porto, Portugal","Porto, Portugal",-8.6129296,41.1454716,Porto,Porto
804142,Través,"R. São Pedro de Miragaia,Porto, Portugal","Porto, Portugal",-8.61984955,41.14362904,Porto,Porto
754235,Must,"Rua do Almada 385,Porto, Portugal","Porto, Portugal",-8.6121295,41.1504312,Porto,Porto
66803,Palatium -  Porto,"Estrada Nacional 108, 206,Porto, Portugal","Porto, Portugal",-8.57337515,41.14380615,Porto,Porto
806185,Maynard's Burguer Boavista,"R. 15 de Novembro 75,Porto, Portugal","Porto, Portugal",-8.6331122,41.159398,Porto,Porto
804363,Granno Risoteria,"R. do Comércio do Porto 209,Porto, Portugal","Porto, Portugal",-8.6155875,41.1424567,Porto,Porto
756051,Grill It,"Passeio de São Lázaro 51,Porto, Portugal","Porto, Portugal",-8.6021405,41.1464196,Porto,Porto
669231,AddVerso Restaurant & Bar,"Rua do Heroísmo 235/237,Porto, Portugal","Porto, Portugal",-8.5934137,41.1462788,Porto,Porto
737825,Zapata by Chakall,"R. de Cândido dos Reis,Porto, Portugal","Porto, Portugal",-8.61385678,41.147293,Porto,Porto
730646,Flame BH Concept,"R. de Diogo Botelho, 1882,Porto, Portugal","Porto, Portugal",-8.6721022,41.15451375,Porto,Porto
608253,Tapas & Destapas,"Rua de Trás 27,Porto, Portugal","Porto, Portugal",-8.6128931,41.1456894,Porto,Porto
805089,Cervejaria Parada 95,"Rua da Conceição 26,Porto, Portugal","Porto, Portugal",-8.6135425,41.1500027,Porto,Porto
437257,Mundo,"Rua da Picaria 58,Porto, Portugal","Porto, Portugal",-8.6129183,41.1493713,Porto,Porto
66815,Casa Virtude,"Passeio das Virtudes 33,Porto, Portugal","Porto, Portugal",-8.6181831,41.1438839,Porto,Porto
748240,YOAM - Vietnamese Bread & Boba,"Rua do Almada,Porto, Portugal","Porto, Portugal",-8.61208425,41.1503611,Porto,Porto
263871,Torreão restaurante|bar,"R. das Virtudes 37,Porto, Portugal","Porto, Portugal",-8.5591895,41.06484032,Porto,Porto
800239,Casa Pereira,"R. de Cimo de Vila 64,Porto, Portugal","Porto, Portugal",-8.40401225,41.2442474,Porto,Porto
436203,8Oitenta,"R. de Ciríaco Cardoso 473,Porto, Portugal","Porto, Portugal",-8.6510931,41.1607717,Porto,Porto
742986,Porta Oito Petiscos & Bar,"Rua de Miragaia 8,Porto, Portugal","Porto, Portugal",-8.61894108,41.14189409,Porto,Porto
716826,Oporto Bella Margherita,"R. de Coelho Neto 7,Porto, Portugal","Porto, Portugal",-8.60075592,41.14841213,Porto,Porto
487795,Have a Bite,"Rua dos Caldeireiros 69,Porto, Portugal","Porto, Portugal",-8.61264847,41.14516314,Porto,Porto
566347,Tapas N'Friends Coliseu,"Rua Passos Manuel 208,Porto, Portugal","Porto, Portugal",-8.605093,41.1465748,Porto,Porto
728115,Jardineiro,"Rua do Almada 609,Porto, Portugal","Porto, Portugal",-8.61211866,41.1524651,Porto,Porto
718642,Costume Bistrô Bonjardim,"R. do Bonjardim 119,,Porto, Portugal","Porto, Portugal",-8.6095157,41.1474467,Porto,Porto
490117,Salve Simpatia Porto,"Rua da Picaria 89,Porto, Portugal","Porto, Portugal",-8.6130228,41.1496122,Porto,Porto
806843,Wine Lover's,"Av. Gustavo Eiffel 272,Porto, Portugal","Porto, Portugal",-8.6087011,41.1411336,Porto,Porto
572285,Pizza BX - Eat & Drinks,"Praça D. Filipa de Lencastre Nº90,Porto, Portugal","Porto, Portugal",-8.61584974,41.14805815,Porto,Porto
468713,Nogueira's Porto,"R. de Ceuta 23,Porto, Portugal","Porto, Portugal",-8.6135333,41.1481899,Porto,Porto
665733,Yakuza by Olivier - Porto,"Av. dos Aliados 151,Porto, Portugal","Porto, Portugal",-8.6114715,41.1484088,Porto,Porto
460643,Restaurante Elemento,"Rua do Almada 51,Porto, Portugal","Porto, Portugal",-8.6122433,41.1465183,Porto,Porto
581415,Guilty by Olivier Porto,"Praceta Adelino Amaro da Costa,Porto, Portugal","Porto, Portugal",-8.6265517,41.1554669,Porto,Porto
800501,TAB - Take a Break,"Rua de Miguel Bombarda 418,Porto, Portugal","Porto, Portugal",-8.6219156,41.1495261,Porto,Porto
800541,Trama,"R. do Morgado de Mateus 9,Porto, Portugal","Porto, Portugal",-8.601686,41.1465751,Porto,Porto
283373,Tábua Rasa,"Rua da Picaria, 68,Porto, Portugal","Porto, Portugal",-8.6129193,41.1494959,Porto,Porto
756234,Camilo Restaurante,"Rua do Almada 378,Porto, Portugal","Porto, Portugal",-8.6120554,41.1499818,Porto,Porto
803074,Serra Nossa,"Rua da Natária 101,Porto, Portugal","Porto, Portugal",-8.6239411,41.1674125,Porto,Porto
462453,KOB by Olivier - Porto,"Rua Conde de Vizela, 149,Porto, Portugal","Porto, Portugal",-8.6135059,41.1473284,Porto,Porto
64556,Portucale,"Rua da Alegria 598 -14º,Porto, Portugal","Porto, Portugal",-8.6015048,41.3033176,Porto,Porto
714870,Popina,"R. de Ceuta, 73,Porto, Portugal","Porto, Portugal",-8.6140556,41.1482081,Porto,Porto
64785,Buri,"Praça do Bom Sucesso - 160,Porto, Portugal","Porto, Portugal",-8.6292758,41.1562951,Porto,Porto
674395,Rio's Tapas & Bar,"R. do Duque de Loulé 185/187,Porto, Portugal","Porto, Portugal",-8.6047522,41.1446794,Porto,Porto
544915,VietView - Porto,"Rua de Cedofeita 502,Porto, Portugal","Porto, Portugal",-8.61851467,41.15374266,Porto,Porto
352051,Casa Aberta Open Bar Food House,"R. do Padre Luís Cabral, 1080,Porto, Portugal","Porto, Portugal",-8.6734112,41.1499425,Porto,Porto
737125,MBH Trindade,"Rua de Camões 79,Porto, Portugal","Porto, Portugal",-8.6138548,41.1420304,Porto,Porto
465411,7 Francesinhas,"Rua do Breiner, 435,Porto, Portugal","Porto, Portugal",-8.62247289,41.15032032,Porto,Porto
364005,Elebê Entreparedes,"Rua de Entreparedes, 37,Porto, Portugal","Porto, Portugal",-8.6055404,41.1455321,Porto,Porto
339219,MISTU restaurant & bar,"R. do Comércio do Porto 161,Porto, Portugal","Porto, Portugal",-8.6161519,41.1422522,Porto,Porto
741852,Ilícito,"Rua do Almada - 224,Porto, Portugal","Porto, Portugal",-8.6121118,41.148307,Porto,Porto
739010,Belos Aires,"R. de José Falcão 115,Porto, Portugal","Porto, Portugal",-8.6143908,41.1489364,Porto,Porto
728978,Mind The Glass - Wine | Bistrot | Bar ,"Praça de Gomes Teixeira 36,Porto, Portugal","Porto, Portugal",-8.61523088,41.14720962,Porto,Porto
804138,Scarlett Brasserie & Wine Bar,"R. de Avis 10,Porto, Portugal","Porto, Portugal",-8.6132592,41.1476245,Porto,Porto
802142,MO - Maria Odete,"R. do Dr. Ricardo Jorge 67,Porto, Portugal","Porto, Portugal",-8.6119526,41.1502568,Porto,Porto
503695,Chicha - Steakhouse,"Praça Bom Sucesso 74-90,Porto, Portugal","Porto, Portugal",-8.62955305,41.15572206,Porto,Porto
507231,Atrevo,"R. do Morgado de Mateus 49,Porto, Portugal","Porto, Portugal",-8.6011142,41.1467505,Porto,Porto
542033,Essência das Tapas Porto,"Estrada da Circunvalação 10262,Porto, Portugal","Porto, Portugal",-8.6292009,41.1797365,Porto,Porto
739100,Sálvia Restaurante,"R. de 5 de Outubro 349,Porto, Portugal","Porto, Portugal",-8.632217,41.1614396,Porto,Porto
214599,Picota - A Mesa do Largo,"Largo São Domingos 56,Porto, Portugal","Porto, Portugal",-8.6148975,41.1431221,Porto,Porto
693963,"Okra Pizza, Fun & Drinks","R. de Adolfo Casais Monteiro 94,Porto, Portugal","Porto, Portugal",-8.6228436,41.149192,Porto,Porto
805214,Peixe no Mercado,"R. Formosa 322,Porto, Portugal","Porto, Portugal",-8.607462,41.1487855,Porto,Porto
802454,Pizzaria Paulista - Porto,"Av. de Fernão de Magalhães 668,Porto, Portugal","Porto, Portugal",-8.5949214,41.1556529,Porto,Porto
714906,Real by Casa da Calçada,"R. do Bonjardim 185,Porto, Portugal","Porto, Portugal",-8.60948259,41.1478973,Porto,Porto
561107,Soundwich,"Av. do Parque 595,Porto, Portugal","Porto, Portugal",-48.83902658,-21.74540702,Porto,Porto
292363,Trásca,"Rua de Trás,16,Porto, Portugal","Porto, Portugal",-8.6126666,41.145763,Porto,Porto
290459,Sonetos,"Rua de Camões, 746,Porto, Portugal","Porto, Portugal",-8.6632632,41.1730532,Porto,Porto
745163,Nhac Nhac,"R. do Ouro 274,Porto, Portugal","Porto, Portugal",-8.6507008,41.1480887,Porto,Porto
750413,TOBU_restaurant_,"R. de Ceuta 23,Porto, Portugal","Porto, Portugal",-8.6135333,41.1481899,Porto,Porto
203433,Two:Su.shi,"Rua da Picaria 30,Porto, Portugal","Porto, Portugal",-8.6129252,41.1489507,Porto,Porto
718356,O Solar do Pátio,"R. de Mouzinho da Silveira 64,Porto, Portugal","Porto, Portugal",-8.6143466,41.1419718,Porto,Porto
728644,Tokkotai,"R. do Comércio do Porto 144,Porto, Portugal","Porto, Portugal",-8.6156478,41.1423914,Porto,Porto
739878,Ristorante Toscano,"R. do Dr. Carlos Cal Brandão 22,Porto, Portugal","Porto, Portugal",-8.6247333,41.1575372,Porto,Porto
732623,Restaurante Invicto,"Av. dos Aliados 211,Porto, Portugal","Porto, Portugal",-8.611391,41.1489895,Porto,Porto
807357,Rei da Gula,"R. de Ceuta 63,Porto, Portugal","Porto, Portugal",-8.6139852,41.148202,Porto,Porto
283591,Flow Restaurant & Bar,"Rua da Conceição, 63/65,Porto, Portugal","Porto, Portugal",-8.6145332,41.1498986,Porto,Porto
624161,Restaurante Viva Porto,"Rua Monchique - 35/41 - NEYA Hotel,Porto, Portugal","Porto, Portugal",-8.624933,41.1448291,Porto,Porto
64406,Costume Bistrô,"travessa dos congregados n 17,Porto, Portugal","Porto, Portugal",-8.6102433,41.1469811,Porto,Porto
583911,La Mezzanine,"Av. dos Aliados 151,Porto, Portugal","Porto, Portugal",-8.6114715,41.1484088,Porto,Porto
653277,Anje Cafe,"R. de Paulo da Gama, 4150,Porto, Portugal","Porto, Portugal",-8.65871369,41.14836955,Porto,Porto
700477,Cantinho dos Bragança restaurante,"Rua da Alegria nº26,Porto, Portugal","Porto, Portugal",-8.6002516,41.1443391,Porto,Porto
803595,El Viajero Porto,"R. de Ceuta 88,Porto, Portugal","Porto, Portugal",-8.6142618,41.1484132,Porto,Porto
800399,Taberna Alecrim - Casa de Fados ,"Rua da Constituição 423,Porto, Portugal","Porto, Portugal",-8.603274,41.1616475,Porto,Porto
805693,Jangal Gastrobar,"R. de Dom Manuel II 178,Porto, Portugal","Porto, Portugal",-8.6236076,41.1480815,Porto,Porto
746411,Taberna Asiática,"R. São Bartolomeu 20,Porto, Portugal","Porto, Portugal",-8.6769563,41.151115,Porto,Porto
748783,Lucrécia,"R. do Ribeirinho 330,Porto, Portugal","Porto, Portugal",-8.67681,41.1567528,Porto,Porto
740207,Sài Gòn Restaurante Vietnamita,"R. Correia de Sá 15,Porto, Portugal","Porto, Portugal",-8.6587282,41.1625859,Porto,Porto
64687,Ichiban,"Avenida do Brasil - 454,Porto, Portugal","Porto, Portugal",-8.6809955,41.1562182,Porto,Porto
366877,Vaccarum,"Rua de Fernandes Tomás 839,Porto, Portugal","Porto, Portugal",-8.608362,41.1503172,Porto,Porto
202391,Dona Porto,"R. Campo dos Mártires da Pátria 64,Porto, Portugal","Porto, Portugal",-8.6167997,41.1465063,Porto,Porto
748598,Presto Pizza Cedofeita,"R. de Cedofeita 291,Porto, Portugal","Porto, Portugal",-8.6179811,41.15213,Porto,Porto
804074,Hard Rock Cafe Porto,"Rua do Almada 120,Porto, Portugal","Porto, Portugal",-8.6121533,41.1472244,Porto,Porto
512947,Em Canto,"R. Afonso Martins Alho 6,Porto, Portugal","Porto, Portugal",-8.61225814,41.14444781,Porto,Porto
722415,Churrascão Gaúcho,"Av. da Boavista 313,Porto, Portugal","Porto, Portugal",-8.6170158,41.15585351,Porto,Porto
66637,Terra,"Rua do Padrão 103,Porto, Portugal","Porto, Portugal",-8.6797745,41.1566717,Porto,Porto
503417,ClubLife Porto,"R. de Mouzinho da Silveira 197,Porto, Portugal","Porto, Portugal",-8.6127624,41.1439163,Porto,Porto
705937,Vermuteria Gastrobar,"R. de Cândido dos Reis 126,Porto, Portugal","Porto, Portugal",-8.6137777,41.1473989,Porto,Porto
609049,Habitat Terra e Fogo,"R. do Passeio Alegre 350,Porto, Portugal","Porto, Portugal",-8.6653412,41.14802755,Porto,Porto
425971,Praça 63,"Praça Guilherme Gomes Fernandes 63,Porto, Portugal","Porto, Portugal",-8.6149205,41.1478324,Porto,Porto
638081,Caldeireiros,"Rua dos Caldeireiros 139,Porto, Portugal","Porto, Portugal",-8.6133221,41.1453013,Porto,Porto
64797,éLeBê Baixa,"Rua ST. Ildefonso - 118-120,Porto, Portugal","Porto, Portugal",-8.6047135,41.1463117,Porto,Porto
652141,A Fábrica da Picaria brewpub & craftbeer,"Rua da Picaria 72,Porto, Portugal","Porto, Portugal",-8.6129304,41.1495429,Porto,Porto
723090,Santo Pizzaria & Steakhouse,"R. de Santo Ildefonso 45,Porto, Portugal","Porto, Portugal",-8.6056053,41.1461963,Porto,Porto
652017,O Caçula brunch & dinner Porto,"Praça de Carlos Alberto, 47,Porto, Portugal","Porto, Portugal",-8.61602835,41.14776205,Porto,Porto
361239,Mood Restaurant & Sushi Bar,"Rua da Picaria 93,Porto, Portugal","Porto, Portugal",-8.61304963,41.14866966,Porto,Porto
368069,Dente-de-Leão,"R. de Dom Manuel II 81,Porto, Portugal","Porto, Portugal",-8.62151733,41.14745129,Porto,Porto
433441,Nonna Piazza,"Praça de Parada Leitão 37,Porto, Portugal","Porto, Portugal",-8.61655937,41.14667727,Porto,Porto
742604,CRU - Culina Rudis Urbanus,"R. de Sá de Noronha 45,Porto, Portugal","Porto, Portugal",-8.6152969,41.1477083,Porto,Porto
807665,Portus Gustus,"Praça de Carlos Alberto 115,Porto, Portugal","Porto, Portugal",-8.615873,41.1477678,Porto,Porto
412783,Restaurante D. Pedro II,"Rua de Santa Catarina 197,Porto, Portugal","Porto, Portugal",-8.6065771,41.1479361,Porto,Porto
801478,Forno Velho,"Rua do Infante D. Henrique 1,Porto, Portugal","Porto, Portugal",-8.6134907,41.14135791,Porto,Porto
751770,Na Muche,"R. de Cedofeita 243,Porto, Portugal","Porto, Portugal",-8.6175434,41.1513233,Porto,Porto
752442,Umami,"Av. dos Aliados 329,Porto, Portugal","Porto, Portugal",-8.611216,41.14908465,Porto,Porto
725638,Escama,"R. de Mouzinho da Silveira 203,Porto, Portugal","Porto, Portugal",-8.6127248,41.1439436,Porto,Porto
734513,Campo Alegre 55,"Rua do Campo Alegre 55,Porto, Portugal","Porto, Portugal",-8.6282123,41.1523809,Porto,Porto
677631,Badio Gold,"R. de Sá de Noronha 80, 4050-526,Porto, Portugal","Porto, Portugal",-8.6149511,41.148756,Porto,Porto
64922,Alibi - by Yours Porto,"Rua dos Caldeireiros 135,Porto, Portugal","Porto, Portugal",-8.6132698,41.1453137,Porto,Porto
717011,HP Sushi,"Rua da Alegria 87,Porto, Portugal","Porto, Portugal",-8.52726508,41.1292372,Porto,Porto
804434,Mangá Sushi House,"Praça de Carlos Alberto 47,Porto, Portugal","Porto, Portugal",-8.61602835,41.14776205,Porto,Porto
201031,Galeria do Largo,"Largo São Domingos 45,Porto, Portugal","Porto, Portugal",-8.6149416,41.1429063,Porto,Porto
673735,Auge Porto Restaurante - Porto Palácio,"Av. da Boavista 1269, 19º Andar,Porto, Portugal","Porto, Portugal",-8.6387182,41.1590053,Porto,Porto
689771,Easy at Selina Porto,"R. Das Oliveiras 61,Porto, Portugal","Porto, Portugal",-8.6148766,41.1496525,Porto,Porto
748439,Cocorico,"R. do Duque de Loulé 97,Porto, Portugal","Porto, Portugal",-8.6048509,41.1444519,Porto,Porto
75361,1858 bbGourmet criativo,"R. de Cedofeita 379,Porto, Portugal","Porto, Portugal",-8.6184284,41.1531582,Porto,Porto
672215,Indian Italian restaurant,"Rua do Rosário 60,Porto, Portugal","Porto, Portugal",-8.6205536,41.1483812,Porto,Porto
740596,O Carniceiro,"R. do Ateneu Comercial do Porto 13,Porto, Portugal","Porto, Portugal",-8.607501,41.1479852,Porto,Porto
64889,BH Foz,"Avenida do Brasil 498,Porto, Portugal","Porto, Portugal",-8.6812726,41.156577,Porto,Porto
64957,bbGourmet Maiorca,"Rua de António Cardoso 301,Porto, Portugal","Porto, Portugal",-8.64161522,41.15679834,Porto,Porto
807102,Mal Cozinhado,"R. do Outeirinho 13,Porto, Portugal","Porto, Portugal",-8.4273706,41.2713703,Porto,Porto
66634,Portarossa,"Rua de Côrte Real 289,Porto, Portugal","Porto, Portugal",-8.67671717,41.15674092,Porto,Porto
463897,Ribeira's Restaurante,"R. de Cima do Muro 42,Porto, Portugal","Porto, Portugal",-8.6124654,41.14062425,Porto,Porto
752311,Bubbles & Tapas,"R. de Santo Ildefonso 184,Porto, Portugal","Porto, Portugal",-8.6037159,41.1465275,Porto,Porto
752268,Tiki-Taka Food & Drinks,"Praça D. Filipa de Lencastre 195,Porto, Portugal","Porto, Portugal",-8.6124868,41.1483106,Porto,Porto
720439,Pizzaria Luzzo Boavista,"Av. da Boavista 831,Porto, Portugal","Porto, Portugal",-8.6335268,41.1585198,Porto,Porto
748899,Xico Queijo Cordoaria,"Campo dos Mártires da Pátria 46,Porto, Portugal","Porto, Portugal",-8.6173236,41.1466743,Porto,Porto
559677,Taberna Rio,"Cais da Ribeira 24,Porto, Portugal","Porto, Portugal",-8.61031818,41.15015411,Porto,Porto
725639,O Marmorista,"Rua da Meditação 70,Porto, Portugal","Porto, Portugal",-8.6309723,41.1570456,Porto,Porto
749868,Restaurante Huang Table Barbecue & Hot Pot Porto,"R. de Grijó 44,Porto, Portugal","Porto, Portugal",-8.64817877,41.15531994,Porto,Porto
738224,A Escola by The Artist,"R. da Firmeza 49,Porto, Portugal","Porto, Portugal",-8.6013674,41.1509842,Porto,Porto
725525,RC Restaurante,"Rua do Infante D. Henrique 77-79,Porto, Portugal","Porto, Portugal",-8.6149471,41.140827,Porto,Porto
756937,BBQing Porto,"R. da Boavista 335,Porto, Portugal","Porto, Portugal",-8.6172823,41.1558999,Porto,Porto
276621,À Bolina,"Avenida de Gustavo Eiffel 202, Porto, Portugal,Porto, Portugal","Porto, Portugal",-8.60425395,41.14177012,Porto,Porto
752103,Kaigi,"R. de Eugénio de Castro 266,Porto, Portugal","Porto, Portugal",-8.6479146,41.16315616,Porto,Porto
580307,MXM Food & Drinks,"R. do Ouro 264,Porto, Portugal","Porto, Portugal",-8.6502997,41.1480543,Porto,Porto
737340,Al Mare,"Av. de Dom Carlos I nº 8,Porto, Portugal","Porto, Portugal",-8.670834,41.14760045,Porto,Porto
350617,Almeja,"Rua de Fernandes Tomás 819,Porto, Portugal","Porto, Portugal",-8.6082024,41.150294,Porto,Porto
66673,DOP,"Largo São Domingos 16,Porto, Portugal","Porto, Portugal",-8.6146904,41.1427652,Porto,Porto
66610,bbGourmet Bolhão,"Rua de Fernandes Tomás 764,Porto, Portugal","Porto, Portugal",-8.6074799,41.1504107,Porto,Porto
66810,Casa Vasco,"Rua do Padrão 152,Porto, Portugal","Porto, Portugal",-8.6793527,41.1567935,Porto,Porto
756796,Cervejaria On,"R. Francois Guichard 40,Porto, Portugal","Porto, Portugal",-8.64093684,41.16553633,Porto,Porto
698647,Hamburgueria Suculentu's,"R. de Vale Formoso 237,Porto, Portugal","Porto, Portugal",-8.6120337,41.1674895,Porto,Porto
428845,Pizzaria Luzzo Baixa do Porto,"R. de Mouzinho da Silveira 115,Porto, Portugal","Porto, Portugal",-8.6137521,41.14319,Porto,Porto
513873,Bistrô Flores,"R. das Flores, 27 - PortoBay Hotel,Porto, Portugal","Porto, Portugal",-8.6141981,41.1436852,Porto,Porto
803589,Dote - Porto,"R. do Dr. Ricardo Jorge 4,Porto, Portugal","Porto, Portugal",-8.61106934,41.15054524,Porto,Porto
726414,Caralhau,"Praça dos Poveiros 104,Porto, Portugal","Porto, Portugal",-8.6038217,41.146033,Porto,Porto
713371,Canti - Food & Drinks,"Largo de Mompilher 26,Porto, Portugal","Porto, Portugal",-8.61291068,41.1499107,Porto,Porto
523209,Sagardi Porto,"R. de São João 54,Porto, Portugal","Porto, Portugal",-8.6134735,41.1416149,Porto,Porto
462601,Bartolomeu Bistro and Wine,"R. de Mouzinho da Silveira 228,Porto, Portugal","Porto, Portugal",-8.6127028,41.1437123,Porto,Porto
638597,KOMYUNITI ,"YOTEL Porto - Rua de Gonçalo Cristóvão, 216,Porto, Portugal","Porto, Portugal",-8.6092139,41.1536583,Porto,Porto
677499,Fio d' Azeite,"Hotel Villa Aljustrel - R. Gen. Humberto Delgado 5,Aljustrel, Portugal","Aljustrel, Portugal",-8.1629033,37.8787313,Aljustrel,Aljustrel
806538,Sisu,"R. do Funil 11,Apúlia, Portugal","Barcelos, Portugal",-8.7762598,41.4846948,Apúlia,Barcelos
575207,Restaurante Galliano,"Campo 5 de Outubro,Barcelos, Portugal","Barcelos, Portugal",-8.61895847,41.53153992,Barcelos,Barcelos
546021,Villa Terrazza Ristorante,"Rua do Queimado, 196, Vila Fescainha São Martinho,Barcelos, Portugal","Barcelos, Portugal",-8.63355285,41.5404912,Barcelos,Barcelos
756900,Bira dos Namorados - Barcelos,"R. Padre Alfredo da Rocha Martins 9,Barcelos, Portugal","Barcelos, Portugal",-8.6170917,41.53566579,Barcelos,Barcelos
562135,Manjar do Mar,"R. do Dr. Francisco António Gonçalves 18,Vila de Prado, Portugal","Barcelos, Portugal",-8.4647148,41.5974049,Vila de Prado,Barcelos
730787,KayZen Sushi Bar,"R. da Fabrica do Vouga,Arcozelo, Portugal","Barcelos, Portugal",-8.28141018,40.78115146,Arcozelo,Barcelos
422435,Moinho De Sal,"R. do Facho, 13,Apúlia, Portugal","Barcelos, Portugal",-8.781102,41.4880404,Apúlia,Barcelos
727161,Churrasqueira Portuguesa,"R. Parque Industrial de Marvila,Sequeira, Portugal","Barcelos, Portugal",-8.47706942,41.53193702,Sequeira,Barcelos
612707,Cortesia Cozinha Mediterrânea,"R. da Fábrica 92,Póvoa de Varzim, Portugal","Barcelos, Portugal",-8.76589105,41.38394515,Póvoa de Varzim,Barcelos
746685,Sempiedade Apúlia,"R. do Cónego 87,Apúlia, Portugal","Barcelos, Portugal",-8.7777481,41.483915,Apúlia,Barcelos
64591,Camelo Apúlia,"Rua do Facho Lote 14 Loja 3 - Praia da Apúlia,Apúlia, Portugal","Barcelos, Portugal",-8.7802367,41.4875982,Apúlia,Barcelos
749663,1000 Fronteiras Fortaleza,"Praça Patrão José António Faria Martins nº1,Apúlia, Portugal","Barcelos, Portugal",-7.84099739,37.02412571,Apúlia,Barcelos
380971,Tasquinha O Telheiro Pratinha,"Largo do Dr. Manuel Barbosa, 268,Viatodos, Portugal","Barcelos, Portugal",-8.5618255,41.4534015,Viatodos,Barcelos
745817,Casulo Tapas & Grelhados,"R. Elias Garcia 134,Barcelos, Portugal","Barcelos, Portugal",-8.6112713,41.5368049,Barcelos,Barcelos
341783,Corta Mar,"Av. Marginal Cedovém 481,Apúlia, Portugal","Barcelos, Portugal",-8.7835272,41.49242128,Apúlia,Barcelos
511219,Galo Wine e Tapas,"Largo Guilherme Gomes Fernandes, Nº 115,Barcelinhos, Portugal","Barcelos, Portugal",-8.6322064,41.5123243,Barcelinhos,Barcelos
581291,Gomariz,"Av. Sobral Castelo 76,,Cervães, Portugal","Barcelos, Portugal",-8.5360739,41.5883775,Cervães,Barcelos
383045,Villa Mendo,"R. da Estela 1020,Póvoa de Varzim, Portugal","Barcelos, Portugal",-8.75571798,41.43860859,Póvoa de Varzim,Barcelos
728406,Sushi p'ra Ti!,"R. Dom Afonso Henriques 40,Cantanhede, Portugal","Cantanhede, Portugal",-8.427502,41.5488927,Cantanhede,Cantanhede
448889,Marquês de Marialva,"Largo do Romal 16,Cantanhede, Portugal","Cantanhede, Portugal",-8.4298532,40.2085091,Cantanhede,Cantanhede
737708,Tokay exclusive,"R. 2 799,Espinho, Portugal","Espinho, Portugal",-8.64580275,41.00944,Espinho,Espinho
804642,Encher a Mula,"R. 2,Espinho, Portugal","Espinho, Portugal",-8.64581257,41.0088308,Espinho,Espinho
749593,Conde Real,"R. 62 4500,Espinho, Portugal","Espinho, Portugal",-8.633481,41.0138197,Espinho,Espinho
672657,Howard's Folly,"R. Gen. Norton de Matos,Estremoz, Portugal","Estremoz, Portugal",-7.58111625,38.8414107,Estremoz,Estremoz
728620,O Ermita,"7170-120,Redondo, Portugal","Estremoz, Portugal",-7.54800701,38.64980316,Redondo,Estremoz
709009,Primavera,"Largo Gago Coutinho 11,Vila Viçosa, Portugal","Estremoz, Portugal",-7.41996913,38.77709382,Vila Viçosa,Estremoz
734504,Legacy Winery Restaurant,"Herdade das Servas,São Bento do Ameixial, Portugal","Estremoz, Portugal",-7.65086365,38.84496307,São Bento do Ameixial,Estremoz
806398,Tasquinha do Jota,"Rua 8 de Junho 17,São Bento do Ameixial, Portugal","Estremoz, Portugal",-9.1702414,38.79841971,São Bento do Ameixial,Estremoz
727632,Videira Country,"Herdade da Videira, Orada Borba,Borba, Portugal","Estremoz, Portugal",-7.4568119,38.80329514,Borba,Estremoz
804488,Tasca Zézadas,"R. Humberto Delgado 35,São Lourenço de Mamporcão, Portugal","Estremoz, Portugal",-9.34768695,38.69810724,São Lourenço de Mamporcão,Estremoz
673609,A Cadeia Quinhentista,"Rua Rainha Santa Isabel,Estremoz, Portugal","Estremoz, Portugal",-7.59159216,38.84157076,Estremoz,Estremoz
802725,Kiosk Japonês,"Av. 10 de Junho lote E-1,Borba, Portugal","Estremoz, Portugal",-9.3363671,38.716941,Borba,Estremoz
273435,D. Carlos - Pousada de Vila Viçosa,"Terreiro do Paço,Vila Viçosa, Portugal","Estremoz, Portugal",-7.41668749,38.77740479,Vila Viçosa,Estremoz
733837,Feito ao Bife Steakhouse,"Av. Brasil 118,Figueira da Foz, Portugal",Figueira da Foz,-8.8690774,40.158808,Figueira da Foz,Figueira da Foz
727587,Mensa Ristorante,"R. Lusíadas nº14,Figueira da Foz, Portugal",Figueira da Foz,-8.848313,40.2122822,Figueira da Foz,Figueira da Foz
754098,Pateo Casino Restaurante,"R. Bernardo Lopes,Figueira da Foz, Portugal",Figueira da Foz,-8.86396538,40.14916033,Figueira da Foz,Figueira da Foz
752291,Joia,"R. Maj. Soares Correia 2,Figueira da Foz, Portugal",Figueira da Foz,-8.87711645,40.16487345,Figueira da Foz,Figueira da Foz
688893,Segreti d'Italia - Pinseria,"Tv. do Morim 3,Figueira da Foz, Portugal",Figueira da Foz,-8.8485544,40.149669,Figueira da Foz,Figueira da Foz
750496,SAND Murtinheira Beach,"R. Marecos do Sul,Figueira da Foz, Portugal",Figueira da Foz,-8.89497633,40.20866562,Figueira da Foz,Figueira da Foz
800866,Akaza Sushi ,"R. da Cerâmica 2,Figueira da Foz, Portugal",Figueira da Foz,-8.8617302,40.1607625,Figueira da Foz,Figueira da Foz
716189,Olaias,"Centro de Artes e Espetáculos, R. Abade Pedro 2,Figueira da Foz, Portugal",Figueira da Foz,-8.8597624,40.1522143,Figueira da Foz,Figueira da Foz
726746,A Cantarinha,"Travesssa da rua das Tamargueiras Nº3,Buarcos, Portugal",Figueira da Foz,-8.8813355,40.16735325,Buarcos,Figueira da Foz
747013,Restaurante Amigo,"Av. Dom João Garcia Bacelar 1649,Tocha, Portugal",Figueira da Foz,-8.75311335,40.31616895,Tocha,Figueira da Foz
800723,Pé na Areia,"Av. Brasil,Buarcos, Portugal",Figueira da Foz,-8.87012894,40.15971546,Buarcos,Figueira da Foz
594039,Pizzaria Luzzo Figueira da Foz,"R. Cândido dos Reis n42, Bairro Novo,Figueira da Foz, Portugal",Figueira da Foz,-8.8645111,40.14991285,Figueira da Foz,Figueira da Foz
744933,Amu Te,"Praça de São Tiago 14,Guimarães, Portugal","Guimarães, Portugal",-8.2928644,41.4436407,Guimarães,Guimarães
738159,Pizzaria Orfeu,"Av. Sociedade Musical de Pevidém 518,Guimarães, Portugal","Guimarães, Portugal",-8.35322837,41.42289224,Guimarães,Guimarães
723667,Norma,"R. Dr. José Sampaio 35,Guimarães, Portugal","Guimarães, Portugal",-8.29038657,41.44264633,Guimarães,Guimarães
665805,Hotel de Guimarães - Restaurante Dª Maria,"R. Eduardo Manuel de Almeida,Guimarães, Portugal","Guimarães, Portugal",-8.29614765,41.43574052,Guimarães,Guimarães
721836,Flower Eat,"Rua Padre João Moreira Leite,Prazins (Santa Eufémia), Portugal","Guimarães, Portugal",-8.31523645,41.48830955,Prazins (Santa Eufémia),Guimarães
603495,Hool Restaurante,"Rua de Santa Maria, Largo da Oliveira 14,Guimarães, Portugal","Guimarães, Portugal",-8.3311299,41.3949583,Guimarães,Guimarães
593933,Pizzaria Luzzo Guimarães,"Largo do Toural 82,Guimarães, Portugal","Guimarães, Portugal",-8.2959414,41.44205665,Guimarães,Guimarães
751300,Soul Street Burger,"Alameda de São Dâmaso 107,Guimarães, Portugal","Guimarães, Portugal",-8.2926804,41.4418581,Guimarães,Guimarães
745290,Iguarias do Castelo,"Praceta Dr Francisco Sá Carneiro BL14 N, 11,Guimarães, Portugal","Guimarães, Portugal",-8.5621442,40.9248401,Guimarães,Guimarães
570299,Vira Bar,"R. do Bom Viver, 26,Guimarães, Portugal","Guimarães, Portugal",-8.27826472,41.389717,Guimarães,Guimarães
664603,Paparico's Restaurante,"Av. Dom João IV 612G,Guimarães, Portugal","Guimarães, Portugal",-8.2919455,41.436596,Guimarães,Guimarães
343511,Casa Amarela,"R. de Donães 16,Guimarães, Portugal","Guimarães, Portugal",-8.29312758,41.44248121,Guimarães,Guimarães
756087,Cinecitta,"Praça de São Tiago,Guimarães, Portugal","Guimarães, Portugal",-8.29333998,41.44318141,Guimarães,Guimarães
697643,O Sítio da Maria,"R. Prof. Abel Salazar 412,Guimarães, Portugal","Guimarães, Portugal",-8.3017826,41.4403954,Guimarães,Guimarães
720367,O Cantinho da Tia Carla,"R. Cmte. João de Paiva Faria Leite Brandão 2637,Guimarães, Portugal","Guimarães, Portugal",-8.29625005,41.41238835,Guimarães,Guimarães
544393,Pausa Terrace,"Clube de Ténis de Guimarães-Rua Dr. Prof. Arnaldo Sampaio Quinta da Feijoeira,Guimarães, Portugal","Guimarães, Portugal",-8.25604903,41.40077299,Guimarães,Guimarães
699985,Ramada 1930,"R. da Ramada 52,Guimarães, Portugal","Guimarães, Portugal",-8.2905652,41.44054518,Guimarães,Guimarães
272447,Dona Mafalda - Pousada de Guimarães,"Largo Domingos Leite de Castro,Guimarães, Portugal","Guimarães, Portugal",-8.2788711,41.44354666,Guimarães,Guimarães
804782,Petisqueira Agarimo,"R. da Igreja 22,Guimarães, Portugal","Guimarães, Portugal",-8.32572002,41.49783874,Guimarães,Guimarães
752650,Castas - Petiscaria Moderna,"R. Gravador Molarinho,Guimarães, Portugal","Guimarães, Portugal",-8.29363454,41.44288652,Guimarães,Guimarães
707707,Paraíso 19.95,"R. de Agrelos 521 - Guimarães,S. Jorge de Selho, Portugal","Guimarães, Portugal",-8.3637164,41.43693762,S. Jorge de Selho,Guimarães
803521,Donna Amélia,"Alameda de Rosas Guimarães 250,Caldelas, Portugal","Guimarães, Portugal",-8.3438189,41.4842091,Caldelas,Guimarães
695527,GarfoxFaca,"Galerias Toural, loja 32 - entrada pela Viela da Arrouchela,Guimarães, Portugal","Guimarães, Portugal",-8.29560661,41.44195557,Guimarães,Guimarães
752914,Mircatto - Friends & Food,"R. Pereiras 19 - 4805-534,Sande (São Martinho), Portugal","Guimarães, Portugal",-8.3543633,41.4868624,Sande (São Martinho),Guimarães
714595,Taberna do Camões,"Tv. de Camões 23,Guimarães, Portugal","Guimarães, Portugal",-7.9389702,37.0210057,Guimarães,Guimarães
717726,Só na Brasa,"R. António da Costa Guimarães 3073,Guimarães, Portugal","Guimarães, Portugal",-8.3001196,41.4217626,Guimarães,Guimarães
741096,Quinta da Corredoura - Taberna,"R. da Corredoura,São Torcato, Portugal","Guimarães, Portugal",-8.25626052,41.47467902,São Torcato,Guimarães
741093,Quinta da Corredoura - Restaurante,"R. da Corredoura,São Torcato, Portugal","Guimarães, Portugal",-8.25626052,41.47467902,São Torcato,Guimarães
65191,São Gião,"Avenida Comendador Joaquim de Almeida Freitas, 56,Moreira de Cónegos, Portugal","Guimarães, Portugal",-8.3553983,41.3798969,Moreira de Cónegos,Guimarães
587893,Pevidém 4,"R. São João Baptista 309,Brito, Portugal","Guimarães, Portugal",-8.3638483,41.4476307,Brito,Guimarães
801747,Taberna A Muralha,"R. da Índia 494,Mascotelos, Portugal","Guimarães, Portugal",-8.3096714,41.41969299,Mascotelos,Guimarães
807216,Praça Da Poncha,"Av. da República 412,Caldelas, Portugal","Guimarães, Portugal",-8.3450332,41.4856012,Caldelas,Guimarães
325253,Príncipe Parque,"Rua Joaquim Ferreira Monteiro,Caldelas, Portugal","Guimarães, Portugal",-8.3425029,41.4830481,Caldelas,Guimarães
733529,Forneria da Villa,"R. da Indústria 4805,Ponte, Portugal","Guimarães, Portugal",-8.33336822,41.47452519,Ponte,Guimarães
754633,Taberna das Taipas,"R. Prof. Manuel José Pereira,Caldelas, Portugal","Guimarães, Portugal",-8.35121202,41.4853242,Caldelas,Guimarães
751030,Restaurante Tia Xica,"R. Dr. Guilherme Augusto 1163,Selho (São Cristóvão), Portugal","Guimarães, Portugal",-8.34776799,41.42994932,Selho (São Cristóvão),Guimarães
806289,Ekos Taberna Petisqueira,"Urbanização de São Martinho,Oliveira Santa Maria, Portugal","Guimarães, Portugal",-8.39812479,41.40414348,Oliveira Santa Maria,Guimarães
729002,Marisqueira Novo Mariano,"Largo D. João 12,Macedo de Cavaleiros, Portugal","Macedo de Cavaleiros, Portugal",-6.96004425,41.5402062,Macedo de Cavaleiros,Macedo de Cavaleiros
749035,Pizzaria Romana,"Av. 25 de Abril 297,Mirandela, Portugal","Mirandela, Portugal",-7.1780906,41.483929,Mirandela,Mirandela
521241,Quinta Dona Adelaide,"R. 1 do Bairro do Pomar,Valpaços, Portugal","Mirandela, Portugal",-7.3102027,41.59646035,Valpaços,Mirandela
613925,Terra Quente Restaurante,"R. das Camélias, Nº 9,Valpaços, Portugal","Mirandela, Portugal",-9.3810935,38.7129714,Valpaços,Mirandela
654279,Petiscaki,"R. de Aviz 50,Montemor-o-Novo, Portugal","Montemor o novo, Portugal",-8.21436878,38.64783373,Montemor-o-Novo,Montemor o novo
804627,Poda,"R. Sacadura Cabral 25,Montemor-o-Novo, Portugal","Montemor o novo, Portugal",-8.21506244,38.64944268,Montemor-o-Novo,Montemor o novo
804982,Restaurante Os Netos,"7050,Montemor-o-Novo, Portugal","Montemor o novo, Portugal",-8.22163486,38.64452362,Montemor-o-Novo,Montemor o novo
727150,Sublime Moura,"R. Conselheiro Augusto de Castro 36,Moura, Portugal","Moura, Portugal",-7.4504383,38.14191909,Moura,Moura
696339,Retiro do Ernesto,"R. 1 de Dezembro 28,Moura, Portugal","Moura, Portugal",-7.258164,38.0244818,Moura,Moura
745384,Praça Forte,"R. dos Quartéis,Pomarinho das Cinco Oliveiras, Portugal","Moura, Portugal",-8.52709835,41.48045475,Pomarinho das Cinco Oliveiras,Moura
715768,Foral MDXII - Restaurante & Wine Bar,"Rua da Fonte, 27,Reguengos de Monsaraz, Portugal","Reguengos de Monsaraz, Portugal",-7.38063149,38.45219712,Reguengos de Monsaraz,Reguengos de Monsaraz
561955,Cozinha d'Aboim,"Travessa da Parreira 8,Portel, Portugal","Reguengos de Monsaraz, Portugal",-7.9124573,38.5699497,Portel,Reguengos de Monsaraz
754594,O Prego Do Migas,"Av. dos Bombeiros Voluntários,Seia, Portugal","Seia, Portugal",-7.71049183,40.41340523,Seia,Seia
750123,Roots Restaurante,"R. Principal 5 - Aqua Village Health Resort & Spa,Oliveira do Hospital, Portugal","Seia, Portugal",-7.86166334,40.35971451,Oliveira do Hospital,Seia
652899,Restaurante Olea,"TRAVESSA DOS VALES, 7 - MUSEU DO AZEITE,Bobadela, Portugal","Seia, Portugal",-8.11463711,37.25008503,Bobadela,Seia
734052,Sei Lá - Alternative Food Studio,"Praça da República 26,Seia, Portugal","Seia, Portugal",-7.70208055,40.41975705,Seia,Seia
738875,Casa Da Ponte,"R. do Comércio 3,Sabugueiro, Portugal","Seia, Portugal",-8.63436416,40.16288999,Sabugueiro,Seia
566677,Madre de Água,"Quinta Madre de Água,Gouveia, Portugal","Seia, Portugal",-7.59372377,40.49362564,Gouveia,Seia
352527,Bem Haja - Nelas,"Rua da Restauração, 5,Nelas, Portugal","Seia, Portugal",-7.8544253,40.5355823,Nelas,Seia
721255,Restaurante Real,"Hotel Urgeiriça - Urgeiriça,Canas de Senhorim, Portugal","Seia, Portugal",-7.89572001,40.51441193,Canas de Senhorim,Seia
730998,Restaurante Melmequer,"Avenida da República Nº1, Valezim,Valezim, Portugal","Seia, Portugal",-7.7814197,40.3577852,Valezim,Seia
713804,Taberna da Alzira - Villa Alzira,"R. de São Sebastião,Sandomil, Portugal","Seia, Portugal",-7.9933224,41.2776988,Sandomil,Seia
750243,Roots Bistro Bar,"R. Principal 5 - Aqua Village Health Resort & Spa,Oliveira do Hospital, Portugal","Seia, Portugal",-7.86166334,40.35971451,Oliveira do Hospital,Seia
730838,Restaurante A Torre (Torre Serra da Estrela),"Alvoco da Serra,Alvoco da Serra, Portugal","Seia, Portugal",-7.6703968,40.29549408,Alvoco da Serra,Seia
64772,Santo Amaro,"Rua 1.º de Dezembro, 15,Sertã, Portugal","Sertã, Portugal",-7.7438184,39.627708,Sertã,Sertã
501687,Combinaçao de Sabores,"Largo da Cruz Velha,Vila Nova de Famalicão, Portugal","Vila Nova de Famalicão, Portugal",-8.52250415,41.41161774,Vila Nova de Famalicão,Vila Nova de Famalicão
724143,Il Gatto Ginno,"Alameda Cónego Joaquim Fernandes 160,Vila Nova de Famalicão, Portugal","Vila Nova de Famalicão, Portugal",-8.52101228,41.41052328,Vila Nova de Famalicão,Vila Nova de Famalicão
418275,Sabores do Algarve,"R. Augusto Correia 42,Vila Nova de Famalicão, Portugal","Vila Nova de Famalicão, Portugal",-8.5202863,41.409034,Vila Nova de Famalicão,Vila Nova de Famalicão
612699,ME.AT,"Av. 25 de Abril 22 4760,Vila Nova de Famalicão, Portugal","Vila Nova de Famalicão, Portugal",-8.5692709,41.3603848,Vila Nova de Famalicão,Vila Nova de Famalicão
802161,Rua Gourmet Restaurante Pizzeria,"Av. Narciso Ferreira 181,Vila Nova de Famalicão, Portugal","Vila Nova de Famalicão, Portugal",-8.5173404,41.4096614,Vila Nova de Famalicão,Vila Nova de Famalicão
